hashing,magic,majorLinkerVersion,minorLinkerVerison,SizeOfCode,SizeOfInitializedData,SizeOfUnitializedData,AddressOfEntryPoint, BaseOfCode: ,BaseOfData:,ImageBase:,SectionAlignment,FileAlignment:,MajorOperatingSystemVersion, MinorOperatingSystemVersion,MajorImageVersion,MinorImageVersion:,MajorSubsystemVersion,MinorSubsystemVersion:,Reserved1,SizeOfImage,SizeOfHeaders,CheckSum,Subsystem,DllCharacteristics,SizeOfStackReserve,SizeOfStackCommit,SizeOfHeapReserve,SizeOfHeapCommit,LoaderFlags,NumberOfRvaAndSizes,,Name,Misc,Misc_PhysicalAddress,Misc_VirtualSize,VirtualAddress,SizeOfRawData,PointerToRawData,PointerToRelocations,PointerToLinenumbers,NumberOfRelocations,NumberOfLinenumbers,Characteristics,,Name,Misc,Misc_PhysicalAddress,Misc_VirtualSize,VirtualAddress,SizeOfRawData,PointerToRawData,PointerToRelocations,PointerToLinenumbers,NumberOfRelocations,NumberOfLinenumbers,Characteristics,,Name,Misc,Misc_PhysicalAddress,Misc_VirtualSize,VirtualAddress,SizeOfRawData,PointerToRawData,PointerToRelocations,PointerToLinenumbers,NumberOfRelocations,NumberOfLinenumbers,Characteristics,,Name,Misc,Misc_PhysicalAddress,Misc_VirtualSize,VirtualAddress,SizeOfRawData,PointerToRawData,PointerToRelocations,PointerToLinenumbers,NumberOfRelocations,NumberOfLinenumbers,Characteristics,,Name,Misc,Misc_PhysicalAddress,Misc_VirtualSize,VirtualAddress,SizeOfRawData,PointerToRawData,PointerToRelocations,PointerToLinenumbers,NumberOfRelocations,NumberOfLinenumbers,Characteristics,Type
00060e7df9844d69e0548fc6b6787c9f3c7f6048507516ff5c83c134884a04a1, 0x10B, 0x2, 0x32, 0x7EE00, 0x28A00, 0x7000, 0x79D40, 0x1000, 0x80000, 0x400000, 0x1000, 0x200, 0x1, 0x0, 0x0, 0x0, 0x4, 0x0, 0x0, 0xB5000, 0x400, 0x0, 0x2, 0x0, 0x100000, 0x1000, 0x100000, 0x1000, 0x0, 0x10, , .text, 0x7EDEB, 0x7EDEB, 0x7EDEB, 0x1000, 0x7EE00, 0x400, 0x0, 0x0, 0x0, 0x0, 0x60000020, , .bss, 0x6F9F, 0x6F9F, 0x6F9F, 0x80000, 0x0, 0x0, 0x0, 0x0, 0x0, 0x0, 0xC0000080, , .rdata, 0x241, 0x241, 0x241, 0x87000, 0x400, 0x7F200, 0x0, 0x0, 0x0, 0x0, 0x40000040, , .exc, 0x1A4, 0x1A4, 0x1A4, 0x88000, 0x200, 0x7F600, 0x0, 0x0, 0x0, 0x0, 0x40000040, , .data, 0x1D540, 0x1D540, 0x1D540, 0x89000, 0x1D600, 0x7F800, 0x0, 0x0, 0x0, 0x0, 0xC0000040,0
0008d0135a28f4dce813b0b6590734d4025032c4cb2c9dd4e8ccdfba8eaf4352, 0x10B, 0x6, 0x0, 0x10000, 0x2000, 0x0, 0x1868, 0x1000, 0x11000, 0x400000, 0x1000, 0x1000, 0x4, 0x0, 0x1, 0x0, 0x4, 0x0, 0x0, 0x13000, 0x1000, 0x1A6D8, 0x2, 0x0, 0x100000, 0x1000, 0x100000, 0x1000, 0x0, 0x10, , .text, 0xF20C, 0xF20C, 0xF20C, 0x1000, 0x10000, 0x1000, 0x0, 0x0, 0x0, 0x0, 0x60000020, , .data, 0xD54, 0xD54, 0xD54, 0x11000, 0x1000, 0x11000, 0x0, 0x0, 0x0, 0x0, 0xC0000040, , .rsrc, 0x900, 0x900, 0x900, 0x12000, 0x1000, 0x12000, 0x0, 0x0, 0x0, 0x0, 0x40000040, , ,,,,,,,,,,,,,,,,,,,,,,,,,0
001300a5323bf6c1812b686c1c896857d4cf85c676e48f451d8cb7b9a8f0afe0, 0x10B, 0x9, 0x0, 0x25400, 0x40A00, 0x0, 0x1A2C0, 0x1000, 0x27000, 0x1000000, 0x1000, 0x200, 0x6, 0x1, 0x6, 0x1, 0x5, 0x1, 0x0, 0x69000, 0x400, 0x40B79, 0x3, 0x8140, 0x40000, 0x2000, 0x100000, 0x1000, 0x0, 0x10, , .text, 0x25298, 0x25298, 0x25298, 0x1000, 0x25400, 0x400, 0x0, 0x0, 0x0, 0x0, 0x60000020, , .data, 0x363FC, 0x363FC, 0x363FC, 0x27000, 0x1A00, 0x25800, 0x0, 0x0, 0x0, 0x0, 0xC0000040, , .rsrc, 0x6FD8, 0x6FD8, 0x6FD8, 0x5E000, 0x7000, 0x27200, 0x0, 0x0, 0x0, 0x0, 0x40000040, , .reloc, 0x3436, 0x3436, 0x3436, 0x65000, 0x3600, 0x2E200, 0x0, 0x0, 0x0, 0x0, 0x42000040, , ,,,,,,,,,,,,0
001b0c91f2ed80cc3048881a6124d81ff029d21602b9a07baf760f0f05ad6fad, 0x10B, 0xA, 0x0, 0x3FA00, 0x11E00, 0x0, 0x2BDB1, 0x1000, 0x41000, 0x400000, 0x1000, 0x200, 0x5, 0x1, 0x0, 0x0, 0x5, 0x1, 0x0, 0x57000, 0x400, 0x592A7, 0x3, 0x8140, 0x100000, 0x1000, 0x100000, 0x1000, 0x0, 0x10, , .text, 0x3F88B, 0x3F88B, 0x3F88B, 0x1000, 0x3FA00, 0x400, 0x0, 0x0, 0x0, 0x0, 0x60000020, , .rdata, 0xA7D8, 0xA7D8, 0xA7D8, 0x41000, 0xA800, 0x3FE00, 0x0, 0x0, 0x0, 0x0, 0x40000040, , .data, 0x4BC0, 0x4BC0, 0x4BC0, 0x4C000, 0x2A00, 0x4A600, 0x0, 0x0, 0x0, 0x0, 0xC0000040, , .rsrc, 0x56C, 0x56C, 0x56C, 0x51000, 0x600, 0x4D000, 0x0, 0x0, 0x0, 0x0, 0x40000040, , .reloc, 0x45B4, 0x45B4, 0x45B4, 0x52000, 0x4600, 0x4D600, 0x0, 0x0, 0x0, 0x0, 0x42000040,0
0027f27d324c4693cc70d3902f14a0dcde4676982d58cabdc62ff1c337ce48cf, 0x10B, 0xC, 0x0, 0x61600, 0x1B400, 0x0, 0x493F7, 0x1000, 0x63000, 0x400000, 0x1000, 0x200, 0x5, 0x1, 0x0, 0x0, 0x5, 0x1, 0x0, 0x83000, 0x400, 0x82917, 0x3, 0x8140, 0x100000, 0x1000, 0x100000, 0x1000, 0x0, 0x10, , .text, 0x61422, 0x61422, 0x61422, 0x1000, 0x61600, 0x400, 0x0, 0x0, 0x0, 0x0, 0x60000020, , .rdata, 0x14CDC, 0x14CDC, 0x14CDC, 0x63000, 0x14E00, 0x61A00, 0x0, 0x0, 0x0, 0x0, 0x40000040, , .data, 0x5004, 0x5004, 0x5004, 0x78000, 0x2600, 0x76800, 0x0, 0x0, 0x0, 0x0, 0xC0000040, , .rsrc, 0x750, 0x750, 0x750, 0x7E000, 0x800, 0x78E00, 0x0, 0x0, 0x0, 0x0, 0x40000040, , .reloc, 0x375C, 0x375C, 0x375C, 0x7F000, 0x3800, 0x79600, 0x0, 0x0, 0x0, 0x0, 0x42000040,0
0028674d11b4995333b419ca593b6596ed482c28fba06b9349718a838a43618e, 0x10B, 0x6, 0x0, 0x1AA00, 0xBA00, 0x0, 0x1939C, 0x1000, 0x1C000, 0x400000, 0x1000, 0x200, 0x4, 0x0, 0x0, 0x0, 0x4, 0x0, 0x0, 0x29000, 0x400, 0x0, 0x2, 0x0, 0x100000, 0x1000, 0x100000, 0x1000, 0x0, 0x10, , .text, 0x1A90E, 0x1A90E, 0x1A90E, 0x1000, 0x1AA00, 0x400, 0x0, 0x0, 0x0, 0x0, 0x60000020, , .rdata, 0x52BA, 0x52BA, 0x52BA, 0x1C000, 0x5400, 0x1AE00, 0x0, 0x0, 0x0, 0x0, 0x40000040, , .data, 0x4C6C, 0x4C6C, 0x4C6C, 0x22000, 0xA00, 0x20200, 0x0, 0x0, 0x0, 0x0, 0xC0000040, , .rsrc, 0x199C, 0x199C, 0x199C, 0x27000, 0x1A00, 0x20C00, 0x0, 0x0, 0x0, 0x0, 0x40000040, , ,,,,,,,,,,,,0
004f277954f86a21374b27718807444cb6b4627e2ee3dbda1ca2a9572b8b5c08, 0x10B, 0xA, 0x0, 0x16D600, 0xC6C00, 0x0, 0x1410F2, 0x1000, 0x16F000, 0x400000, 0x1000, 0x200, 0x5, 0x1, 0x0, 0x0, 0x5, 0x1, 0x0, 0x242000, 0x400, 0x23C8DC, 0x2, 0x8100, 0x100000, 0x1000, 0x100000, 0x1000, 0x0, 0x10, , .text, 0x16D4EC, 0x16D4EC, 0x16D4EC, 0x1000, 0x16D600, 0x400, 0x0, 0x0, 0x0, 0x0, 0x60000020, , .rdata, 0x5201E, 0x5201E, 0x5201E, 0x16F000, 0x52200, 0x16DA00, 0x0, 0x0, 0x0, 0x0, 0x40000040, , .data, 0x1083C, 0x1083C, 0x1083C, 0x1C2000, 0x6E00, 0x1BFC00, 0x0, 0x0, 0x0, 0x0, 0xC0000040, , SHARED, 0x4, 0x4, 0x4, 0x1D3000, 0x200, 0x1C6A00, 0x0, 0x0, 0x0, 0x0, 0xD0000040, , .rsrc, 0x6D8F8, 0x6D8F8, 0x6D8F8, 0x1D4000, 0x6DA00, 0x1C6C00, 0x0, 0x0, 0x0, 0x0, 0x40000040,0
005754ced6f73a197a4a21c58da39d5e3ee84e484640765dbda2475f4ba2d3bd, 0x10B, 0xC, 0x0, 0xFC00, 0x63400, 0x0, 0x24F9, 0x1000, 0x11000, 0x400000, 0x1000, 0x200, 0x5, 0x1, 0x0, 0x0, 0x5, 0x1, 0x0, 0x77000, 0x400, 0x73F13, 0x3, 0x8140, 0x100000, 0x1000, 0x100000, 0x1000, 0x0, 0x10, , .text, 0xFBB4, 0xFBB4, 0xFBB4, 0x1000, 0xFC00, 0x400, 0x0, 0x0, 0x0, 0x0, 0x60000020, , .rdata, 0x55D0, 0x55D0, 0x55D0, 0x11000, 0x5600, 0x10000, 0x0, 0x0, 0x0, 0x0, 0x40000040, , .data, 0x30CC, 0x30CC, 0x30CC, 0x17000, 0x1200, 0x15600, 0x0, 0x0, 0x0, 0x0, 0xC0000040, , .tls, 0x10009, 0x10009, 0x10009, 0x1B000, 0x10200, 0x16800, 0x0, 0x0, 0x0, 0x0, 0xC0000040, , .rsrc, 0x498A8, 0x498A8, 0x498A8, 0x2C000, 0x49A00, 0x26A00, 0x0, 0x0, 0x0, 0x0, 0x40000040,0
005cb8c786c6eaa28fc6f3194d475018af5b3241b375e400bf5c5ce9d7ebc4be, 0x10B, 0xE, 0xA, 0x30E00, 0x3AEE00, 0x0, 0x1A760, 0x1000, 0x32000, 0x400000, 0x1000, 0x200, 0xA, 0x0, 0xA, 0x0, 0x5, 0x1, 0x0, 0x3E3000, 0x400, 0x3EAB12, 0x2, 0xC140, 0x40000, 0x2000, 0x100000, 0x1000, 0x0, 0x10, , .text, 0x30DD0, 0x30DD0, 0x30DD0, 0x1000, 0x30E00, 0x400, 0x0, 0x0, 0x0, 0x0, 0x60000020, , .data, 0x1CB0, 0x1CB0, 0x1CB0, 0x32000, 0x1000, 0x31200, 0x0, 0x0, 0x0, 0x0, 0xC0000040, , .idata, 0xF08, 0xF08, 0xF08, 0x34000, 0x1000, 0x32200, 0x0, 0x0, 0x0, 0x0, 0x40000040, , .rsrc, 0x3AA710, 0x3AA710, 0x3AA710, 0x35000, 0x3AA800, 0x33200, 0x0, 0x0, 0x0, 0x0, 0x40000040, , .reloc, 0x2440, 0x2440, 0x2440, 0x3E0000, 0x2600, 0x3DDA00, 0x0, 0x0, 0x0, 0x0, 0x42000040,0
005cbfb334fccebc40f66eaff7e9355b83bfaf2795c5d84c2c7c82173018f133, 0x10B, 0x6, 0x0, 0x5E00, 0x1D000, 0x400, 0x322B, 0x1000, 0x7000, 0x400000, 0x1000, 0x200, 0x4, 0x0, 0x6, 0x0, 0x4, 0x0, 0x0, 0x3E000, 0x400, 0x24BA11, 0x2, 0x8540, 0x100000, 0x1000, 0x100000, 0x1000, 0x0, 0x10, , .text, 0x5DC5, 0x5DC5, 0x5DC5, 0x1000, 0x5E00, 0x400, 0x0, 0x0, 0x0, 0x0, 0x60000020, , .rdata, 0x1246, 0x1246, 0x1246, 0x7000, 0x1400, 0x6200, 0x0, 0x0, 0x0, 0x0, 0x40000040, , .data, 0x1A818, 0x1A818, 0x1A818, 0x9000, 0x400, 0x7600, 0x0, 0x0, 0x0, 0x0, 0xC0000040, , .ndata, 0x11000, 0x11000, 0x11000, 0x24000, 0x0, 0x0, 0x0, 0x0, 0x0, 0x0, 0xC0000080, , .rsrc, 0x8180, 0x8180, 0x8180, 0x35000, 0x8200, 0x7A00, 0x0, 0x0, 0x0, 0x0, 0x40000040,0
00665b36d7b75b896d3f45bb99f0fcf93461023cacc7d83113cf5661725c1371, 0x10B, 0xE, 0xA, 0x2E400, 0xA7A200, 0x0, 0x2A850, 0x1000, 0x30000, 0x400000, 0x1000, 0x200, 0xA, 0x0, 0xA, 0x0, 0x6, 0x1, 0x0, 0xAB0000, 0x400, 0x1190978, 0x2, 0xC140, 0x40000, 0x2000, 0x100000, 0x1000, 0x0, 0x10, , .text, 0x2E224, 0x2E224, 0x2E224, 0x1000, 0x2E400, 0x400, 0x0, 0x0, 0x0, 0x0, 0x60000020, , .data, 0x2D28, 0x2D28, 0x2D28, 0x30000, 0x800, 0x2E800, 0x0, 0x0, 0x0, 0x0, 0xC0000040, , .idata, 0x230A, 0x230A, 0x230A, 0x33000, 0x2400, 0x2F000, 0x0, 0x0, 0x0, 0x0, 0x40000040, , .boxload, 0x40, 0x40, 0x40, 0x36000, 0x200, 0x31400, 0x0, 0x0, 0x0, 0x0, 0x40000040, , .rsrc, 0xA75000, 0xA75000, 0xA75000, 0x37000, 0xA74200, 0x31600, 0x0, 0x0, 0x0, 0x0, 0x40000040,0
006f0d7ffa9122a3c6e81588e0f01546b85ae4c7b869fda9b345f03e6f2421ef, 0x10B, 0x2, 0x19, 0x9400, 0x3C00, 0x0, 0x9C40, 0x1000, 0xB000, 0x400000, 0x1000, 0x200, 0x1, 0x0, 0x6, 0x0, 0x4, 0x0, 0x0, 0x14000, 0x400, 0x0, 0x2, 0x8000, 0x100000, 0x4000, 0x100000, 0x1000, 0x0, 0x10, , CODE, 0x9364, 0x9364, 0x9364, 0x1000, 0x9400, 0x400, 0x0, 0x0, 0x0, 0x0, 0x60000020, , DATA, 0x24C, 0x24C, 0x24C, 0xB000, 0x400, 0x9800, 0x0, 0x0, 0x0, 0x0, 0xC0000040, , BSS, 0xE88, 0xE88, 0xE88, 0xC000, 0x0, 0x9C00, 0x0, 0x0, 0x0, 0x0, 0xC0000000, , .idata, 0x950, 0x950, 0x950, 0xD000, 0xA00, 0x9C00, 0x0, 0x0, 0x0, 0x0, 0xC0000040, , .tls, 0x8, 0x8, 0x8, 0xE000, 0x0, 0xA600, 0x0, 0x0, 0x0, 0x0, 0xC0000000,0
009997e531dc3f4f5c02ed2de7cfa06de6cf66d6945899646d0a1aa60f3187c0, 0x10B, 0x6, 0x0, 0x197000, 0x11000, 0x0, 0x71C4, 0x1000, 0x198000, 0x400000, 0x1000, 0x1000, 0x4, 0x0, 0x0, 0x0, 0x4, 0x0, 0x0, 0x1A9000, 0x1000, 0x1A78E2, 0x2, 0x0, 0x100000, 0x1000, 0x100000, 0x1000, 0x0, 0x10, , .text, 0x1962AC, 0x1962AC, 0x1962AC, 0x1000, 0x197000, 0x1000, 0x0, 0x0, 0x0, 0x0, 0x60000020, , .data, 0xFC70, 0xFC70, 0xFC70, 0x198000, 0x1000, 0x198000, 0x0, 0x0, 0x0, 0x0, 0xC0000040, , .rsrc, 0x468, 0x468, 0x468, 0x1A8000, 0x1000, 0x199000, 0x0, 0x0, 0x0, 0x0, 0x40000040, , ,,,,,,,,,,,,,,,,,,,,,,,,,0
009df87cd1f5ac014d89d16c3fd9854eb1c53447932115bd650cea1bf3db5e30, 0x10B, 0x9, 0x0, 0x14200, 0xB200, 0x0, 0x8874, 0x1000, 0x16000, 0x400000, 0x1000, 0x200, 0x5, 0x0, 0x0, 0x0, 0x5, 0x0, 0x0, 0x24000, 0x400, 0x2D1DB, 0x2, 0x8140, 0x100000, 0x1000, 0x100000, 0x1000, 0x0, 0x10, , .text, 0x14135, 0x14135, 0x14135, 0x1000, 0x14200, 0x400, 0x0, 0x0, 0x0, 0x0, 0x60000020, , .rdata, 0x4380, 0x4380, 0x4380, 0x16000, 0x4400, 0x14600, 0x0, 0x0, 0x0, 0x0, 0x40000040, , .data, 0x3F4C, 0x3F4C, 0x3F4C, 0x1B000, 0x2400, 0x18A00, 0x0, 0x0, 0x0, 0x0, 0xC0000040, , .rsrc, 0x2B70, 0x2B70, 0x2B70, 0x1F000, 0x2C00, 0x1AE00, 0x0, 0x0, 0x0, 0x0, 0x40000040, , .reloc, 0x1DD4, 0x1DD4, 0x1DD4, 0x22000, 0x1E00, 0x1DA00, 0x0, 0x0, 0x0, 0x0, 0x42000040,0
00b39e152ec2f569424596049b35917c7b767b16132f63a0330ccc3b89c7f188, 0x10B, 0x2, 0x19, 0x9E00, 0x72200, 0x0, 0xA5F8, 0x1000, 0xB000, 0x400000, 0x1000, 0x200, 0x1, 0x0, 0x6, 0x0, 0x4, 0x0, 0x0, 0x83000, 0x400, 0x15587D4, 0x2, 0x8000, 0x100000, 0x4000, 0x100000, 0x1000, 0x0, 0x10, , CODE, 0x9D30, 0x9D30, 0x9D30, 0x1000, 0x9E00, 0x400, 0x0, 0x0, 0x0, 0x0, 0x60000020, , DATA, 0x250, 0x250, 0x250, 0xB000, 0x400, 0xA200, 0x0, 0x0, 0x0, 0x0, 0xC0000040, , BSS, 0xE90, 0xE90, 0xE90, 0xC000, 0x0, 0xA600, 0x0, 0x0, 0x0, 0x0, 0xC0000000, , .idata, 0x950, 0x950, 0x950, 0xD000, 0xA00, 0xA600, 0x0, 0x0, 0x0, 0x0, 0xC0000040, , .tls, 0x8, 0x8, 0x8, 0xE000, 0x0, 0xB000, 0x0, 0x0, 0x0, 0x0, 0xC0000000,0
00b7c7143761c72cd5ffa430bf6ec6c4a8841a6a78e9acfde01e9dbb871339a2, 0x10B, 0x2, 0x19, 0xC400, 0x3800, 0x0, 0x1000, 0x1000, 0xE000, 0x400000, 0x1000, 0x200, 0x1, 0x0, 0x0, 0x0, 0x3, 0xA, 0x0, 0x1B000, 0x400, 0x1690F7, 0x2, 0x0, 0x100000, 0x2000, 0x100000, 0x1000, 0x0, 0x10, , CODE, 0xD000, 0xD000, 0xD000, 0x1000, 0xC400, 0x600, 0x0, 0x0, 0x0, 0x0, 0x60000020, , DATA, 0x8000, 0x8000, 0x8000, 0xE000, 0x1A00, 0xCA00, 0x0, 0x0, 0x0, 0x0, 0xC0000040, , .idata, 0x1000, 0x1000, 0x1000, 0x16000, 0xE00, 0xE400, 0x0, 0x0, 0x0, 0x0, 0xC0000040, , .edata, 0x1000, 0x1000, 0x1000, 0x17000, 0x200, 0xF200, 0x0, 0x0, 0x0, 0x0, 0x40000040, , .reloc, 0x1000, 0x1000, 0x1000, 0x18000, 0xE00, 0xF400, 0x0, 0x0, 0x0, 0x0, 0x50000040,0
00ef241bf92c761a1a911b626d38108545f5cf250d900eb419fbd99fb2df3041, 0x10B, 0x9, 0x0, 0x3E00, 0x1800, 0x0, 0x3EDB, 0x1000, 0x5000, 0x1000000, 0x1000, 0x200, 0x6, 0x1, 0x6, 0x1, 0x6, 0x1, 0x0, 0x8000, 0x400, 0x53BB, 0x3, 0x8140, 0x40000, 0x2000, 0x100000, 0x1000, 0x0, 0x10, , .text, 0x3CDE, 0x3CDE, 0x3CDE, 0x1000, 0x3E00, 0x400, 0x0, 0x0, 0x0, 0x0, 0x60000020, , .data, 0x9A8, 0x9A8, 0x9A8, 0x5000, 0x200, 0x4200, 0x0, 0x0, 0x0, 0x0, 0xC0000040, , .rsrc, 0x948, 0x948, 0x948, 0x6000, 0xA00, 0x4400, 0x0, 0x0, 0x0, 0x0, 0x40000040, , .reloc, 0x316, 0x316, 0x316, 0x7000, 0x400, 0x4E00, 0x0, 0x0, 0x0, 0x0, 0x42000040, , ,,,,,,,,,,,,0
01090324565d0c453fb6a5cc95f5b0b49353184cc475e301391032296f590cac, 0x10B, 0x6, 0x0, 0x45000, 0x81000, 0x0, 0x22D69, 0x1000, 0x46000, 0x400000, 0x1000, 0x1000, 0x4, 0x0, 0x0, 0x0, 0x4, 0x0, 0x0, 0xC9000, 0x1000, 0x0, 0x2, 0x0, 0x100000, 0x1000, 0x100000, 0x1000, 0x0, 0x10, , .text, 0x44B52, 0x44B52, 0x44B52, 0x1000, 0x45000, 0x1000, 0x0, 0x0, 0x0, 0x0, 0x60000020, , .rdata, 0x5A50, 0x5A50, 0x5A50, 0x46000, 0x6000, 0x46000, 0x0, 0x0, 0x0, 0x0, 0x40000040, , .data, 0x742C, 0x742C, 0x742C, 0x4C000, 0x6000, 0x4C000, 0x0, 0x0, 0x0, 0x0, 0xC0000040, , .rsrc, 0x74698, 0x74698, 0x74698, 0x54000, 0x75000, 0x52000, 0x0, 0x0, 0x0, 0x0, 0x40000040, , ,,,,,,,,,,,,0
010990b2459a598d1bab97167fe23d0777f282f32e4ff2f86cf08b0808f68ca9, 0x10B, 0x2, 0x19, 0xFE00, 0x56400, 0x0, 0x113BC, 0x1000, 0x12000, 0x400000, 0x1000, 0x200, 0x5, 0x0, 0x6, 0x0, 0x5, 0x0, 0x0, 0x71000, 0x400, 0x2996D82, 0x2, 0x8000, 0x100000, 0x4000, 0x100000, 0x1000, 0x0, 0x10, , .text, 0xF12C, 0xF12C, 0xF12C, 0x1000, 0xF200, 0x400, 0x0, 0x0, 0x0, 0x0, 0x60000020, , .itext, 0xB44, 0xB44, 0xB44, 0x11000, 0xC00, 0xF600, 0x0, 0x0, 0x0, 0x0, 0x60000020, , .data, 0xC88, 0xC88, 0xC88, 0x12000, 0xE00, 0x10200, 0x0, 0x0, 0x0, 0x0, 0xC0000040, , .bss, 0x56B4, 0x56B4, 0x56B4, 0x13000, 0x0, 0x11000, 0x0, 0x0, 0x0, 0x0, 0xC0000000, , .idata, 0xDD0, 0xDD0, 0xDD0, 0x19000, 0xE00, 0x11000, 0x0, 0x0, 0x0, 0x0, 0xC0000040,0
010fac2f4d6b39cf9a30630fbab657e79173724150cb4f034615970493b0a3c2, 0x10B, 0xA, 0x0, 0x39000, 0x46600, 0x0, 0x2813A, 0x1000, 0x3A000, 0x400000, 0x1000, 0x200, 0x5, 0x1, 0x0, 0x0, 0x5, 0x1, 0x0, 0x86000, 0x400, 0xFB0E3, 0x2, 0x8140, 0x100000, 0x1000, 0x100000, 0x1000, 0x0, 0x10, , .text, 0x38F74, 0x38F74, 0x38F74, 0x1000, 0x39000, 0x400, 0x0, 0x0, 0x0, 0x0, 0x60000020, , .rdata, 0x19E1C, 0x19E1C, 0x19E1C, 0x3A000, 0x1A000, 0x39400, 0x0, 0x0, 0x0, 0x0, 0x40000040, , .data, 0x30C0, 0x30C0, 0x30C0, 0x54000, 0x1000, 0x53400, 0x0, 0x0, 0x0, 0x0, 0xC0000040, , .wixburn, 0x38, 0x38, 0x38, 0x58000, 0x200, 0x54400, 0x0, 0x0, 0x0, 0x0, 0x40000040, , .tls, 0x9, 0x9, 0x9, 0x59000, 0x200, 0x54600, 0x0, 0x0, 0x0, 0x0, 0xC0000040,0
0119247be3c7707b1421dc5de6457eae359ac7c493daaf0e68d3288e8a2296b8, 0x10B, 0x2, 0x19, 0x9400, 0xC400, 0x0, 0x9C40, 0x1000, 0xB000, 0x400000, 0x1000, 0x200, 0x1, 0x0, 0x6, 0x0, 0x4, 0x0, 0x0, 0x1D000, 0x400, 0x0, 0x2, 0x8000, 0x100000, 0x4000, 0x100000, 0x1000, 0x0, 0x10, , CODE, 0x9364, 0x9364, 0x9364, 0x1000, 0x9400, 0x400, 0x0, 0x0, 0x0, 0x0, 0x60000020, , DATA, 0x24C, 0x24C, 0x24C, 0xB000, 0x400, 0x9800, 0x0, 0x0, 0x0, 0x0, 0xC0000040, , BSS, 0xE88, 0xE88, 0xE88, 0xC000, 0x0, 0x9C00, 0x0, 0x0, 0x0, 0x0, 0xC0000000, , .idata, 0x950, 0x950, 0x950, 0xD000, 0xA00, 0x9C00, 0x0, 0x0, 0x0, 0x0, 0xC0000040, , .tls, 0x8, 0x8, 0x8, 0xE000, 0x0, 0xA600, 0x0, 0x0, 0x0, 0x0, 0xC0000000,0
01235c546f0b7c5c5316cab5523b4dfcf074c7a6470eace46ba0d7768272e0ea, 0x10B, 0x8, 0x0, 0xAF000, 0xF0000, 0x0, 0x85EA5, 0x1000, 0xB0000, 0x400000, 0x1000, 0x1000, 0x4, 0x0, 0x0, 0x0, 0x4, 0x0, 0x0, 0x1A5000, 0x1000, 0x1A7820, 0x2, 0x0, 0x100000, 0x1000, 0x100000, 0x1000, 0x0, 0x10, , .text, 0xA7885, 0xA7885, 0xA7885, 0x1000, 0xA8000, 0x1000, 0x0, 0x0, 0x0, 0x0, 0x60000020, , EPCL_TEX, 0x3BB3, 0x3BB3, 0x3BB3, 0xA9000, 0x4000, 0xA9000, 0x0, 0x0, 0x0, 0x0, 0x60000020, , EPCL_SET, 0x8C7, 0x8C7, 0x8C7, 0xAD000, 0x1000, 0xAD000, 0x0, 0x0, 0x0, 0x0, 0x60000020, , EPCL_TES, 0x782, 0x782, 0x782, 0xAE000, 0x1000, 0xAE000, 0x0, 0x0, 0x0, 0x0, 0x60000020, , EPCL_INI, 0x113, 0x113, 0x113, 0xAF000, 0x1000, 0xAF000, 0x0, 0x0, 0x0, 0x0, 0x60000020,0
014f232c3bb36a0e3ab1646ed5544cf834e6da4176bb3a3d76923b986623a294, 0x10B, 0xE, 0x0, 0x59000, 0x29200, 0x0, 0x330C2, 0x1000, 0x5A000, 0x400000, 0x1000, 0x200, 0x5, 0x1, 0xA, 0x0, 0x5, 0x1, 0x0, 0x87000, 0x400, 0x86EE7, 0x2, 0x8140, 0x100000, 0x2000, 0x100000, 0x1000, 0x0, 0x10, , .text, 0x58E58, 0x58E58, 0x58E58, 0x1000, 0x59000, 0x400, 0x0, 0x0, 0x0, 0x0, 0x60000020, , .data, 0x3D2C, 0x3D2C, 0x3D2C, 0x5A000, 0x1800, 0x59400, 0x0, 0x0, 0x0, 0x0, 0xC0000040, , .idata, 0x152A, 0x152A, 0x152A, 0x5E000, 0x1600, 0x5AC00, 0x0, 0x0, 0x0, 0x0, 0x40000040, , .rsrc, 0x2277C, 0x2277C, 0x2277C, 0x60000, 0x22800, 0x5C200, 0x0, 0x0, 0x0, 0x0, 0x40000040, , .reloc, 0x3B4C, 0x3B4C, 0x3B4C, 0x83000, 0x3C00, 0x7EA00, 0x0, 0x0, 0x0, 0x0, 0x42000040,0
0150f8f46dcf66bff344d21d2815bad0ba6245a170beadf4e1060f2fed976691, 0x10B, 0xE, 0x0, 0x41C00, 0x16BA400, 0x0, 0x1FD4E, 0x1000, 0x43000, 0x400000, 0x1000, 0x200, 0x6, 0x0, 0x0, 0x0, 0x6, 0x0, 0x0, 0x1701000, 0x400, 0x1708D5D, 0x2, 0x8140, 0x100000, 0x1000, 0x100000, 0x1000, 0x0, 0x10, , .text, 0x41A33, 0x41A33, 0x41A33, 0x1000, 0x41C00, 0x400, 0x0, 0x0, 0x0, 0x0, 0x60000020, , .rdata, 0x1274E, 0x1274E, 0x1274E, 0x43000, 0x12800, 0x42000, 0x0, 0x0, 0x0, 0x0, 0x40000040, , .data, 0x28B4, 0x28B4, 0x28B4, 0x56000, 0x1A00, 0x54800, 0x0, 0x0, 0x0, 0x0, 0xC0000040, , .gfids, 0x7B4, 0x7B4, 0x7B4, 0x59000, 0x800, 0x56200, 0x0, 0x0, 0x0, 0x0, 0x40000040, , .tls, 0x9, 0x9, 0x9, 0x5A000, 0x200, 0x56A00, 0x0, 0x0, 0x0, 0x0, 0xC0000040,0
0170f2b35edc48102567028e92c388c23da26fca411cd0a8b9e319c8ff3d3dee, 0x10B, 0xE, 0x0, 0x48C00, 0x49A00, 0x0, 0x2A7FD, 0x1000, 0x4A000, 0x400000, 0x1000, 0x200, 0x5, 0x1, 0x0, 0x0, 0x5, 0x1, 0x0, 0x98000, 0x400, 0x20CACE, 0x2, 0x8140, 0x100000, 0x1000, 0x100000, 0x1000, 0x0, 0x10, , .text, 0x48A58, 0x48A58, 0x48A58, 0x1000, 0x48C00, 0x400, 0x0, 0x0, 0x0, 0x0, 0x60000020, , .rdata, 0x1E44C, 0x1E44C, 0x1E44C, 0x4A000, 0x1E600, 0x49000, 0x0, 0x0, 0x0, 0x0, 0x40000040, , .data, 0x1660, 0x1660, 0x1660, 0x69000, 0xA00, 0x67600, 0x0, 0x0, 0x0, 0x0, 0xC0000040, , .wixburn, 0x38, 0x38, 0x38, 0x6B000, 0x200, 0x68000, 0x0, 0x0, 0x0, 0x0, 0x40000040, , .tls, 0x9, 0x9, 0x9, 0x6C000, 0x200, 0x68200, 0x0, 0x0, 0x0, 0x0, 0xC0000040,0
017101b3c538cf9368dcb91b9f8b252322183dcbca90ee01ed338e331f029166, 0x10B, 0x8, 0x0, 0xAF000, 0xF0000, 0x0, 0x85EA5, 0x1000, 0xB0000, 0x400000, 0x1000, 0x1000, 0x4, 0x0, 0x0, 0x0, 0x4, 0x0, 0x0, 0x1A5000, 0x1000, 0x1A7820, 0x2, 0x0, 0x100000, 0x1000, 0x100000, 0x1000, 0x0, 0x10, , .text, 0xA7885, 0xA7885, 0xA7885, 0x1000, 0xA8000, 0x1000, 0x0, 0x0, 0x0, 0x0, 0x60000020, , EPCL_TEX, 0x3BB3, 0x3BB3, 0x3BB3, 0xA9000, 0x4000, 0xA9000, 0x0, 0x0, 0x0, 0x0, 0x60000020, , EPCL_SET, 0x8C7, 0x8C7, 0x8C7, 0xAD000, 0x1000, 0xAD000, 0x0, 0x0, 0x0, 0x0, 0x60000020, , EPCL_TES, 0x782, 0x782, 0x782, 0xAE000, 0x1000, 0xAE000, 0x0, 0x0, 0x0, 0x0, 0x60000020, , EPCL_INI, 0x113, 0x113, 0x113, 0xAF000, 0x1000, 0xAF000, 0x0, 0x0, 0x0, 0x0, 0x60000020,0
0185fe9ba75f0a4698f45405ae81514120c1dd380f05f107d0179d62227b8b74, 0x10B, 0x6, 0x0, 0x5C00, 0x1CC00, 0x400, 0x3219, 0x1000, 0x7000, 0x400000, 0x1000, 0x200, 0x4, 0x0, 0x6, 0x0, 0x4, 0x0, 0x0, 0x42000, 0x400, 0x0, 0x2, 0x8000, 0x100000, 0x1000, 0x100000, 0x1000, 0x0, 0x10, , .text, 0x5BE4, 0x5BE4, 0x5BE4, 0x1000, 0x5C00, 0x400, 0x0, 0x0, 0x0, 0x0, 0x60000020, , .rdata, 0x11CE, 0x11CE, 0x11CE, 0x7000, 0x1200, 0x6000, 0x0, 0x0, 0x0, 0x0, 0x40000040, , .data, 0x1A7D8, 0x1A7D8, 0x1A7D8, 0x9000, 0x400, 0x7200, 0x0, 0x0, 0x0, 0x0, 0xC0000040, , .ndata, 0x17000, 0x17000, 0x17000, 0x24000, 0x0, 0x0, 0x0, 0x0, 0x0, 0x0, 0xC0000080, , .rsrc, 0x6F98, 0x6F98, 0x6F98, 0x3B000, 0x7000, 0x7600, 0x0, 0x0, 0x0, 0x0, 0x40000040,0
018e6933882fcc41ee96e198e6f7ecefb53ec650b1044a58876b26ede011158b, 0x10B, 0xC, 0xA, 0x48C00, 0x125000, 0x0, 0x1B0EE, 0x1000, 0x4A000, 0x400000, 0x1000, 0x200, 0x6, 0x0, 0x0, 0x0, 0x6, 0x0, 0x0, 0x171000, 0x400, 0x1710F3, 0x2, 0x8140, 0x100000, 0x1000, 0x100000, 0x1000, 0x0, 0x10, , .text, 0x48A58, 0x48A58, 0x48A58, 0x1000, 0x48C00, 0x400, 0x0, 0x0, 0x0, 0x0, 0x60000020, , .rdata, 0x146DE, 0x146DE, 0x146DE, 0x4A000, 0x14800, 0x49000, 0x0, 0x0, 0x0, 0x0, 0x40000040, , .data, 0x5848, 0x5848, 0x5848, 0x5F000, 0x3400, 0x5D800, 0x0, 0x0, 0x0, 0x0, 0xC0000040, , .rsrc, 0x106478, 0x106478, 0x106478, 0x65000, 0x106600, 0x60C00, 0x0, 0x0, 0x0, 0x0, 0x40000040, , .reloc, 0x463C, 0x463C, 0x463C, 0x16C000, 0x4800, 0x167200, 0x0, 0x0, 0x0, 0x0, 0x42000040,0
019b3548db69ef45243d248a4cdc18c33485d5cc98775ac7612c5fe1b1e8c74c, 0x10B, 0xC, 0x0, 0x3A000, 0x38C00, 0x0, 0x20B8B, 0x1000, 0x3B000, 0x400000, 0x1000, 0x200, 0x5, 0x1, 0x0, 0x0, 0x5, 0x1, 0x0, 0x75000, 0x400, 0x77C05, 0x2, 0x8100, 0x100000, 0x1000, 0x100000, 0x1000, 0x0, 0x10, , .text, 0x39FE4, 0x39FE4, 0x39FE4, 0x1000, 0x3A000, 0x400, 0x0, 0x0, 0x0, 0x0, 0x60000020, , .rdata, 0x149E2, 0x149E2, 0x149E2, 0x3B000, 0x14A00, 0x3A400, 0x0, 0x0, 0x0, 0x0, 0x40000040, , .data, 0x6AE0, 0x6AE0, 0x6AE0, 0x50000, 0x2A00, 0x4EE00, 0x0, 0x0, 0x0, 0x0, 0xC0000040, , .rsrc, 0x1D460, 0x1D460, 0x1D460, 0x57000, 0x1D600, 0x51800, 0x0, 0x0, 0x0, 0x0, 0x40000040, , ,,,,,,,,,,,,0
019e65b354fa619e396dc62e224114c25fcec688dd091e244e5e67fcdb9396ae, 0x10B, 0xC, 0x0, 0x14CE00, 0x7BC00, 0x0, 0x1251E4, 0x1000, 0x14E000, 0x400000, 0x1000, 0x200, 0x5, 0x1, 0x0, 0x0, 0x5, 0x1, 0x0, 0x1D3000, 0x400, 0x1D1832, 0x2, 0x8140, 0x100000, 0x1000, 0x100000, 0x1000, 0x0, 0x10, , .text, 0x14CC6A, 0x14CC6A, 0x14CC6A, 0x1000, 0x14CE00, 0x400, 0x0, 0x0, 0x0, 0x0, 0x60000020, , .rdata, 0x504B6, 0x504B6, 0x504B6, 0x14E000, 0x50600, 0x14D200, 0x0, 0x0, 0x0, 0x0, 0x40000040, , .data, 0xDCE0, 0xDCE0, 0xDCE0, 0x19F000, 0x6400, 0x19D800, 0x0, 0x0, 0x0, 0x0, 0xC0000040, , .rsrc, 0x7BB8, 0x7BB8, 0x7BB8, 0x1AD000, 0x7C00, 0x1A3C00, 0x0, 0x0, 0x0, 0x0, 0x40000040, , .reloc, 0x1D484, 0x1D484, 0x1D484, 0x1B5000, 0x1D600, 0x1AB800, 0x0, 0x0, 0x0, 0x0, 0x42000040,0
01c1096bf695dc00aa03698ba9024a4e5af96021ccf3dc3a05ca233693773ebd, 0x10B, 0x9, 0x0, 0xE00, 0x13000, 0x0, 0x14A2, 0x1000, 0x2000, 0x1000000, 0x1000, 0x200, 0x6, 0x1, 0x6, 0x1, 0x6, 0x1, 0x0, 0x17000, 0x400, 0x153C6, 0x2, 0x8140, 0x40000, 0x2000, 0x100000, 0x1000, 0x0, 0x10, , .text, 0xCA8, 0xCA8, 0xCA8, 0x1000, 0xE00, 0x400, 0x0, 0x0, 0x0, 0x0, 0x60000020, , .data, 0x378, 0x378, 0x378, 0x2000, 0x200, 0x1200, 0x0, 0x0, 0x0, 0x0, 0xC0000040, , .rsrc, 0x12718, 0x12718, 0x12718, 0x3000, 0x12800, 0x1400, 0x0, 0x0, 0x0, 0x0, 0x40000040, , .reloc, 0x220, 0x220, 0x220, 0x16000, 0x400, 0x13C00, 0x0, 0x0, 0x0, 0x0, 0x42000040, , ,,,,,,,,,,,,0
01ca58e136cf9d2d0928f4478ef2caefe04f0182a5bc6a1d564f452aa9912839, 0x10B, 0x2, 0x19, 0x9E00, 0x4600, 0x0, 0xA5F8, 0x1000, 0xB000, 0x400000, 0x1000, 0x200, 0x1, 0x0, 0x6, 0x0, 0x4, 0x0, 0x0, 0x14000, 0x400, 0x0, 0x2, 0x8000, 0x100000, 0x4000, 0x100000, 0x1000, 0x0, 0x10, , CODE, 0x9D30, 0x9D30, 0x9D30, 0x1000, 0x9E00, 0x400, 0x0, 0x0, 0x0, 0x0, 0x60000020, , DATA, 0x250, 0x250, 0x250, 0xB000, 0x400, 0xA200, 0x0, 0x0, 0x0, 0x0, 0xC0000040, , BSS, 0xE90, 0xE90, 0xE90, 0xC000, 0x0, 0xA600, 0x0, 0x0, 0x0, 0x0, 0xC0000000, , .idata, 0x950, 0x950, 0x950, 0xD000, 0xA00, 0xA600, 0x0, 0x0, 0x0, 0x0, 0xC0000040, , .tls, 0x8, 0x8, 0x8, 0xE000, 0x0, 0xB000, 0x0, 0x0, 0x0, 0x0, 0xC0000000,0
01df9af414fdb6c0c9d67401c709eb82fa391866a745507c90c4cba072b658f4, 0x10B, 0x9, 0x0, 0xE8A00, 0x6D000, 0x0, 0xB4BC9, 0x1000, 0xEA000, 0x400000, 0x1000, 0x200, 0x5, 0x0, 0x0, 0x0, 0x5, 0x0, 0x0, 0x160000, 0x400, 0x14CD0F, 0x2, 0x8140, 0x100000, 0x1000, 0x100000, 0x1000, 0x0, 0x10, , .text, 0xE88FF, 0xE88FF, 0xE88FF, 0x1000, 0xE8A00, 0x400, 0x0, 0x0, 0x0, 0x0, 0x60000020, , .rdata, 0x392E6, 0x392E6, 0x392E6, 0xEA000, 0x39400, 0xE8E00, 0x0, 0x0, 0x0, 0x0, 0x40000040, , .data, 0x9368, 0x9368, 0x9368, 0x124000, 0x3000, 0x122200, 0x0, 0x0, 0x0, 0x0, 0xC0000040, , .rsrc, 0x1A468, 0x1A468, 0x1A468, 0x12E000, 0x1A600, 0x125200, 0x0, 0x0, 0x0, 0x0, 0x40000040, , .reloc, 0x164E4, 0x164E4, 0x164E4, 0x149000, 0x16600, 0x13F800, 0x0, 0x0, 0x0, 0x0, 0x42000040,0
01e53b5e6c3ef02acaaefbaab3aeb47252e08ec0e2eaa11279d32dfdb3fc5f94, 0x10B, 0xB, 0x0, 0xB3600, 0x88000, 0x0, 0x777CC, 0x1000, 0xB5000, 0x400000, 0x1000, 0x200, 0x5, 0x1, 0x0, 0x0, 0x5, 0x1, 0x0, 0x145000, 0x400, 0x65E482, 0x2, 0x8100, 0x100000, 0x1000, 0x100000, 0x1000, 0x0, 0x10, , .text, 0xB3485, 0xB3485, 0xB3485, 0x1000, 0xB3600, 0x400, 0x0, 0x0, 0x0, 0x0, 0x60000020, , .rdata, 0x36208, 0x36208, 0x36208, 0xB5000, 0x36400, 0xB3A00, 0x0, 0x0, 0x0, 0x0, 0x40000040, , .data, 0x8C38, 0x8C38, 0x8C38, 0xEC000, 0x2600, 0xE9E00, 0x0, 0x0, 0x0, 0x0, 0xC0000040, , .rsrc, 0x4F568, 0x4F568, 0x4F568, 0xF5000, 0x4F600, 0xEC400, 0x0, 0x0, 0x0, 0x0, 0x40000040, , ,,,,,,,,,,,,0
01eb080d25c4ef3265e4d9aef9b9bf5d2b51de63e38e61034d7b1f29cacd7ab4, 0x10B, 0xC, 0x0, 0xA200, 0x8C00, 0x0, 0x11FA, 0x1000, 0xC000, 0x400000, 0x1000, 0x200, 0x6, 0x0, 0x0, 0x0, 0x6, 0x0, 0x0, 0x16000, 0x400, 0x190C6, 0x2, 0x8140, 0x100000, 0x1000, 0x100000, 0x1000, 0x0, 0x10, , .text, 0xA116, 0xA116, 0xA116, 0x1000, 0xA200, 0x400, 0x0, 0x0, 0x0, 0x0, 0x60000020, , .rdata, 0x478C, 0x478C, 0x478C, 0xC000, 0x4800, 0xA600, 0x0, 0x0, 0x0, 0x0, 0x40000040, , .data, 0x2F00, 0x2F00, 0x2F00, 0x11000, 0x1200, 0xEE00, 0x0, 0x0, 0x0, 0x0, 0xC0000040, , .rsrc, 0x5F0, 0x5F0, 0x5F0, 0x14000, 0x600, 0x10000, 0x0, 0x0, 0x0, 0x0, 0x40000040, , .reloc, 0xC88, 0xC88, 0xC88, 0x15000, 0xE00, 0x10600, 0x0, 0x0, 0x0, 0x0, 0x42000040,0
01ebb9eede24d6bdfdf37e48c3662385633a3688f520ddc4a3a7914fb87942d4, 0x10B, 0xE, 0xA, 0x5B800, 0x68200, 0x0, 0x35039, 0x1000, 0x5D000, 0x400000, 0x1000, 0x200, 0x5, 0x1, 0xA, 0x0, 0x5, 0x1, 0x0, 0xC9000, 0x400, 0xCD2A9, 0x2, 0x8140, 0x100000, 0x2000, 0x100000, 0x1000, 0x0, 0x10, , .text, 0x5B6E8, 0x5B6E8, 0x5B6E8, 0x1000, 0x5B800, 0x400, 0x0, 0x0, 0x0, 0x0, 0x60000020, , .data, 0x3B6C, 0x3B6C, 0x3B6C, 0x5D000, 0x1800, 0x5BC00, 0x0, 0x0, 0x0, 0x0, 0xC0000040, , .idata, 0x152E, 0x152E, 0x152E, 0x61000, 0x1600, 0x5D400, 0x0, 0x0, 0x0, 0x0, 0x40000040, , .rsrc, 0x61690, 0x61690, 0x61690, 0x63000, 0x61800, 0x5EA00, 0x0, 0x0, 0x0, 0x0, 0x40000040, , .reloc, 0x3AEC, 0x3AEC, 0x3AEC, 0xC5000, 0x3C00, 0xC0200, 0x0, 0x0, 0x0, 0x0, 0x42000040,0
01ffef79a206dca88e4d6c7cd2353dc89e672da8943257e09a974a910c7eaaa0, 0x10B, 0xB, 0x0, 0x5000, 0xC000, 0x0, 0x287A, 0x1000, 0x6000, 0x400000, 0x1000, 0x200, 0x5, 0x1, 0x0, 0x0, 0x5, 0x1, 0x0, 0x37000, 0x400, 0x7ABA8C, 0x2, 0x8000, 0x100000, 0x1000, 0x100000, 0x1000, 0x0, 0x10, , .text, 0x4574, 0x4574, 0x4574, 0x1000, 0x4600, 0x400, 0x0, 0x0, 0x0, 0x0, 0x60000020, , .data, 0x460, 0x460, 0x460, 0x6000, 0x0, 0x4A00, 0x0, 0x0, 0x0, 0x0, 0xC0000040, , .xcpad, 0x24000, 0x24000, 0x24000, 0x7000, 0x0, 0x4A00, 0x0, 0x0, 0x0, 0x0, 0x0, , .idata, 0x36C, 0x36C, 0x36C, 0x2B000, 0x400, 0x4A00, 0x0, 0x0, 0x0, 0x0, 0x40000040, , .reloc, 0x248, 0x248, 0x248, 0x2C000, 0x400, 0x4E00, 0x0, 0x0, 0x0, 0x0, 0x42000040,0
020dba475a3e345e9a78acab0e735edeb9f5145237293f66e4c702125ad12a42, 0x10B, 0x6, 0x0, 0x3B000, 0x1B000, 0x0, 0x19634, 0x1000, 0x3C000, 0x400000, 0x1000, 0x1000, 0x4, 0x0, 0x0, 0x0, 0x4, 0x0, 0x0, 0x57000, 0x1000, 0x0, 0x2, 0x0, 0x100000, 0x1000, 0x100000, 0x1000, 0x0, 0x10, , .text, 0x3A666, 0x3A666, 0x3A666, 0x1000, 0x3B000, 0x1000, 0x0, 0x0, 0x0, 0x0, 0x60000020, , .rdata, 0x8498, 0x8498, 0x8498, 0x3C000, 0x9000, 0x3C000, 0x0, 0x0, 0x0, 0x0, 0x40000040, , .data, 0x10F78, 0x10F78, 0x10F78, 0x45000, 0xD000, 0x45000, 0x0, 0x0, 0x0, 0x0, 0xC0000040, , .rsrc, 0x708, 0x708, 0x708, 0x56000, 0x1000, 0x52000, 0x0, 0x0, 0x0, 0x0, 0x40000040, , ,,,,,,,,,,,,0
02317f8f323aa1cdd59cb6875736edf6367c941bcd25e51f3fce67f9c3158227, 0x10B, 0x8, 0x0, 0x1C00, 0x800, 0x0, 0x3AAE, 0x2000, 0x4000, 0x400000, 0x2000, 0x200, 0x4, 0x0, 0x0, 0x0, 0x4, 0x0, 0x0, 0x8000, 0x200, 0x6417, 0x2, 0x500, 0x100000, 0x1000, 0x100000, 0x1000, 0x0, 0x10, , .text, 0x1AB4, 0x1AB4, 0x1AB4, 0x2000, 0x1C00, 0x200, 0x0, 0x0, 0x0, 0x0, 0x60000020, , .rsrc, 0x5E0, 0x5E0, 0x5E0, 0x4000, 0x600, 0x1E00, 0x0, 0x0, 0x0, 0x0, 0x40000040, , .reloc, 0xC, 0xC, 0xC, 0x6000, 0x200, 0x2400, 0x0, 0x0, 0x0, 0x0, 0x42000040, , ,,,,,,,,,,,,,,,,,,,,,,,,,0
0236264a8a7557bbf1d20b847514e7ff0535f32a81d99823cceb976a0a0d1fa1, 0x10B, 0x2, 0x19, 0xB7800, 0x1EA00, 0x0, 0xB86FC, 0x1000, 0xB9000, 0x400000, 0x1000, 0x200, 0x1, 0x0, 0x0, 0x0, 0x4, 0x0, 0x0, 0xDD000, 0x400, 0x0, 0x2, 0x0, 0x100000, 0x4000, 0x100000, 0x1000, 0x0, 0x10, , CODE, 0xB77A4, 0xB77A4, 0xB77A4, 0x1000, 0xB7800, 0x400, 0x0, 0x0, 0x0, 0x0, 0x60000020, , DATA, 0x3A74, 0x3A74, 0x3A74, 0xB9000, 0x3C00, 0xB7C00, 0x0, 0x0, 0x0, 0x0, 0xC0000040, , BSS, 0x1C11, 0x1C11, 0x1C11, 0xBD000, 0x0, 0xBB800, 0x0, 0x0, 0x0, 0x0, 0xC0000000, , .idata, 0x29FA, 0x29FA, 0x29FA, 0xBF000, 0x2A00, 0xBB800, 0x0, 0x0, 0x0, 0x0, 0xC0000040, , .tls, 0x14, 0x14, 0x14, 0xC2000, 0x0, 0xBE200, 0x0, 0x0, 0x0, 0x0, 0xC0000000,0
024a8fef5fa749ebb3f84f2106d57d82baa9e2fa21b19d3779e3604786648830, 0x10B, 0xB, 0x0, 0xC00, 0x800, 0x0, 0x2B0E, 0x2000, 0x4000, 0x400000, 0x2000, 0x200, 0x4, 0x0, 0x0, 0x0, 0x6, 0x0, 0x0, 0x8000, 0x200, 0x0, 0x3, 0x8560, 0x100000, 0x1000, 0x100000, 0x1000, 0x0, 0x10, , .text, 0xB14, 0xB14, 0xB14, 0x2000, 0xC00, 0x200, 0x0, 0x0, 0x0, 0x0, 0x60000020, , .rsrc, 0x5D8, 0x5D8, 0x5D8, 0x4000, 0x600, 0xE00, 0x0, 0x0, 0x0, 0x0, 0x40000040, , .reloc, 0xC, 0xC, 0xC, 0x6000, 0x200, 0x1400, 0x0, 0x0, 0x0, 0x0, 0x42000040, , ,,,,,,,,,,,,,,,,,,,,,,,,,0
024f00d0160bba9d0fda7660514aeb8231cd9f5e28210b214452b0aadebea279, 0x10B, 0x3, 0x0, 0x406000, 0x2BE00, 0x0, 0x4B0B0, 0x1000, 0x407000, 0x400000, 0x1000, 0x200, 0x4, 0x0, 0x1, 0x0, 0x4, 0x0, 0x0, 0x44F000, 0x400, 0x437D4D, 0x2, 0x0, 0x20000, 0x1000, 0x100000, 0x1000, 0x0, 0x10, , .text, 0x405E76, 0x405E76, 0x405E76, 0x1000, 0x406000, 0x400, 0x0, 0x0, 0x0, 0x0, 0x60000060, , .data, 0x44C00, 0x44C00, 0x44C00, 0x407000, 0x2BE00, 0x406400, 0x0, 0x0, 0x0, 0x0, 0xC0000040, , .idata, 0x3D2, 0x3D2, 0x3D2, 0x44C000, 0x400, 0x432200, 0x0, 0x0, 0x0, 0x0, 0xC0000040, , .symtab, 0x4, 0x4, 0x4, 0x44D000, 0x200, 0x432600, 0x0, 0x0, 0x0, 0x0, 0x42000000, , .rsrc, 0x4B6, 0x4B6, 0x4B6, 0x44E000, 0x600, 0x432800, 0x0, 0x0, 0x0, 0x0, 0xC0000040,0
029f918a29b2b311711788e8a477c8de529c11d7dba3caf99cbbde5a983efdad, 0x10B, 0x6, 0x0, 0x6200, 0x22A00, 0x800, 0x33B6, 0x1000, 0x8000, 0x400000, 0x1000, 0x200, 0x4, 0x0, 0x6, 0x0, 0x4, 0x0, 0x0, 0x76000, 0x400, 0x162B05, 0x2, 0x8540, 0x100000, 0x1000, 0x100000, 0x1000, 0x0, 0x10, , .text, 0x615D, 0x615D, 0x615D, 0x1000, 0x6200, 0x400, 0x0, 0x0, 0x0, 0x0, 0x60000020, , .rdata, 0x13A4, 0x13A4, 0x13A4, 0x8000, 0x1400, 0x6600, 0x0, 0x0, 0x0, 0x0, 0x40000040, , .data, 0x20338, 0x20338, 0x20338, 0xA000, 0x600, 0x7A00, 0x0, 0x0, 0x0, 0x0, 0xC0000040, , .ndata, 0x38000, 0x38000, 0x38000, 0x2B000, 0x0, 0x0, 0x0, 0x0, 0x0, 0x0, 0xC0000080, , .rsrc, 0x12D48, 0x12D48, 0x12D48, 0x63000, 0x12E00, 0x8000, 0x0, 0x0, 0x0, 0x0, 0x40000040,0
02a09a19985382bdd8391b541eed3b36d5f83909e97ae8a2887e18c5019ebe61, 0x10B, 0x7, 0xA, 0x10000, 0x5D000, 0x0, 0x98A3, 0x1000, 0x11000, 0x400000, 0x1000, 0x1000, 0x4, 0x0, 0x0, 0x0, 0x4, 0x0, 0x0, 0x71000, 0x1000, 0x6F6DE, 0x2, 0x0, 0x2004, 0x1000, 0x1000, 0x1000, 0x0, 0x10, , .text, 0xF6DE, 0xF6DE, 0xF6DE, 0x1000, 0x10000, 0x1000, 0x0, 0x0, 0x0, 0x0, 0x60000020, , .rdata, 0x223C, 0x223C, 0x223C, 0x11000, 0x3000, 0x11000, 0x0, 0x0, 0x0, 0x0, 0xC0000040, , .data, 0x3E3C, 0x3E3C, 0x3E3C, 0x14000, 0x1000, 0x14000, 0x0, 0x0, 0x0, 0x0, 0xC0000040, , .rsrc, 0x56354, 0x56354, 0x56354, 0x18000, 0x57000, 0x15000, 0x0, 0x0, 0x0, 0x0, 0x40000040, , .reloc, 0x19E8, 0x19E8, 0x19E8, 0x6F000, 0x2000, 0x6C000, 0x0, 0x0, 0x0, 0x0, 0x42000040,0
02a6472cc0c8d3bd777cb231fd1c65ce8dd9eb7202f221c256853789a6823cbd, 0x10B, 0xA, 0x0, 0x43600, 0x22800, 0x0, 0x35B38, 0x1000, 0x45000, 0x400000, 0x1000, 0x200, 0x5, 0x1, 0x0, 0x0, 0x5, 0x1, 0x0, 0x370000, 0x400, 0x6AA75, 0x2, 0x8140, 0x100000, 0x1000, 0x100000, 0x1000, 0x0, 0x10, , .text, 0x43476, 0x43476, 0x43476, 0x1000, 0x43600, 0x400, 0x0, 0x0, 0x0, 0x0, 0x60000020, , .rdata, 0xEE1A, 0xEE1A, 0xEE1A, 0x45000, 0xF000, 0x43A00, 0x0, 0x0, 0x0, 0x0, 0x40000040, , .data, 0x308A04, 0x308A04, 0x308A04, 0x54000, 0x1800, 0x52A00, 0x0, 0x0, 0x0, 0x0, 0xC0000040, , .rsrc, 0xC864, 0xC864, 0xC864, 0x35D000, 0xCA00, 0x54200, 0x0, 0x0, 0x0, 0x0, 0x40000040, , .reloc, 0x55F2, 0x55F2, 0x55F2, 0x36A000, 0x5600, 0x60C00, 0x0, 0x0, 0x0, 0x0, 0x42000040,0
02b03e3d21a472b4bbae53e4b7550bfa7927b5c19b45cb05e3786232a8e607f3, 0x10B, 0xB, 0x0, 0xEAC00, 0x97000, 0x0, 0xA5E4C, 0x1000, 0xEC000, 0x400000, 0x1000, 0x200, 0x5, 0x1, 0x0, 0x0, 0x5, 0x1, 0x0, 0x18B000, 0x400, 0x6E809B, 0x2, 0x8100, 0x100000, 0x1000, 0x100000, 0x1000, 0x0, 0x10, , .text, 0xEABF6, 0xEABF6, 0xEABF6, 0x1000, 0xEAC00, 0x400, 0x0, 0x0, 0x0, 0x0, 0x60000020, , .rdata, 0x40A68, 0x40A68, 0x40A68, 0xEC000, 0x40C00, 0xEB000, 0x0, 0x0, 0x0, 0x0, 0x40000040, , .data, 0x9058, 0x9058, 0x9058, 0x12D000, 0x2800, 0x12BC00, 0x0, 0x0, 0x0, 0x0, 0xC0000040, , .rsrc, 0x53A84, 0x53A84, 0x53A84, 0x137000, 0x53C00, 0x12E400, 0x0, 0x0, 0x0, 0x0, 0x40000040, , ,,,,,,,,,,,,0
02b063677648aa5033a44aa748071390e3ac0c3f5ce802abe40a957879b8a0ae, 0x10B, 0x9, 0x0, 0x14200, 0xB200, 0x0, 0x8874, 0x1000, 0x16000, 0x400000, 0x1000, 0x200, 0x5, 0x0, 0x0, 0x0, 0x5, 0x0, 0x0, 0x24000, 0x400, 0x2C320, 0x2, 0x8140, 0x100000, 0x1000, 0x100000, 0x1000, 0x0, 0x10, , .text, 0x14135, 0x14135, 0x14135, 0x1000, 0x14200, 0x400, 0x0, 0x0, 0x0, 0x0, 0x60000020, , .rdata, 0x4380, 0x4380, 0x4380, 0x16000, 0x4400, 0x14600, 0x0, 0x0, 0x0, 0x0, 0x40000040, , .data, 0x3F4C, 0x3F4C, 0x3F4C, 0x1B000, 0x2400, 0x18A00, 0x0, 0x0, 0x0, 0x0, 0xC0000040, , .rsrc, 0x2B70, 0x2B70, 0x2B70, 0x1F000, 0x2C00, 0x1AE00, 0x0, 0x0, 0x0, 0x0, 0x40000040, , .reloc, 0x1DD4, 0x1DD4, 0x1DD4, 0x22000, 0x1E00, 0x1DA00, 0x0, 0x0, 0x0, 0x0, 0x42000040,0
02c909f31c95641163d591f80c242d3021cd9b6e2464a5112329f390c0bc2927, 0x10B, 0x2, 0x19, 0x62C00, 0x11200, 0x0, 0x63F0C, 0x1000, 0x64000, 0x400000, 0x1000, 0x200, 0x5, 0x0, 0x0, 0x0, 0x5, 0x0, 0x0, 0x80000, 0x400, 0x0, 0x3, 0x0, 0x100000, 0x4000, 0x100000, 0x1000, 0x0, 0x10, , .text, 0x61A3C, 0x61A3C, 0x61A3C, 0x1000, 0x61C00, 0x400, 0x0, 0x0, 0x0, 0x0, 0x60000020, , .itext, 0xF30, 0xF30, 0xF30, 0x63000, 0x1000, 0x62000, 0x0, 0x0, 0x0, 0x0, 0x60000020, , .data, 0x4010, 0x4010, 0x4010, 0x64000, 0x4200, 0x63000, 0x0, 0x0, 0x0, 0x0, 0xC0000040, , .bss, 0x5094, 0x5094, 0x5094, 0x69000, 0x0, 0x67200, 0x0, 0x0, 0x0, 0x0, 0xC0000000, , .idata, 0x103E, 0x103E, 0x103E, 0x6F000, 0x1200, 0x67200, 0x0, 0x0, 0x0, 0x0, 0xC0000040,0
02ca0a8a38e9535568fb5be3c24126e71af336395c5bf78a48aab640b4fd65d7, 0x10B, 0xA, 0x0, 0x1ABE00, 0x160000, 0x0, 0xD7280, 0x1000, 0x1AD000, 0x400000, 0x1000, 0x200, 0x5, 0x1, 0x0, 0x0, 0x5, 0x1, 0x0, 0x31F000, 0x400, 0x319FEF, 0x2, 0x8140, 0x100000, 0x1000, 0x100000, 0x1000, 0x0, 0x10, , .text, 0x1ABCA2, 0x1ABCA2, 0x1ABCA2, 0x1000, 0x1ABE00, 0x400, 0x0, 0x0, 0x0, 0x0, 0x60000020, , .rdata, 0x9743C, 0x9743C, 0x9743C, 0x1AD000, 0x97600, 0x1AC200, 0x0, 0x0, 0x0, 0x0, 0x40000040, , .data, 0x32D40, 0x32D40, 0x32D40, 0x245000, 0x23400, 0x243800, 0x0, 0x0, 0x0, 0x0, 0xC0000040, , .tls, 0x2, 0x2, 0x2, 0x278000, 0x200, 0x266C00, 0x0, 0x0, 0x0, 0x0, 0xC0000040, , .rsrc, 0x864EC, 0x864EC, 0x864EC, 0x279000, 0x86600, 0x266E00, 0x0, 0x0, 0x0, 0x0, 0x40000040,0
02cd6966767c578ed10d76b8c2ae84298bf8fd121cdc8973c72118fe08cde196, 0x10B, 0x7, 0xA, 0x13B000, 0xCD000, 0x0, 0x3BF36, 0x1000, 0x13C000, 0x400000, 0x1000, 0x1000, 0x4, 0x0, 0x0, 0x0, 0x4, 0x0, 0x0, 0x209000, 0x1000, 0x20E560, 0x2, 0x0, 0x100000, 0x1000, 0x100000, 0x1000, 0x0, 0x10, , .text, 0x13AC0C, 0x13AC0C, 0x13AC0C, 0x1000, 0x13B000, 0x1000, 0x0, 0x0, 0x0, 0x0, 0x60000020, , .rdata, 0x51000, 0x51000, 0x51000, 0x13C000, 0x51000, 0x13C000, 0x0, 0x0, 0x0, 0x0, 0x40000040, , .data, 0x8534, 0x8534, 0x8534, 0x18D000, 0x4000, 0x18D000, 0x0, 0x0, 0x0, 0x0, 0xC0000040, , .rsrc, 0x721B0, 0x721B0, 0x721B0, 0x196000, 0x73000, 0x191000, 0x0, 0x0, 0x0, 0x0, 0x40000040, , ,,,,,,,,,,,,0
02cd710d2e7fdc48d10238b04fd495d34fe738982cc07919777538a63ac4ad99, 0x10B, 0x6, 0x0, 0x97000, 0xF3000, 0x0, 0x670A0, 0x1000, 0x98000, 0x400000, 0x1000, 0x1000, 0x4, 0x0, 0x0, 0x0, 0x4, 0x0, 0x0, 0x18B000, 0x1000, 0x0, 0x2, 0x0, 0x100000, 0x1000, 0x100000, 0x1000, 0x0, 0x10, , .text, 0x96DB6, 0x96DB6, 0x96DB6, 0x1000, 0x97000, 0x1000, 0x0, 0x0, 0x0, 0x0, 0xE0000020, , .rdata, 0xA070, 0xA070, 0xA070, 0x98000, 0xB000, 0x98000, 0x0, 0x0, 0x0, 0x0, 0xC0000040, , .data, 0xCFC38, 0xCFC38, 0xCFC38, 0xA3000, 0xD000, 0xA3000, 0x0, 0x0, 0x0, 0x0, 0xC0000040, , .data1, 0xC0, 0xC0, 0xC0, 0x173000, 0x1000, 0xB0000, 0x0, 0x0, 0x0, 0x0, 0xC0000040, , .CRT, 0x4, 0x4, 0x4, 0x174000, 0x1000, 0xB1000, 0x0, 0x0, 0x0, 0x0, 0xC0000040,0
02d063b1301742c2f89b64594ec70b8eb02e2e4bc77b5564e4212c2de8482fd9, 0x10B, 0x6, 0x0, 0x6600, 0x2D800, 0x800, 0x3334, 0x1000, 0x8000, 0x400000, 0x1000, 0x200, 0x4, 0x0, 0x6, 0x0, 0x4, 0x0, 0x0, 0x58000, 0x400, 0xAB9E3, 0x2, 0x8540, 0x100000, 0x1000, 0x100000, 0x1000, 0x0, 0x10, , .text, 0x640F, 0x640F, 0x640F, 0x1000, 0x6600, 0x400, 0x0, 0x0, 0x0, 0x0, 0x60000020, , .rdata, 0x14B0, 0x14B0, 0x14B0, 0x8000, 0x1600, 0x6A00, 0x0, 0x0, 0x0, 0x0, 0x40000040, , .data, 0x2AFD8, 0x2AFD8, 0x2AFD8, 0xA000, 0x600, 0x8000, 0x0, 0x0, 0x0, 0x0, 0xC0000040, , .ndata, 0x1B000, 0x1B000, 0x1B000, 0x35000, 0x0, 0x0, 0x0, 0x0, 0x0, 0x0, 0xC0000080, , .rsrc, 0x7200, 0x7200, 0x7200, 0x50000, 0x7200, 0x8600, 0x0, 0x0, 0x0, 0x0, 0x40000040,0
02d8f0d724360df31af8b176e3aaac7fbe5d37ea6712dd82c7427e1fb7d3e41e, 0x10B, 0xB, 0x0, 0x2A00, 0x56E00, 0x0, 0x496E, 0x2000, 0x6000, 0x400000, 0x2000, 0x200, 0x4, 0x0, 0x0, 0x0, 0x4, 0x0, 0x0, 0x60000, 0x200, 0x5D9A3, 0x2, 0x8540, 0x100000, 0x1000, 0x100000, 0x1000, 0x0, 0x10, , .text, 0x2974, 0x2974, 0x2974, 0x2000, 0x2A00, 0x200, 0x0, 0x0, 0x0, 0x0, 0x60000020, , .rsrc, 0x56AE8, 0x56AE8, 0x56AE8, 0x6000, 0x56C00, 0x2C00, 0x0, 0x0, 0x0, 0x0, 0x40000040, , .reloc, 0xC, 0xC, 0xC, 0x5E000, 0x200, 0x59800, 0x0, 0x0, 0x0, 0x0, 0x42000040, , ,,,,,,,,,,,,,,,,,,,,,,,,,0
02f63241dfe7e18630a6e8a29e6e37d05d1774b3ce59f1a5b3f7d5dc10a8eec1, 0x10B, 0xA, 0x0, 0x39600, 0x45C00, 0x0, 0x28530, 0x1000, 0x3B000, 0x400000, 0x1000, 0x200, 0x5, 0x1, 0x0, 0x0, 0x5, 0x1, 0x0, 0x87000, 0x400, 0x2D69C3, 0x2, 0x8140, 0x100000, 0x1000, 0x100000, 0x1000, 0x0, 0x10, , .text, 0x39434, 0x39434, 0x39434, 0x1000, 0x39600, 0x400, 0x0, 0x0, 0x0, 0x0, 0x60000020, , .rdata, 0x1A11C, 0x1A11C, 0x1A11C, 0x3B000, 0x1A200, 0x39A00, 0x0, 0x0, 0x0, 0x0, 0x40000040, , .data, 0x30C0, 0x30C0, 0x30C0, 0x56000, 0x1000, 0x53C00, 0x0, 0x0, 0x0, 0x0, 0xC0000040, , .wixburn, 0x38, 0x38, 0x38, 0x5A000, 0x200, 0x54C00, 0x0, 0x0, 0x0, 0x0, 0x40000040, , .tls, 0x9, 0x9, 0x9, 0x5B000, 0x200, 0x54E00, 0x0, 0x0, 0x0, 0x0, 0xC0000040,0
030c5ba9390eba49c87cc35ebd111e157d49b451572d4dbdd2e8631173de49ff, 0x10B, 0xE, 0x0, 0x14A00, 0xFA600, 0x0, 0x4E56, 0x1000, 0x16000, 0x400000, 0x1000, 0x200, 0x5, 0x1, 0x0, 0x0, 0x5, 0x1, 0x0, 0x114000, 0x400, 0x114223, 0x2, 0x8140, 0x100000, 0x1000, 0x100000, 0x1000, 0x0, 0x10, , .text, 0x148A1, 0x148A1, 0x148A1, 0x1000, 0x14A00, 0x400, 0x0, 0x0, 0x0, 0x0, 0x60000020, , .rdata, 0x6C00, 0x6C00, 0x6C00, 0x16000, 0x6C00, 0x14E00, 0x0, 0x0, 0x0, 0x0, 0x40000040, , .data, 0x1298, 0x1298, 0x1298, 0x1D000, 0x800, 0x1BA00, 0x0, 0x0, 0x0, 0x0, 0xC0000040, , .gfids, 0xDC, 0xDC, 0xDC, 0x1F000, 0x200, 0x1C200, 0x0, 0x0, 0x0, 0x0, 0x40000040, , .rsrc, 0xF1C28, 0xF1C28, 0xF1C28, 0x20000, 0xF1E00, 0x1C400, 0x0, 0x0, 0x0, 0x0, 0x40000040,0
031bf3168f1d53f6007f65bcdfd90529dc457d851528642d5509f461b4e18ac8, 0x10B, 0x6, 0x0, 0x5E00, 0x1D400, 0x400, 0x40B8, 0x1000, 0x7000, 0x400000, 0x1000, 0x200, 0x4, 0x0, 0x0, 0x0, 0x4, 0x0, 0x0, 0x2E000, 0x400, 0x96D4A, 0x2, 0x0, 0x100000, 0x1000, 0x100000, 0x1000, 0x0, 0x10, , .text, 0x5DC6, 0x5DC6, 0x5DC6, 0x1000, 0x5E00, 0x400, 0x0, 0x0, 0x0, 0x0, 0x60000020, , .rdata, 0x11A2, 0x11A2, 0x11A2, 0x7000, 0x1200, 0x6200, 0x0, 0x0, 0x0, 0x0, 0x40000040, , .data, 0x1AFAC, 0x1AFAC, 0x1AFAC, 0x9000, 0x400, 0x7400, 0x0, 0x0, 0x0, 0x0, 0xC0000040, , .ndata, 0x8000, 0x8000, 0x8000, 0x24000, 0x0, 0x0, 0x0, 0x0, 0x0, 0x0, 0xC0000080, , .rsrc, 0x2000, 0x2000, 0x2000, 0x2C000, 0x2000, 0x7800, 0x0, 0x0, 0x0, 0x0, 0x40000040,0
032c15000bdb59c5e1ff398914b4f3dbf4afee47fc74acca064c12a32391683c, 0x10B, 0x8, 0x0, 0xAF000, 0xF0000, 0x0, 0x85EA5, 0x1000, 0xB0000, 0x400000, 0x1000, 0x1000, 0x4, 0x0, 0x0, 0x0, 0x4, 0x0, 0x0, 0x1A5000, 0x1000, 0x1A7820, 0x2, 0x0, 0x100000, 0x1000, 0x100000, 0x1000, 0x0, 0x10, , .text, 0xA7885, 0xA7885, 0xA7885, 0x1000, 0xA8000, 0x1000, 0x0, 0x0, 0x0, 0x0, 0x60000020, , EPCL_TEX, 0x3BB3, 0x3BB3, 0x3BB3, 0xA9000, 0x4000, 0xA9000, 0x0, 0x0, 0x0, 0x0, 0x60000020, , EPCL_SET, 0x8C7, 0x8C7, 0x8C7, 0xAD000, 0x1000, 0xAD000, 0x0, 0x0, 0x0, 0x0, 0x60000020, , EPCL_TES, 0x782, 0x782, 0x782, 0xAE000, 0x1000, 0xAE000, 0x0, 0x0, 0x0, 0x0, 0x60000020, , EPCL_INI, 0x113, 0x113, 0x113, 0xAF000, 0x1000, 0xAF000, 0x0, 0x0, 0x0, 0x0, 0x60000020,0
03370c7495780cc142141ff12a52d2dcde6fb221605adebd049f61c22080ac5d, 0x10B, 0xE, 0x0, 0x14A00, 0xFA600, 0x0, 0x4E56, 0x1000, 0x16000, 0x400000, 0x1000, 0x200, 0x5, 0x1, 0x0, 0x0, 0x5, 0x1, 0x0, 0x114000, 0x400, 0x114223, 0x2, 0x8140, 0x100000, 0x1000, 0x100000, 0x1000, 0x0, 0x10, , .text, 0x148A1, 0x148A1, 0x148A1, 0x1000, 0x14A00, 0x400, 0x0, 0x0, 0x0, 0x0, 0x60000020, , .rdata, 0x6C00, 0x6C00, 0x6C00, 0x16000, 0x6C00, 0x14E00, 0x0, 0x0, 0x0, 0x0, 0x40000040, , .data, 0x1298, 0x1298, 0x1298, 0x1D000, 0x800, 0x1BA00, 0x0, 0x0, 0x0, 0x0, 0xC0000040, , .gfids, 0xDC, 0xDC, 0xDC, 0x1F000, 0x200, 0x1C200, 0x0, 0x0, 0x0, 0x0, 0x40000040, , .rsrc, 0xF1C28, 0xF1C28, 0xF1C28, 0x20000, 0xF1E00, 0x1C400, 0x0, 0x0, 0x0, 0x0, 0x40000040,0
03423ffea5dced6ce7d9f23fb79d3a53b7464dd8fc2c5e90a2636da3162be7e9, 0x10B, 0x2, 0x38, 0x20600, 0x21600, 0xE00, 0x1280, 0x1000, 0x22000, 0x400000, 0x1000, 0x200, 0x4, 0x0, 0x1, 0x0, 0x4, 0x0, 0x0, 0x93000, 0x400, 0x9384B, 0x3, 0x0, 0x200000, 0x1000, 0x100000, 0x1000, 0x0, 0x10, , .text, 0x204D4, 0x204D4, 0x204D4, 0x1000, 0x20600, 0x400, 0x0, 0x0, 0x0, 0x0, 0x60000060, , .data, 0xC0, 0xC0, 0xC0, 0x22000, 0x200, 0x20A00, 0x0, 0x0, 0x0, 0x0, 0xC0000040, , .rdata, 0x870, 0x870, 0x870, 0x23000, 0xA00, 0x20C00, 0x0, 0x0, 0x0, 0x0, 0x40000040, , .bss, 0xC10, 0xC10, 0xC10, 0x24000, 0x0, 0x0, 0x0, 0x0, 0x0, 0x0, 0xC0000080, , .idata, 0x3E8, 0x3E8, 0x3E8, 0x25000, 0x400, 0x21600, 0x0, 0x0, 0x0, 0x0, 0xC0000040,0
0351b8a39c6e6443c27f485787a8b089b1742b2a117dcc3dc243a4d00871074b, 0x10B, 0xE, 0x0, 0x13800, 0x204E00, 0x0, 0x3A6F, 0x1000, 0x15000, 0x400000, 0x1000, 0x200, 0x6, 0x0, 0x0, 0x0, 0x6, 0x0, 0x0, 0x21E000, 0x400, 0x22809F, 0x2, 0x8140, 0x100000, 0x1000, 0x100000, 0x1000, 0x0, 0x10, , .text, 0x1377B, 0x1377B, 0x1377B, 0x1000, 0x13800, 0x400, 0x0, 0x0, 0x0, 0x0, 0x60000020, , .rdata, 0x6E16, 0x6E16, 0x6E16, 0x15000, 0x7000, 0x13C00, 0x0, 0x0, 0x0, 0x0, 0x40000040, , .data, 0x17E8, 0x17E8, 0x17E8, 0x1C000, 0x800, 0x1AC00, 0x0, 0x0, 0x0, 0x0, 0xC0000040, , .gfids, 0xAC, 0xAC, 0xAC, 0x1E000, 0x200, 0x1B400, 0x0, 0x0, 0x0, 0x0, 0x40000040, , .rsrc, 0x1FC178, 0x1FC178, 0x1FC178, 0x1F000, 0x1FC200, 0x1B600, 0x0, 0x0, 0x0, 0x0, 0x40000040,0
036907ed38383e4d9e8196a66ea2793e3dac1f30926780316c011a67156d6de7, 0x10B, 0x8, 0x0, 0x5000, 0x2000, 0x0, 0x682E, 0x2000, 0x8000, 0x400000, 0x2000, 0x1000, 0x4, 0x0, 0x0, 0x0, 0x4, 0x0, 0x0, 0xC000, 0x1000, 0x16AB5, 0x3, 0x540, 0x100000, 0x1000, 0x100000, 0x1000, 0x0, 0x10, , .text, 0x4834, 0x4834, 0x4834, 0x2000, 0x5000, 0x1000, 0x0, 0x0, 0x0, 0x0, 0x60000020, , .rsrc, 0x618, 0x618, 0x618, 0x8000, 0x1000, 0x6000, 0x0, 0x0, 0x0, 0x0, 0x40000040, , .reloc, 0xC, 0xC, 0xC, 0xA000, 0x1000, 0x7000, 0x0, 0x0, 0x0, 0x0, 0x42000040, , ,,,,,,,,,,,,,,,,,,,,,,,,,0
0382a4f41f56bd48741f2285583c185078b35182c6f471d58323024320b5115f, 0x10B, 0x9, 0x0, 0x11E00, 0x7800, 0x0, 0x6CB3, 0x1000, 0x13000, 0x400000, 0x1000, 0x200, 0x5, 0x0, 0x0, 0x0, 0x5, 0x0, 0x0, 0x1F000, 0x400, 0x1D3DB, 0x2, 0x8140, 0x100000, 0x1000, 0x100000, 0x1000, 0x0, 0x10, , .text, 0x11D15, 0x11D15, 0x11D15, 0x1000, 0x11E00, 0x400, 0x0, 0x0, 0x0, 0x0, 0x60000020, , .rdata, 0x37BC, 0x37BC, 0x37BC, 0x13000, 0x3800, 0x12200, 0x0, 0x0, 0x0, 0x0, 0x40000040, , .data, 0x3658, 0x3658, 0x3658, 0x17000, 0x1800, 0x15A00, 0x0, 0x0, 0x0, 0x0, 0xC0000040, , .rsrc, 0x4F0, 0x4F0, 0x4F0, 0x1B000, 0x600, 0x17200, 0x0, 0x0, 0x0, 0x0, 0x40000040, , .reloc, 0x208E, 0x208E, 0x208E, 0x1C000, 0x2200, 0x17800, 0x0, 0x0, 0x0, 0x0, 0x42000040,0
038461b34a6b52b659cb269213646c6197687679d305cebe2131b32ad477029e, 0x10B, 0x2, 0x19, 0x9000, 0x4200, 0x0, 0x98D8, 0x1000, 0xA000, 0x400000, 0x1000, 0x200, 0x1, 0x0, 0x0, 0x0, 0x4, 0x0, 0x0, 0x13000, 0x400, 0x0, 0x2, 0x8000, 0x100000, 0x4000, 0x100000, 0x1000, 0x0, 0x10, , CODE, 0x8FFC, 0x8FFC, 0x8FFC, 0x1000, 0x9000, 0x400, 0x0, 0x0, 0x0, 0x0, 0x60000020, , DATA, 0x248, 0x248, 0x248, 0xA000, 0x400, 0x9400, 0x0, 0x0, 0x0, 0x0, 0xC0000040, , BSS, 0xE34, 0xE34, 0xE34, 0xB000, 0x0, 0x9800, 0x0, 0x0, 0x0, 0x0, 0xC0000000, , .idata, 0x950, 0x950, 0x950, 0xC000, 0xA00, 0x9800, 0x0, 0x0, 0x0, 0x0, 0xC0000040, , .tls, 0x8, 0x8, 0x8, 0xD000, 0x0, 0xA200, 0x0, 0x0, 0x0, 0x0, 0xC0000000,0
038c5d30ebd38c6952ebd4e1daeff0f7cf1e99d10925f2a3cbe0a7f206e161dd, 0x10B, 0xC, 0x0, 0x11E00, 0xD9A00, 0x0, 0x4D00, 0x1000, 0x13000, 0x400000, 0x1000, 0x200, 0x5, 0x1, 0x0, 0x0, 0x5, 0x1, 0x0, 0xF1000, 0x400, 0xF53AD, 0x2, 0x8140, 0x100000, 0x1000, 0x100000, 0x1000, 0x0, 0x10, , .text, 0x11D7D, 0x11D7D, 0x11D7D, 0x1000, 0x11E00, 0x400, 0x0, 0x0, 0x0, 0x0, 0x60000020, , .rdata, 0x575C, 0x575C, 0x575C, 0x13000, 0x5800, 0x12200, 0x0, 0x0, 0x0, 0x0, 0x40000040, , .data, 0x3160, 0x3160, 0x3160, 0x19000, 0x1400, 0x17A00, 0x0, 0x0, 0x0, 0x0, 0xC0000040, , .rsrc, 0xD1B2C, 0xD1B2C, 0xD1B2C, 0x1D000, 0xD1C00, 0x18E00, 0x0, 0x0, 0x0, 0x0, 0x40000040, , .reloc, 0x1078, 0x1078, 0x1078, 0xEF000, 0x1200, 0xEAA00, 0x0, 0x0, 0x0, 0x0, 0x42000040,0
039135aaf6024bfea1b421f2275a73d3f3f48302c1bbaedc3511ed2a32311b89, 0x10B, 0x2, 0x19, 0xD1400, 0x3D800, 0x0, 0xD2C8C, 0x1000, 0xD3000, 0x10000, 0x1000, 0x200, 0x5, 0x0, 0x0, 0x0, 0x5, 0x0, 0x0, 0x11B000, 0x400, 0x1195FC, 0x2, 0x0, 0x100000, 0x4000, 0x100000, 0x1000, 0x0, 0x10, , .text, 0xD05B4, 0xD05B4, 0xD05B4, 0x1000, 0xD0600, 0x400, 0x0, 0x0, 0x0, 0x0, 0x60000020, , .itext, 0xD04, 0xD04, 0xD04, 0xD2000, 0xE00, 0xD0A00, 0x0, 0x0, 0x0, 0x0, 0x60000020, , .data, 0x270C, 0x270C, 0x270C, 0xD3000, 0x2800, 0xD1800, 0x0, 0x0, 0x0, 0x0, 0xC0000040, , .bss, 0x52F0, 0x52F0, 0x52F0, 0xD6000, 0x0, 0xD4000, 0x0, 0x0, 0x0, 0x0, 0xC0000000, , .idata, 0x3712, 0x3712, 0x3712, 0xDC000, 0x3800, 0xD4000, 0x0, 0x0, 0x0, 0x0, 0xC0000040,0
039a25aee431120a0f6e43568a94d780181c28e543b3b7bd4c42fd3d559fe920, 0x10B, 0x9, 0x0, 0x14200, 0xB200, 0x0, 0x8874, 0x1000, 0x16000, 0x400000, 0x1000, 0x200, 0x5, 0x0, 0x0, 0x0, 0x5, 0x0, 0x0, 0x24000, 0x400, 0x241F5, 0x2, 0x8140, 0x100000, 0x1000, 0x100000, 0x1000, 0x0, 0x10, , .text, 0x14135, 0x14135, 0x14135, 0x1000, 0x14200, 0x400, 0x0, 0x0, 0x0, 0x0, 0x60000020, , .rdata, 0x4380, 0x4380, 0x4380, 0x16000, 0x4400, 0x14600, 0x0, 0x0, 0x0, 0x0, 0x40000040, , .data, 0x3F4C, 0x3F4C, 0x3F4C, 0x1B000, 0x2400, 0x18A00, 0x0, 0x0, 0x0, 0x0, 0xC0000040, , .rsrc, 0x2B70, 0x2B70, 0x2B70, 0x1F000, 0x2C00, 0x1AE00, 0x0, 0x0, 0x0, 0x0, 0x40000040, , .reloc, 0x1DD4, 0x1DD4, 0x1DD4, 0x22000, 0x1E00, 0x1DA00, 0x0, 0x0, 0x0, 0x0, 0x42000040,0
03aaa6d603c178223b981300171e61bc9cb09759072e3331f8cc35e87764283f, 0x10B, 0xE, 0x0, 0x39000, 0x2C800, 0x0, 0x1A53A, 0x1000, 0x3A000, 0x400000, 0x1000, 0x200, 0x5, 0x1, 0x0, 0x0, 0x5, 0x1, 0x0, 0x6A000, 0x400, 0x6D446, 0x2, 0x8140, 0x100000, 0x1000, 0x100000, 0x1000, 0x0, 0x10, , .text, 0x38FCB, 0x38FCB, 0x38FCB, 0x1000, 0x39000, 0x400, 0x0, 0x0, 0x0, 0x0, 0x60000020, , .rdata, 0x16510, 0x16510, 0x16510, 0x3A000, 0x16600, 0x39400, 0x0, 0x0, 0x0, 0x0, 0x40000040, , .data, 0x2320, 0x2320, 0x2320, 0x51000, 0x1200, 0x4FA00, 0x0, 0x0, 0x0, 0x0, 0xC0000040, , .gfids, 0x1D0, 0x1D0, 0x1D0, 0x54000, 0x200, 0x50C00, 0x0, 0x0, 0x0, 0x0, 0x40000040, , .rsrc, 0x108C0, 0x108C0, 0x108C0, 0x55000, 0x10A00, 0x50E00, 0x0, 0x0, 0x0, 0x0, 0x40000040,0
03b1b77713367db7fc38c954fb25c1cb38a4a6e9d762818dbe963f7b933ec5a3, 0x10B, 0xC, 0x0, 0x6E000, 0x29A00, 0x0, 0xB360, 0x1000, 0x6F000, 0x400000, 0x1000, 0x200, 0x5, 0x1, 0x0, 0x0, 0x5, 0x1, 0x0, 0x9B000, 0x400, 0xA1F04, 0x3, 0x8140, 0x100000, 0x1000, 0x100000, 0x1000, 0x0, 0x10, , .text, 0x6DF79, 0x6DF79, 0x6DF79, 0x1000, 0x6E000, 0x400, 0x0, 0x0, 0x0, 0x0, 0x60000020, , .rdata, 0x17427, 0x17427, 0x17427, 0x6F000, 0x17600, 0x6E400, 0x0, 0x0, 0x0, 0x0, 0x40000040, , .data, 0x59E0, 0x59E0, 0x59E0, 0x87000, 0x3400, 0x85A00, 0x0, 0x0, 0x0, 0x0, 0xC0000040, , .idata, 0x11A4, 0x11A4, 0x11A4, 0x8D000, 0x1200, 0x88E00, 0x0, 0x0, 0x0, 0x0, 0x40000040, , .rsrc, 0x6A00, 0x6A00, 0x6A00, 0x8F000, 0x6A00, 0x8A000, 0x0, 0x0, 0x0, 0x0, 0x40000040,0
03cc36bda4fdf60bb79a159e3ce03f09433060d8ee201a3b38e143f7c1bc8dd7, 0x10B, 0xE, 0x0, 0x41C00, 0x16BA400, 0x0, 0x1FD4E, 0x1000, 0x43000, 0x400000, 0x1000, 0x200, 0x6, 0x0, 0x0, 0x0, 0x6, 0x0, 0x0, 0x1701000, 0x400, 0x170A38B, 0x2, 0x8140, 0x100000, 0x1000, 0x100000, 0x1000, 0x0, 0x10, , .text, 0x41A33, 0x41A33, 0x41A33, 0x1000, 0x41C00, 0x400, 0x0, 0x0, 0x0, 0x0, 0x60000020, , .rdata, 0x1274E, 0x1274E, 0x1274E, 0x43000, 0x12800, 0x42000, 0x0, 0x0, 0x0, 0x0, 0x40000040, , .data, 0x28B4, 0x28B4, 0x28B4, 0x56000, 0x1A00, 0x54800, 0x0, 0x0, 0x0, 0x0, 0xC0000040, , .gfids, 0x7B4, 0x7B4, 0x7B4, 0x59000, 0x800, 0x56200, 0x0, 0x0, 0x0, 0x0, 0x40000040, , .tls, 0x9, 0x9, 0x9, 0x5A000, 0x200, 0x56A00, 0x0, 0x0, 0x0, 0x0, 0xC0000040,0
03cd42a31666a26dd446464ee60802b63cc7f0ce21b541528a3c5dcfc3856af0, 0x10B, 0xA, 0x0, 0xC07000, 0x40E600, 0x0, 0x60092B, 0x1000, 0xC08000, 0x400000, 0x1000, 0x200, 0x5, 0x1, 0x0, 0x0, 0x5, 0x1, 0x0, 0x101A000, 0x400, 0xF660CA, 0x2, 0x8140, 0x100000, 0x1000, 0x100000, 0x1000, 0x0, 0x10, , .text, 0xC06FBA, 0xC06FBA, 0xC06FBA, 0x1000, 0xC07000, 0x400, 0x0, 0x0, 0x0, 0x0, 0x60000020, , .rdata, 0x1F04B3, 0x1F04B3, 0x1F04B3, 0xC08000, 0x1F0600, 0xC07400, 0x0, 0x0, 0x0, 0x0, 0x40000040, , .data, 0x110520, 0x110520, 0x110520, 0xDF9000, 0x53A00, 0xDF7A00, 0x0, 0x0, 0x0, 0x0, 0xC0000040, , .trace, 0x1FE4, 0x1FE4, 0x1FE4, 0xF0A000, 0x2000, 0xE4B400, 0x0, 0x0, 0x0, 0x0, 0x40000040, , .data1, 0x40, 0x40, 0x40, 0xF0C000, 0x200, 0xE4D400, 0x0, 0x0, 0x0, 0x0, 0xC0000040,0
03cd6e2187741b3839a9b6119717dc8ac23ed19d52aef96757a53f6dc2773c93, 0x10B, 0x5, 0x0, 0x84000, 0x13000, 0x0, 0x1434, 0x1000, 0x85000, 0x400000, 0x1000, 0x200, 0x4, 0x0, 0x0, 0x0, 0x5, 0x0, 0x0, 0x11C000, 0x600, 0x11F39D, 0x2, 0x0, 0x100000, 0x2000, 0x100000, 0x1000, 0x0, 0x10, , .text, 0x84000, 0x84000, 0x84000, 0x1000, 0x83E00, 0x600, 0x0, 0x0, 0x0, 0x0, 0x60000020, , .data, 0x13000, 0x13000, 0x13000, 0x85000, 0x9600, 0x84400, 0x0, 0x0, 0x0, 0x0, 0xC0000040, , .tls, 0x1000, 0x1000, 0x1000, 0x98000, 0x200, 0x8DA00, 0x0, 0x0, 0x0, 0x0, 0xC0000040, , .rdata, 0x1000, 0x1000, 0x1000, 0x99000, 0x200, 0x8DC00, 0x0, 0x0, 0x0, 0x0, 0x50000040, , .idata, 0x3000, 0x3000, 0x3000, 0x9A000, 0x2800, 0x8DE00, 0x0, 0x0, 0x0, 0x0, 0x40000040,0
03e33a6c31b8dabf33d15c990317fb9b064334e27f122d702c23e1a5ef7e247b, 0x10B, 0xE, 0x0, 0x39000, 0x2C800, 0x0, 0x1A53A, 0x1000, 0x3A000, 0x400000, 0x1000, 0x200, 0x5, 0x1, 0x0, 0x0, 0x5, 0x1, 0x0, 0x6A000, 0x400, 0x76981, 0x2, 0x8140, 0x100000, 0x1000, 0x100000, 0x1000, 0x0, 0x10, , .text, 0x38FCB, 0x38FCB, 0x38FCB, 0x1000, 0x39000, 0x400, 0x0, 0x0, 0x0, 0x0, 0x60000020, , .rdata, 0x16510, 0x16510, 0x16510, 0x3A000, 0x16600, 0x39400, 0x0, 0x0, 0x0, 0x0, 0x40000040, , .data, 0x2320, 0x2320, 0x2320, 0x51000, 0x1200, 0x4FA00, 0x0, 0x0, 0x0, 0x0, 0xC0000040, , .gfids, 0x1D0, 0x1D0, 0x1D0, 0x54000, 0x200, 0x50C00, 0x0, 0x0, 0x0, 0x0, 0x40000040, , .rsrc, 0x108C0, 0x108C0, 0x108C0, 0x55000, 0x10A00, 0x50E00, 0x0, 0x0, 0x0, 0x0, 0x40000040,0
03ef631f40fa9f7fc58f2e02d0eb62e273a89af24a5d16bb7ba912b5600b3d55, 0x10B, 0x6, 0x0, 0x28000, 0x1A000, 0x0, 0x1E77C, 0x1000, 0x29000, 0x400000, 0x1000, 0x1000, 0x4, 0x0, 0x0, 0x0, 0x4, 0x0, 0x0, 0x43000, 0x1000, 0x0, 0x2, 0x0, 0x100000, 0x1000, 0x100000, 0x1000, 0x0, 0x10, , .text, 0x27DBA, 0x27DBA, 0x27DBA, 0x1000, 0x28000, 0x1000, 0x0, 0x0, 0x0, 0x0, 0x60000020, , .rdata, 0x4C20, 0x4C20, 0x4C20, 0x29000, 0x5000, 0x29000, 0x0, 0x0, 0x0, 0x0, 0x40000040, , .data, 0x94D8, 0x94D8, 0x94D8, 0x2E000, 0x5000, 0x2E000, 0x0, 0x0, 0x0, 0x0, 0xC0000040, , .rsrc, 0xA3D0, 0xA3D0, 0xA3D0, 0x38000, 0xB000, 0x33000, 0x0, 0x0, 0x0, 0x0, 0x40000040, , ,,,,,,,,,,,,0
03f7762a1520bde300982c47d818ee2d27f4a177ed26cc6b9df1f3c4b0981f68, 0x10B, 0x2, 0x19, 0xFE00, 0xD000, 0x0, 0x113BC, 0x1000, 0x12000, 0x400000, 0x1000, 0x200, 0x5, 0x0, 0x6, 0x0, 0x5, 0x0, 0x0, 0x28000, 0x400, 0x3F08354, 0x2, 0x8140, 0x100000, 0x4000, 0x100000, 0x1000, 0x0, 0x10, , .text, 0xF134, 0xF134, 0xF134, 0x1000, 0xF200, 0x400, 0x0, 0x0, 0x0, 0x0, 0x60000020, , .itext, 0xB44, 0xB44, 0xB44, 0x11000, 0xC00, 0xF600, 0x0, 0x0, 0x0, 0x0, 0x60000020, , .data, 0xC88, 0xC88, 0xC88, 0x12000, 0xE00, 0x10200, 0x0, 0x0, 0x0, 0x0, 0xC0000040, , .bss, 0x56B8, 0x56B8, 0x56B8, 0x13000, 0x0, 0x11000, 0x0, 0x0, 0x0, 0x0, 0xC0000000, , .idata, 0xDD0, 0xDD0, 0xDD0, 0x19000, 0xE00, 0x11000, 0x0, 0x0, 0x0, 0x0, 0xC0000040,0
0402ece3b8a56bcf2955d932a4871d4492eb636c15235806adad64791a2f3c63, 0x10B, 0x8, 0x0, 0x24000, 0x2000, 0x0, 0x25EFE, 0x2000, 0x26000, 0x400000, 0x2000, 0x1000, 0x4, 0x0, 0x0, 0x0, 0x4, 0x0, 0x0, 0x2A000, 0x1000, 0x32DDB, 0x3, 0x540, 0x100000, 0x1000, 0x100000, 0x1000, 0x0, 0x10, , .text, 0x23F04, 0x23F04, 0x23F04, 0x2000, 0x24000, 0x1000, 0x0, 0x0, 0x0, 0x0, 0x60000020, , .rsrc, 0x670, 0x670, 0x670, 0x26000, 0x1000, 0x25000, 0x0, 0x0, 0x0, 0x0, 0x40000040, , .reloc, 0xC, 0xC, 0xC, 0x28000, 0x1000, 0x26000, 0x0, 0x0, 0x0, 0x0, 0x42000040, , ,,,,,,,,,,,,,,,,,,,,,,,,,0
0405b09d77a1f45a2193f122593054d963a94a99df110082414de18126f50336, 0x10B, 0x8, 0x0, 0xAF000, 0xF0000, 0x0, 0x85EA5, 0x1000, 0xB0000, 0x400000, 0x1000, 0x1000, 0x4, 0x0, 0x0, 0x0, 0x4, 0x0, 0x0, 0x1A5000, 0x1000, 0x1A7820, 0x2, 0x0, 0x100000, 0x1000, 0x100000, 0x1000, 0x0, 0x10, , .text, 0xA7885, 0xA7885, 0xA7885, 0x1000, 0xA8000, 0x1000, 0x0, 0x0, 0x0, 0x0, 0x60000020, , EPCL_TEX, 0x3BB3, 0x3BB3, 0x3BB3, 0xA9000, 0x4000, 0xA9000, 0x0, 0x0, 0x0, 0x0, 0x60000020, , EPCL_SET, 0x8C7, 0x8C7, 0x8C7, 0xAD000, 0x1000, 0xAD000, 0x0, 0x0, 0x0, 0x0, 0x60000020, , EPCL_TES, 0x782, 0x782, 0x782, 0xAE000, 0x1000, 0xAE000, 0x0, 0x0, 0x0, 0x0, 0x60000020, , EPCL_INI, 0x113, 0x113, 0x113, 0xAF000, 0x1000, 0xAF000, 0x0, 0x0, 0x0, 0x0, 0x60000020,0
040ff940ce1fcd76db89c72de79ee2de491e0cc374af079140a0f3cf25310e9a, 0x10B, 0x6, 0x0, 0x5E00, 0x28400, 0x400, 0x30FA, 0x1000, 0x7000, 0x400000, 0x1000, 0x200, 0x4, 0x0, 0x6, 0x0, 0x4, 0x0, 0x0, 0x46000, 0x400, 0x0, 0x2, 0x8000, 0x100000, 0x1000, 0x100000, 0x1000, 0x0, 0x10, , .text, 0x5C4C, 0x5C4C, 0x5C4C, 0x1000, 0x5E00, 0x400, 0x0, 0x0, 0x0, 0x0, 0x60000020, , .rdata, 0x129C, 0x129C, 0x129C, 0x7000, 0x1400, 0x6200, 0x0, 0x0, 0x0, 0x0, 0x40000040, , .data, 0x25C58, 0x25C58, 0x25C58, 0x9000, 0x400, 0x7600, 0x0, 0x0, 0x0, 0x0, 0xC0000040, , .ndata, 0x14000, 0x14000, 0x14000, 0x2F000, 0x0, 0x0, 0x0, 0x0, 0x0, 0x0, 0xC0000080, , .rsrc, 0x2968, 0x2968, 0x2968, 0x43000, 0x2A00, 0x7A00, 0x0, 0x0, 0x0, 0x0, 0x40000040,0
041392b518dcadd99a8e07c8360ca5f11702b634b7dfff63462b20e96ea9b696, 0x10B, 0x8, 0x0, 0xAF000, 0xF0000, 0x0, 0x85EA5, 0x1000, 0xB0000, 0x400000, 0x1000, 0x1000, 0x4, 0x0, 0x0, 0x0, 0x4, 0x0, 0x0, 0x1A5000, 0x1000, 0x1A7820, 0x2, 0x0, 0x100000, 0x1000, 0x100000, 0x1000, 0x0, 0x10, , .text, 0xA7885, 0xA7885, 0xA7885, 0x1000, 0xA8000, 0x1000, 0x0, 0x0, 0x0, 0x0, 0x60000020, , EPCL_TEX, 0x3BB3, 0x3BB3, 0x3BB3, 0xA9000, 0x4000, 0xA9000, 0x0, 0x0, 0x0, 0x0, 0x60000020, , EPCL_SET, 0x8C7, 0x8C7, 0x8C7, 0xAD000, 0x1000, 0xAD000, 0x0, 0x0, 0x0, 0x0, 0x60000020, , EPCL_TES, 0x782, 0x782, 0x782, 0xAE000, 0x1000, 0xAE000, 0x0, 0x0, 0x0, 0x0, 0x60000020, , EPCL_INI, 0x113, 0x113, 0x113, 0xAF000, 0x1000, 0xAF000, 0x0, 0x0, 0x0, 0x0, 0x60000020,0
0420403c84487c3f330362a6a2fa852173b0cbfd15dc59e4df587c33da54f94a, 0x10B, 0xC, 0x0, 0x8FBA00, 0x115EAA00, 0x0, 0x89C81E, 0x1000, 0x8FD000, 0x10000, 0x1000, 0x200, 0x6, 0x0, 0x0, 0x0, 0x6, 0x0, 0x0, 0x11EEB000, 0x400, 0xE2CAE9, 0x2, 0x8100, 0x100000, 0x1000, 0x100000, 0x1000, 0x0, 0x10, , .text, 0x8FB99C, 0x8FB99C, 0x8FB99C, 0x1000, 0x8FBA00, 0x400, 0x0, 0x0, 0x0, 0x0, 0x60000020, , .rdata, 0x24F5FE, 0x24F5FE, 0x24F5FE, 0x8FD000, 0x24F600, 0x8FBE00, 0x0, 0x0, 0x0, 0x0, 0x40000040, , .data, 0x1121B300, 0x1121B300, 0x1121B300, 0xB4D000, 0x152000, 0xB4B400, 0x0, 0x0, 0x0, 0x0, 0xC0000040, , .tls, 0xDE5B5, 0xDE5B5, 0xDE5B5, 0x11D69000, 0xDE600, 0xC9D400, 0x0, 0x0, 0x0, 0x0, 0xC0000040, , _RDATA, 0x5E0, 0x5E0, 0x5E0, 0x11E48000, 0x600, 0xD7BA00, 0x0, 0x0, 0x0, 0x0, 0x40000040,0
04353a38c78c62a0520bae2cf27a334c68407ab921d4df5aaed670a841de7432, 0x10B, 0x6, 0x0, 0x5C00, 0x1CC00, 0x400, 0x3217, 0x1000, 0x7000, 0x400000, 0x1000, 0x200, 0x4, 0x0, 0x6, 0x0, 0x4, 0x0, 0x0, 0x3E000, 0x400, 0x7C79E7, 0x2, 0x8000, 0x100000, 0x1000, 0x100000, 0x1000, 0x0, 0x10, , .text, 0x5BE2, 0x5BE2, 0x5BE2, 0x1000, 0x5C00, 0x400, 0x0, 0x0, 0x0, 0x0, 0x60000020, , .rdata, 0x11CE, 0x11CE, 0x11CE, 0x7000, 0x1200, 0x6000, 0x0, 0x0, 0x0, 0x0, 0x40000040, , .data, 0x1A7D8, 0x1A7D8, 0x1A7D8, 0x9000, 0x400, 0x7200, 0x0, 0x0, 0x0, 0x0, 0xC0000040, , .ndata, 0x11000, 0x11000, 0x11000, 0x24000, 0x0, 0x0, 0x0, 0x0, 0x0, 0x0, 0xC0000080, , .rsrc, 0x8B30, 0x8B30, 0x8B30, 0x35000, 0x8C00, 0x7600, 0x0, 0x0, 0x0, 0x0, 0x40000040,0
04770379158c3aa5d4f906a5a56348b0524ab6f02425d5b23c226fe799c894ab, 0x10B, 0xC, 0x0, 0xA5000, 0xB000, 0xAE000, 0x153A90, 0xAF000, 0x154000, 0x400000, 0x1000, 0x200, 0x5, 0x1, 0x0, 0x0, 0x5, 0x1, 0x0, 0x15F000, 0x1000, 0xB72F7, 0x2, 0x8140, 0x100000, 0x1000, 0x100000, 0x1000, 0x0, 0x10, , UPX0, 0xAE000, 0xAE000, 0xAE000, 0x1000, 0x0, 0x400, 0x0, 0x0, 0x0, 0x0, 0xE0000080, , UPX1, 0xA5000, 0xA5000, 0xA5000, 0xAF000, 0xA4E00, 0x400, 0x0, 0x0, 0x0, 0x0, 0xE0000040, , .rsrc, 0xB000, 0xB000, 0xB000, 0x154000, 0xA200, 0xA5200, 0x0, 0x0, 0x0, 0x0, 0xC0000040, , ,,,,,,,,,,,,,,,,,,,,,,,,,0
04aa360beb2cc992081c02d3171fd75f8b52fdc3a30063d0dda7bf525e0764ec, 0x10B, 0xC, 0x0, 0xA5000, 0xB000, 0xAE000, 0x153A90, 0xAF000, 0x154000, 0x400000, 0x1000, 0x200, 0x5, 0x1, 0x0, 0x0, 0x5, 0x1, 0x0, 0x15F000, 0x1000, 0xC2804, 0x2, 0x8140, 0x100000, 0x1000, 0x100000, 0x1000, 0x0, 0x10, , UPX0, 0xAE000, 0xAE000, 0xAE000, 0x1000, 0x0, 0x400, 0x0, 0x0, 0x0, 0x0, 0xE0000080, , UPX1, 0xA5000, 0xA5000, 0xA5000, 0xAF000, 0xA4E00, 0x400, 0x0, 0x0, 0x0, 0x0, 0xE0000040, , .rsrc, 0xB000, 0xB000, 0xB000, 0x154000, 0xA200, 0xA5200, 0x0, 0x0, 0x0, 0x0, 0xC0000040, , ,,,,,,,,,,,,,,,,,,,,,,,,,0
04b1f693cc43e35073ca6f04b1c2dbf2be606df0cc983ac33a6614eadfce54cc, 0x10B, 0x9, 0x0, 0xD400, 0x25400, 0x0, 0xCEBB, 0x1000, 0xF000, 0x400000, 0x1000, 0x200, 0x5, 0x0, 0x0, 0x0, 0x5, 0x0, 0x0, 0x37000, 0x400, 0x3BEF8, 0x2, 0x8140, 0x100000, 0x1000, 0x100000, 0x1000, 0x0, 0x10, , .text, 0xD39E, 0xD39E, 0xD39E, 0x1000, 0xD400, 0x400, 0x0, 0x0, 0x0, 0x0, 0x60000020, , .rdata, 0x4952, 0x4952, 0x4952, 0xF000, 0x4A00, 0xD800, 0x0, 0x0, 0x0, 0x0, 0x40000040, , .data, 0x6FC, 0x6FC, 0x6FC, 0x14000, 0x400, 0x12200, 0x0, 0x0, 0x0, 0x0, 0xC0000040, , .rsrc, 0x1F0C8, 0x1F0C8, 0x1F0C8, 0x15000, 0x1F200, 0x12600, 0x0, 0x0, 0x0, 0x0, 0x40000040, , .reloc, 0x1296, 0x1296, 0x1296, 0x35000, 0x1400, 0x31800, 0x0, 0x0, 0x0, 0x0, 0x42000040,0
04b7051ed9af474810c0b5e123bee26a03c20d7a2379032766984e2beebfd0f1, 0x10B, 0x2, 0x19, 0x457000, 0x1B000, 0x6D9000, 0xB2F970, 0x6DA000, 0xB31000, 0x400000, 0x1000, 0x200, 0x5, 0x0, 0x0, 0x0, 0x5, 0x0, 0x0, 0xB4C000, 0x1000, 0x47D0AC, 0x2, 0x140, 0x100000, 0x4000, 0x100000, 0x1000, 0x0, 0x10, , UPX0, 0x6D9000, 0x6D9000, 0x6D9000, 0x1000, 0x0, 0x400, 0x0, 0x0, 0x0, 0x0, 0xE0000080, , UPX1, 0x457000, 0x457000, 0x457000, 0x6DA000, 0x456600, 0x400, 0x0, 0x0, 0x0, 0x0, 0xE0000040, , .rsrc, 0x1B000, 0x1B000, 0x1B000, 0xB31000, 0x1A600, 0x456A00, 0x0, 0x0, 0x0, 0x0, 0xC0000040, , ,,,,,,,,,,,,,,,,,,,,,,,,,0
04c64b7cbe5c71a50e1c9068ee5a348aac9e68f919377af7854526b2d15c12c7, 0x10B, 0x6, 0x0, 0x9000, 0x2000, 0x0, 0x1380, 0x1000, 0xA000, 0x400000, 0x1000, 0x1000, 0x4, 0x0, 0x1, 0x0, 0x4, 0x0, 0x0, 0xC000, 0x1000, 0x1755C, 0x2, 0x0, 0x100000, 0x1000, 0x100000, 0x1000, 0x0, 0x10, , .text, 0x8904, 0x8904, 0x8904, 0x1000, 0x9000, 0x1000, 0x0, 0x0, 0x0, 0x0, 0x60000020, , .data, 0xA5C, 0xA5C, 0xA5C, 0xA000, 0x1000, 0xA000, 0x0, 0x0, 0x0, 0x0, 0xC0000040, , .rsrc, 0x8D4, 0x8D4, 0x8D4, 0xB000, 0x1000, 0xB000, 0x0, 0x0, 0x0, 0x0, 0x40000040, , ,,,,,,,,,,,,,,,,,,,,,,,,,0
04ef7787891e8df62aa2a250eb195ad421f7ad24934e6520566b7389ee868fe3, 0x10B, 0xA, 0x0, 0x121800, 0xA5800, 0x0, 0xD5624, 0x1000, 0x123000, 0x400000, 0x1000, 0x200, 0x5, 0x1, 0x0, 0x0, 0x5, 0x1, 0x0, 0x1D0000, 0x400, 0x1D0BE1, 0x3, 0x8140, 0x100000, 0x1000, 0x100000, 0x1000, 0x0, 0x10, , .text, 0x12174F, 0x12174F, 0x12174F, 0x1000, 0x121800, 0x400, 0x0, 0x0, 0x0, 0x0, 0x60000020, , .rdata, 0x54A2A, 0x54A2A, 0x54A2A, 0x123000, 0x54C00, 0x121C00, 0x0, 0x0, 0x0, 0x0, 0x40000040, , .data, 0x17724, 0x17724, 0x17724, 0x178000, 0x12800, 0x176800, 0x0, 0x0, 0x0, 0x0, 0xC0000040, , .tls, 0x2, 0x2, 0x2, 0x190000, 0x200, 0x189000, 0x0, 0x0, 0x0, 0x0, 0xC0000040, , .rsrc, 0x24A84, 0x24A84, 0x24A84, 0x191000, 0x24C00, 0x189200, 0x0, 0x0, 0x0, 0x0, 0x40000040,0
04f237f6139fbe652dd9cb5d71adeb7c3c7a5eb5c348f39dd19dd877150042f9, 0x10B, 0x9, 0x0, 0x11C00, 0x11200, 0x0, 0x8BDC, 0x1000, 0x13000, 0x400000, 0x1000, 0x200, 0x5, 0x0, 0x0, 0x0, 0x5, 0x0, 0x0, 0x26000, 0x400, 0x3C82D6, 0x2, 0x8000, 0x100000, 0x1000, 0x100000, 0x1000, 0x0, 0x10, , .text, 0x11AA0, 0x11AA0, 0x11AA0, 0x1000, 0x11C00, 0x400, 0x0, 0x0, 0x0, 0x0, 0x60000020, , .rdata, 0x6D8E, 0x6D8E, 0x6D8E, 0x13000, 0x6E00, 0x12000, 0x0, 0x0, 0x0, 0x0, 0x40000040, , .data, 0x3024, 0x3024, 0x3024, 0x1A000, 0x1400, 0x18E00, 0x0, 0x0, 0x0, 0x0, 0xC0000040, , .rsrc, 0x7038, 0x7038, 0x7038, 0x1E000, 0x7200, 0x1A200, 0x0, 0x0, 0x0, 0x0, 0x40000040, , ,,,,,,,,,,,,0
05044d2ec26bbbe8be2d7e38ee902afabe2f3eb99808df8eb7e8b547d5d929f6, 0x10B, 0x2, 0x19, 0x10400, 0x30400, 0x0, 0x117DC, 0x1000, 0x12000, 0x400000, 0x1000, 0x200, 0x5, 0x0, 0x6, 0x0, 0x5, 0x0, 0x0, 0x4B000, 0x400, 0x6AC899, 0x2, 0x8140, 0x100000, 0x4000, 0x100000, 0x1000, 0x0, 0x10, , .text, 0xF244, 0xF244, 0xF244, 0x1000, 0xF400, 0x400, 0x0, 0x0, 0x0, 0x0, 0x60000020, , .itext, 0xF64, 0xF64, 0xF64, 0x11000, 0x1000, 0xF800, 0x0, 0x0, 0x0, 0x0, 0x60000020, , .data, 0xC88, 0xC88, 0xC88, 0x12000, 0xE00, 0x10800, 0x0, 0x0, 0x0, 0x0, 0xC0000040, , .bss, 0x56BC, 0x56BC, 0x56BC, 0x13000, 0x0, 0x11600, 0x0, 0x0, 0x0, 0x0, 0xC0000000, , .idata, 0xE04, 0xE04, 0xE04, 0x19000, 0x1000, 0x11600, 0x0, 0x0, 0x0, 0x0, 0xC0000040,0
051890dfdefee24fb86eaa3b9c3222d1b3abcb885e60071338eb607fe77a07aa, 0x10B, 0x6, 0x0, 0x5C00, 0x1D600, 0x400, 0x30FB, 0x1000, 0x7000, 0x400000, 0x1000, 0x200, 0x4, 0x0, 0x6, 0x0, 0x4, 0x0, 0x0, 0x3A000, 0x400, 0xC0411, 0x2, 0x8000, 0x100000, 0x1000, 0x100000, 0x1000, 0x0, 0x10, , .text, 0x5AEB, 0x5AEB, 0x5AEB, 0x1000, 0x5C00, 0x400, 0x0, 0x0, 0x0, 0x0, 0x60000020, , .rdata, 0x1196, 0x1196, 0x1196, 0x7000, 0x1200, 0x6000, 0x0, 0x0, 0x0, 0x0, 0x40000040, , .data, 0x1B038, 0x1B038, 0x1B038, 0x9000, 0x600, 0x7200, 0x0, 0x0, 0x0, 0x0, 0xC0000040, , .ndata, 0xF000, 0xF000, 0xF000, 0x25000, 0x0, 0x0, 0x0, 0x0, 0x0, 0x0, 0xC0000080, , .rsrc, 0x5950, 0x5950, 0x5950, 0x34000, 0x5A00, 0x7800, 0x0, 0x0, 0x0, 0x0, 0x40000040,0
0520e3c0b0e6b5c366479a92ab0f4d5bd48a00cf799f92be817ab8c2ccd37b43, 0x10B, 0x6, 0x0, 0x65800, 0x5E000, 0x0, 0x3D474, 0x1000, 0x67000, 0x400000, 0x1000, 0x200, 0x4, 0x0, 0x0, 0x0, 0x5, 0x0, 0x0, 0xC9000, 0x400, 0x0, 0x2, 0x8000, 0x100000, 0x1000, 0x100000, 0x1000, 0x0, 0x10, , .text, 0x65783, 0x65783, 0x65783, 0x1000, 0x65800, 0x400, 0x0, 0x0, 0x0, 0x0, 0x60000020, , .rdata, 0xE16E, 0xE16E, 0xE16E, 0x67000, 0xE200, 0x65C00, 0x0, 0x0, 0x0, 0x0, 0x40000040, , .data, 0x92B4, 0x92B4, 0x92B4, 0x76000, 0x7800, 0x73E00, 0x0, 0x0, 0x0, 0x0, 0xC0000040, , .rsrc, 0x485B8, 0x485B8, 0x485B8, 0x80000, 0x48600, 0x7B600, 0x0, 0x0, 0x0, 0x0, 0x40000040, , ,,,,,,,,,,,,0
052bba873dfd39d8fe3c124f4025a593ee011aea46eed7212985a9710276ed0a, 0x10B, 0x1, 0x3, 0xA000, 0x3000, 0x26000, 0x30A50, 0x27000, 0x31000, 0x400000, 0x1000, 0x200, 0x1, 0x0, 0x0, 0x0, 0x4, 0x0, 0x0, 0x34000, 0x1000, 0x0, 0x2, 0x0, 0x100000, 0x1000, 0x100000, 0x1000, 0x0, 0x10, , UPX0, 0x26000, 0x26000, 0x26000, 0x1000, 0x0, 0x200, 0x0, 0x0, 0x0, 0x0, 0xE0000080, , UPX1, 0xA000, 0xA000, 0xA000, 0x27000, 0x9C00, 0x200, 0x0, 0x0, 0x0, 0x0, 0xE0000040, , .rsrc, 0x3000, 0x3000, 0x3000, 0x31000, 0x2600, 0x9E00, 0x0, 0x0, 0x0, 0x0, 0xC0000040, , ,,,,,,,,,,,,,,,,,,,,,,,,,0
0530ebd97fa643b9179d2d2cadd98b8d5fb3ae6509001d93730251eeaf1dcf84, 0x10B, 0xC, 0x0, 0xA5000, 0xB000, 0xAE000, 0x153A90, 0xAF000, 0x154000, 0x400000, 0x1000, 0x200, 0x5, 0x1, 0x0, 0x0, 0x5, 0x1, 0x0, 0x15F000, 0x1000, 0xC31E0, 0x2, 0x8140, 0x100000, 0x1000, 0x100000, 0x1000, 0x0, 0x10, , UPX0, 0xAE000, 0xAE000, 0xAE000, 0x1000, 0x0, 0x400, 0x0, 0x0, 0x0, 0x0, 0xE0000080, , UPX1, 0xA5000, 0xA5000, 0xA5000, 0xAF000, 0xA4E00, 0x400, 0x0, 0x0, 0x0, 0x0, 0xE0000040, , .rsrc, 0xB000, 0xB000, 0xB000, 0x154000, 0xA200, 0xA5200, 0x0, 0x0, 0x0, 0x0, 0xC0000040, , ,,,,,,,,,,,,,,,,,,,,,,,,,0
05348b4cabee8e52a277c62a13505de02c35c41f96cd81f49136036cfbeb93a0, 0x10B, 0xE, 0x0, 0x14A00, 0xFA000, 0x0, 0x4E56, 0x1000, 0x16000, 0x400000, 0x1000, 0x200, 0x5, 0x1, 0x0, 0x0, 0x5, 0x1, 0x0, 0x114000, 0x400, 0x11C0BA, 0x2, 0x8140, 0x100000, 0x1000, 0x100000, 0x1000, 0x0, 0x10, , .text, 0x148A1, 0x148A1, 0x148A1, 0x1000, 0x14A00, 0x400, 0x0, 0x0, 0x0, 0x0, 0x60000020, , .rdata, 0x6C00, 0x6C00, 0x6C00, 0x16000, 0x6C00, 0x14E00, 0x0, 0x0, 0x0, 0x0, 0x40000040, , .data, 0x1298, 0x1298, 0x1298, 0x1D000, 0x800, 0x1BA00, 0x0, 0x0, 0x0, 0x0, 0xC0000040, , .gfids, 0xDC, 0xDC, 0xDC, 0x1F000, 0x200, 0x1C200, 0x0, 0x0, 0x0, 0x0, 0x40000040, , .rsrc, 0xF1648, 0xF1648, 0xF1648, 0x20000, 0xF1800, 0x1C400, 0x0, 0x0, 0x0, 0x0, 0x40000040,0
053b61ad8521f23c3674cb84ae8f5fe5513494ec95fa373a66c108b142d9ac15, 0x10B, 0xE, 0x0, 0x39000, 0x2C800, 0x0, 0x1A53A, 0x1000, 0x3A000, 0x400000, 0x1000, 0x200, 0x5, 0x1, 0x0, 0x0, 0x5, 0x1, 0x0, 0x6A000, 0x400, 0x6E39D, 0x2, 0x8140, 0x100000, 0x1000, 0x100000, 0x1000, 0x0, 0x10, , .text, 0x38FCB, 0x38FCB, 0x38FCB, 0x1000, 0x39000, 0x400, 0x0, 0x0, 0x0, 0x0, 0x60000020, , .rdata, 0x16510, 0x16510, 0x16510, 0x3A000, 0x16600, 0x39400, 0x0, 0x0, 0x0, 0x0, 0x40000040, , .data, 0x2320, 0x2320, 0x2320, 0x51000, 0x1200, 0x4FA00, 0x0, 0x0, 0x0, 0x0, 0xC0000040, , .gfids, 0x1D0, 0x1D0, 0x1D0, 0x54000, 0x200, 0x50C00, 0x0, 0x0, 0x0, 0x0, 0x40000040, , .rsrc, 0x108C0, 0x108C0, 0x108C0, 0x55000, 0x10A00, 0x50E00, 0x0, 0x0, 0x0, 0x0, 0x40000040,0
053e80296324fc6292662954ddc4292233004632a9143954c1892d2a91541bdb, 0x10B, 0x9, 0x0, 0x6800, 0x74000, 0x4200, 0x3415, 0x1000, 0x8000, 0x400000, 0x1000, 0x200, 0x5, 0x0, 0x6, 0x0, 0x5, 0x0, 0x0, 0x155000, 0x400, 0x0, 0x2, 0x8400, 0x100000, 0x1000, 0x100000, 0x1000, 0x0, 0x10, , .text, 0x671C, 0x671C, 0x671C, 0x1000, 0x6800, 0x400, 0x0, 0x0, 0x0, 0x0, 0x60000020, , .rdata, 0x19D6, 0x19D6, 0x19D6, 0x8000, 0x1A00, 0x6C00, 0x0, 0x0, 0x0, 0x0, 0x40000040, , .data, 0x7139C, 0x7139C, 0x7139C, 0xA000, 0x200, 0x8600, 0x0, 0x0, 0x0, 0x0, 0xC0000040, , .ndata, 0xD1000, 0xD1000, 0xD1000, 0x7C000, 0x0, 0x0, 0x0, 0x0, 0x0, 0x0, 0xC0000080, , .rsrc, 0x7148, 0x7148, 0x7148, 0x14D000, 0x7200, 0x8800, 0x0, 0x0, 0x0, 0x0, 0x40000040,0
055562bb6c05d313fe87e973756c776b307e53a78e7336fa919668310e060e2d, 0x10B, 0x2, 0x19, 0xAAC00, 0x32200, 0x0, 0xABA30, 0x1000, 0xAC000, 0x400000, 0x1000, 0x200, 0x1, 0x0, 0x0, 0x0, 0x4, 0x0, 0x0, 0xE3000, 0x400, 0xE61E1, 0x2, 0x0, 0x100000, 0x4000, 0x100000, 0x1000, 0x0, 0x10, , CODE, 0xAAB64, 0xAAB64, 0xAAB64, 0x1000, 0xAAC00, 0x400, 0x0, 0x0, 0x0, 0x0, 0x60000020, , DATA, 0x1E00, 0x1E00, 0x1E00, 0xAC000, 0x1E00, 0xAB000, 0x0, 0x0, 0x0, 0x0, 0xC0000040, , BSS, 0x889, 0x889, 0x889, 0xAE000, 0x0, 0xACE00, 0x0, 0x0, 0x0, 0x0, 0xC0000000, , .idata, 0x2732, 0x2732, 0x2732, 0xAF000, 0x2800, 0xACE00, 0x0, 0x0, 0x0, 0x0, 0xC0000040, , .tls, 0x8, 0x8, 0x8, 0xB2000, 0x0, 0xAF600, 0x0, 0x0, 0x0, 0x0, 0xC0000000,0
0562e6f88928b2961062ca6addeff9cf8b192c9429ca1c90b5a74c12fa9e6e5b, 0x10B, 0x8, 0x0, 0xAF000, 0xF0000, 0x0, 0x864DE, 0x1000, 0xB0000, 0x400000, 0x1000, 0x1000, 0x4, 0x0, 0x0, 0x0, 0x4, 0x0, 0x0, 0x1A5000, 0x1000, 0x1ACA22, 0x2, 0x0, 0x100000, 0x1000, 0x100000, 0x1000, 0x0, 0x10, , .text, 0xA7D65, 0xA7D65, 0xA7D65, 0x1000, 0xA8000, 0x1000, 0x0, 0x0, 0x0, 0x0, 0x60000020, , EPCL_TEX, 0x3BB3, 0x3BB3, 0x3BB3, 0xA9000, 0x4000, 0xA9000, 0x0, 0x0, 0x0, 0x0, 0x60000020, , EPCL_SET, 0x8C7, 0x8C7, 0x8C7, 0xAD000, 0x1000, 0xAD000, 0x0, 0x0, 0x0, 0x0, 0x60000020, , EPCL_TES, 0x782, 0x782, 0x782, 0xAE000, 0x1000, 0xAE000, 0x0, 0x0, 0x0, 0x0, 0x60000020, , EPCL_INI, 0x113, 0x113, 0x113, 0xAF000, 0x1000, 0xAF000, 0x0, 0x0, 0x0, 0x0, 0x60000020,0
057315e3e8df1277fff4154f8d76e000a55d73ae3716dd1803faba9efc4ba393, 0x10B, 0x6, 0x0, 0x1DC00, 0xB600, 0x0, 0x1C1F2, 0x1000, 0x1F000, 0x400000, 0x1000, 0x200, 0x4, 0x0, 0x0, 0x0, 0x4, 0x0, 0x0, 0x2D000, 0x400, 0x0, 0x3, 0x0, 0x100000, 0x1000, 0x100000, 0x1000, 0x0, 0x10, , .text, 0x1DADE, 0x1DADE, 0x1DADE, 0x1000, 0x1DC00, 0x400, 0x0, 0x0, 0x0, 0x0, 0x60000020, , .rdata, 0x515C, 0x515C, 0x515C, 0x1F000, 0x5200, 0x1E000, 0x0, 0x0, 0x0, 0x0, 0x40000040, , .data, 0x5738, 0x5738, 0x5738, 0x25000, 0x1400, 0x23200, 0x0, 0x0, 0x0, 0x0, 0xC0000040, , .sxdata, 0x4, 0x4, 0x4, 0x2B000, 0x200, 0x24600, 0x0, 0x0, 0x0, 0x0, 0xC0000240, , .rsrc, 0x818, 0x818, 0x818, 0x2C000, 0xA00, 0x24800, 0x0, 0x0, 0x0, 0x0, 0x40000040,0
05737f2f2014f713bcd65c6794bc397376b7aec80c96977a2012a8f99e3add34, 0x10B, 0x6, 0x0, 0x1E000, 0x18000, 0x0, 0x1586F, 0x1000, 0x1F000, 0x400000, 0x1000, 0x1000, 0x4, 0x0, 0x0, 0x0, 0x4, 0x0, 0x0, 0x37000, 0x1000, 0x0, 0x2, 0x0, 0x100000, 0x1000, 0x100000, 0x1000, 0x0, 0x10, , .text, 0x1DF66, 0x1DF66, 0x1DF66, 0x1000, 0x1E000, 0x1000, 0x0, 0x0, 0x0, 0x0, 0x60000020, , .rdata, 0x39A2, 0x39A2, 0x39A2, 0x1F000, 0x4000, 0x1F000, 0x0, 0x0, 0x0, 0x0, 0x40000040, , .data, 0x7AF8, 0x7AF8, 0x7AF8, 0x23000, 0x5000, 0x23000, 0x0, 0x0, 0x0, 0x0, 0xC0000040, , .rsrc, 0xB918, 0xB918, 0xB918, 0x2B000, 0xC000, 0x28000, 0x0, 0x0, 0x0, 0x0, 0x40000040, , ,,,,,,,,,,,,0
05764eb47b5cb8ec8ddbc213a9cee7531c5df405a61cac28353c957d654b95d9, 0x10B, 0xA, 0x0, 0x128A00, 0x77C00, 0x0, 0x1066A7, 0x1000, 0x12A000, 0x400000, 0x1000, 0x200, 0x5, 0x1, 0x0, 0x0, 0x5, 0x1, 0x0, 0x1AA000, 0x400, 0x1B0C0C, 0x2, 0x8140, 0x100000, 0x1000, 0x100000, 0x1000, 0x0, 0x10, , .text, 0x12884E, 0x12884E, 0x12884E, 0x1000, 0x128A00, 0x400, 0x0, 0x0, 0x0, 0x0, 0x60000020, , .rdata, 0x43E88, 0x43E88, 0x43E88, 0x12A000, 0x44000, 0x128E00, 0x0, 0x0, 0x0, 0x0, 0x40000040, , .data, 0xDB00, 0xDB00, 0xDB00, 0x16E000, 0x6200, 0x16CE00, 0x0, 0x0, 0x0, 0x0, 0xC0000040, , .rsrc, 0x3EF8, 0x3EF8, 0x3EF8, 0x17C000, 0x4000, 0x173000, 0x0, 0x0, 0x0, 0x0, 0x40000040, , .reloc, 0x29924, 0x29924, 0x29924, 0x180000, 0x29A00, 0x177000, 0x0, 0x0, 0x0, 0x0, 0x42000040,0
0581fe38c3900c2a0986adfa3ab2ce68e448a2fd8dd940f865dd1cb21f35b215, 0x10B, 0x8, 0x0, 0xAF000, 0xF0000, 0x0, 0x85EA5, 0x1000, 0xB0000, 0x400000, 0x1000, 0x1000, 0x4, 0x0, 0x0, 0x0, 0x4, 0x0, 0x0, 0x1A5000, 0x1000, 0x1A7820, 0x2, 0x0, 0x100000, 0x1000, 0x100000, 0x1000, 0x0, 0x10, , .text, 0xA7885, 0xA7885, 0xA7885, 0x1000, 0xA8000, 0x1000, 0x0, 0x0, 0x0, 0x0, 0x60000020, , EPCL_TEX, 0x3BB3, 0x3BB3, 0x3BB3, 0xA9000, 0x4000, 0xA9000, 0x0, 0x0, 0x0, 0x0, 0x60000020, , EPCL_SET, 0x8C7, 0x8C7, 0x8C7, 0xAD000, 0x1000, 0xAD000, 0x0, 0x0, 0x0, 0x0, 0x60000020, , EPCL_TES, 0x782, 0x782, 0x782, 0xAE000, 0x1000, 0xAE000, 0x0, 0x0, 0x0, 0x0, 0x60000020, , EPCL_INI, 0x113, 0x113, 0x113, 0xAF000, 0x1000, 0xAF000, 0x0, 0x0, 0x0, 0x0, 0x60000020,0
058b953d34178e9d677552a704eae5a8616a9ed557ed436b32adba696032adac, 0x10B, 0x2, 0x19, 0xFE00, 0xD000, 0x0, 0x113BC, 0x1000, 0x12000, 0x400000, 0x1000, 0x200, 0x5, 0x0, 0x6, 0x0, 0x5, 0x0, 0x0, 0x28000, 0x400, 0x164A9F5, 0x2, 0x8000, 0x100000, 0x4000, 0x100000, 0x1000, 0x0, 0x10, , .text, 0xF134, 0xF134, 0xF134, 0x1000, 0xF200, 0x400, 0x0, 0x0, 0x0, 0x0, 0x60000020, , .itext, 0xB44, 0xB44, 0xB44, 0x11000, 0xC00, 0xF600, 0x0, 0x0, 0x0, 0x0, 0x60000020, , .data, 0xC88, 0xC88, 0xC88, 0x12000, 0xE00, 0x10200, 0x0, 0x0, 0x0, 0x0, 0xC0000040, , .bss, 0x56B8, 0x56B8, 0x56B8, 0x13000, 0x0, 0x11000, 0x0, 0x0, 0x0, 0x0, 0xC0000000, , .idata, 0xDD0, 0xDD0, 0xDD0, 0x19000, 0xE00, 0x11000, 0x0, 0x0, 0x0, 0x0, 0xC0000040,0
059c2fa15a3e7385f3bd2fbc5a2a1498ef9aef7760ea2b8f9d08b753448f1719, 0x10B, 0x2, 0x19, 0x9400, 0x8C00, 0x0, 0x9B60, 0x1000, 0xB000, 0x400000, 0x1000, 0x200, 0x1, 0x0, 0x6, 0x0, 0x4, 0x0, 0x0, 0x19000, 0x400, 0x7F94CB, 0x2, 0x8000, 0x100000, 0x4000, 0x100000, 0x1000, 0x0, 0x10, , CODE, 0x9280, 0x9280, 0x9280, 0x1000, 0x9400, 0x400, 0x0, 0x0, 0x0, 0x0, 0x60000020, , DATA, 0x24C, 0x24C, 0x24C, 0xB000, 0x400, 0x9800, 0x0, 0x0, 0x0, 0x0, 0xC0000040, , BSS, 0xE4C, 0xE4C, 0xE4C, 0xC000, 0x0, 0x9C00, 0x0, 0x0, 0x0, 0x0, 0xC0000000, , .idata, 0x950, 0x950, 0x950, 0xD000, 0xA00, 0x9C00, 0x0, 0x0, 0x0, 0x0, 0xC0000040, , .tls, 0x8, 0x8, 0x8, 0xE000, 0x0, 0xA600, 0x0, 0x0, 0x0, 0x0, 0xC0000000,0
05a53e663d4d58856c760a4a2c218488d1a8efb977989601fd01f54551595667, 0x10B, 0x2, 0x19, 0xEC00, 0xCE00, 0x0, 0xF3BC, 0x1000, 0x10000, 0x400000, 0x1000, 0x200, 0x5, 0x0, 0x6, 0x0, 0x5, 0x0, 0x0, 0x25000, 0x400, 0x147F44C, 0x2, 0x8000, 0x100000, 0x4000, 0x100000, 0x1000, 0x0, 0x10, , .text, 0xDE64, 0xDE64, 0xDE64, 0x1000, 0xE000, 0x400, 0x0, 0x0, 0x0, 0x0, 0x60000020, , .itext, 0xB2C, 0xB2C, 0xB2C, 0xF000, 0xC00, 0xE400, 0x0, 0x0, 0x0, 0x0, 0x60000020, , .data, 0xC84, 0xC84, 0xC84, 0x10000, 0xE00, 0xF000, 0x0, 0x0, 0x0, 0x0, 0xC0000040, , .bss, 0x56B0, 0x56B0, 0x56B0, 0x11000, 0x0, 0xFE00, 0x0, 0x0, 0x0, 0x0, 0xC0000000, , .idata, 0xDD0, 0xDD0, 0xDD0, 0x17000, 0xE00, 0xFE00, 0x0, 0x0, 0x0, 0x0, 0xC0000040,0
05a8a7e2c7648430e33b683b4dc7dcd090423dd7bd66ecbe514af3516f998548, 0x10B, 0x6, 0x0, 0x110000, 0x9000, 0x0, 0x7D64, 0x1000, 0x111000, 0x400000, 0x1000, 0x1000, 0x4, 0x0, 0x7, 0x14, 0x4, 0x0, 0x0, 0x11A000, 0x1000, 0x1196AE, 0x2, 0x0, 0x100000, 0x1000, 0x100000, 0x1000, 0x0, 0x10, , .text, 0x10F75C, 0x10F75C, 0x10F75C, 0x1000, 0x110000, 0x1000, 0x0, 0x0, 0x0, 0x0, 0x60000020, , .data, 0x52A8, 0x52A8, 0x52A8, 0x111000, 0x1000, 0x111000, 0x0, 0x0, 0x0, 0x0, 0xC0000040, , .rsrc, 0x2838, 0x2838, 0x2838, 0x117000, 0x3000, 0x112000, 0x0, 0x0, 0x0, 0x0, 0x40000040, , ,,,,,,,,,,,,,,,,,,,,,,,,,0
05a9661bcf1a815efc124b3a3f565bd66c1c51fa3c7b026d9d95f54131d4bbda, 0x10B, 0xE, 0xA, 0x17000, 0xFE00, 0x0, 0x17620, 0x1000, 0x18000, 0x400000, 0x1000, 0x200, 0xA, 0x0, 0xA, 0x0, 0x6, 0x0, 0x0, 0x2A000, 0x400, 0x309D3, 0x2, 0xC140, 0x40000, 0x2000, 0x100000, 0x1000, 0x0, 0x10, , .text, 0x16F04, 0x16F04, 0x16F04, 0x1000, 0x17000, 0x400, 0x0, 0x0, 0x0, 0x0, 0x60000020, , .data, 0x4A08, 0x4A08, 0x4A08, 0x18000, 0x4200, 0x17400, 0x0, 0x0, 0x0, 0x0, 0xC0000040, , .idata, 0x100A, 0x100A, 0x100A, 0x1D000, 0x1200, 0x1B600, 0x0, 0x0, 0x0, 0x0, 0x40000040, , .rsrc, 0x7850, 0x7850, 0x7850, 0x1F000, 0x7A00, 0x1C800, 0x0, 0x0, 0x0, 0x0, 0x40000040, , .reloc, 0x2524, 0x2524, 0x2524, 0x27000, 0x2600, 0x24200, 0x0, 0x0, 0x0, 0x0, 0x42000040,0
05d2e2682634bc6a3f299e62b0111622d9568ecfb59ae2796ac307cc2bed8f5a, 0x10B, 0xA, 0x0, 0x1E1E00, 0xE9600, 0x0, 0x192DE7, 0x1000, 0x1E4000, 0x400000, 0x1000, 0x200, 0x5, 0x1, 0x0, 0x0, 0x5, 0x1, 0x0, 0x2D6000, 0x400, 0x2D6878, 0x2, 0x8140, 0x100000, 0x1000, 0x100000, 0x1000, 0x0, 0x10, , .text, 0x1C929B, 0x1C929B, 0x1C929B, 0x1000, 0x1C9400, 0x400, 0x0, 0x0, 0x0, 0x0, 0x60000020, , RT_CODE, 0x188A9, 0x188A9, 0x188A9, 0x1CB000, 0x18A00, 0x1C9800, 0x0, 0x0, 0x0, 0x0, 0x60000020, , .rdata, 0x77C61, 0x77C61, 0x77C61, 0x1E4000, 0x77E00, 0x1E2200, 0x0, 0x0, 0x0, 0x0, 0x40000040, , .data, 0x16C5C, 0x16C5C, 0x16C5C, 0x25C000, 0xF200, 0x25A000, 0x0, 0x0, 0x0, 0x0, 0xC0000040, , .rsrc, 0x2D444, 0x2D444, 0x2D444, 0x273000, 0x2D600, 0x269200, 0x0, 0x0, 0x0, 0x0, 0x40000040,0
05d8777135381a8b14d627d47012852df73ab9a6f2faf1906ee73162ddc26329, 0x10B, 0x2, 0x19, 0x9200, 0x4400, 0x0, 0x9A58, 0x1000, 0xB000, 0x400000, 0x1000, 0x200, 0x1, 0x0, 0x6, 0x0, 0x4, 0x0, 0x0, 0x14000, 0x400, 0x0, 0x2, 0x8000, 0x100000, 0x4000, 0x100000, 0x1000, 0x0, 0x10, , CODE, 0x9174, 0x9174, 0x9174, 0x1000, 0x9200, 0x400, 0x0, 0x0, 0x0, 0x0, 0x60000020, , DATA, 0x24C, 0x24C, 0x24C, 0xB000, 0x400, 0x9600, 0x0, 0x0, 0x0, 0x0, 0xC0000040, , BSS, 0xE48, 0xE48, 0xE48, 0xC000, 0x0, 0x9A00, 0x0, 0x0, 0x0, 0x0, 0xC0000000, , .idata, 0x950, 0x950, 0x950, 0xD000, 0xA00, 0x9A00, 0x0, 0x0, 0x0, 0x0, 0xC0000040, , .tls, 0x8, 0x8, 0x8, 0xE000, 0x0, 0xA400, 0x0, 0x0, 0x0, 0x0, 0xC0000000,0
05ebb62444ca164e156c12cb93064964e3feb783872d98c6ea61f0006e967346, 0x10B, 0xE, 0x0, 0x14A00, 0xFA600, 0x0, 0x4E56, 0x1000, 0x16000, 0x400000, 0x1000, 0x200, 0x5, 0x1, 0x0, 0x0, 0x5, 0x1, 0x0, 0x114000, 0x400, 0x114223, 0x2, 0x8140, 0x100000, 0x1000, 0x100000, 0x1000, 0x0, 0x10, , .text, 0x148A1, 0x148A1, 0x148A1, 0x1000, 0x14A00, 0x400, 0x0, 0x0, 0x0, 0x0, 0x60000020, , .rdata, 0x6C00, 0x6C00, 0x6C00, 0x16000, 0x6C00, 0x14E00, 0x0, 0x0, 0x0, 0x0, 0x40000040, , .data, 0x1298, 0x1298, 0x1298, 0x1D000, 0x800, 0x1BA00, 0x0, 0x0, 0x0, 0x0, 0xC0000040, , .gfids, 0xDC, 0xDC, 0xDC, 0x1F000, 0x200, 0x1C200, 0x0, 0x0, 0x0, 0x0, 0x40000040, , .rsrc, 0xF1C28, 0xF1C28, 0xF1C28, 0x20000, 0xF1E00, 0x1C400, 0x0, 0x0, 0x0, 0x0, 0x40000040,0
05ef9af0248adb3d7c28cda9b9b7dd739c96736f70f541d76fcd918e600126fa, 0x10B, 0x8, 0x0, 0xAF000, 0xF0000, 0x0, 0x85EA5, 0x1000, 0xB0000, 0x400000, 0x1000, 0x1000, 0x4, 0x0, 0x0, 0x0, 0x4, 0x0, 0x0, 0x1A5000, 0x1000, 0x1A7820, 0x2, 0x0, 0x100000, 0x1000, 0x100000, 0x1000, 0x0, 0x10, , .text, 0xA7885, 0xA7885, 0xA7885, 0x1000, 0xA8000, 0x1000, 0x0, 0x0, 0x0, 0x0, 0x60000020, , EPCL_TEX, 0x3BB3, 0x3BB3, 0x3BB3, 0xA9000, 0x4000, 0xA9000, 0x0, 0x0, 0x0, 0x0, 0x60000020, , EPCL_SET, 0x8C7, 0x8C7, 0x8C7, 0xAD000, 0x1000, 0xAD000, 0x0, 0x0, 0x0, 0x0, 0x60000020, , EPCL_TES, 0x782, 0x782, 0x782, 0xAE000, 0x1000, 0xAE000, 0x0, 0x0, 0x0, 0x0, 0x60000020, , EPCL_INI, 0x113, 0x113, 0x113, 0xAF000, 0x1000, 0xAF000, 0x0, 0x0, 0x0, 0x0, 0x60000020,0
05f59304c555d695cb902d29a41349d09d34a5e5cbde08fe2f67a0ac40a01d69, 0x10B, 0xA, 0x0, 0x7000, 0x6CE00, 0x4200, 0x39E3, 0x1000, 0x8000, 0x400000, 0x1000, 0x200, 0x5, 0x0, 0x6, 0x0, 0x5, 0x0, 0x0, 0xFA000, 0x400, 0x72785, 0x2, 0x8540, 0x100000, 0x1000, 0x100000, 0x1000, 0x0, 0x10, , .text, 0x6F10, 0x6F10, 0x6F10, 0x1000, 0x7000, 0x400, 0x0, 0x0, 0x0, 0x0, 0x60000020, , .rdata, 0x2A92, 0x2A92, 0x2A92, 0x8000, 0x2C00, 0x7400, 0x0, 0x0, 0x0, 0x0, 0x40000040, , .data, 0x67EBC, 0x67EBC, 0x67EBC, 0xB000, 0x200, 0xA000, 0x0, 0x0, 0x0, 0x0, 0xC0000040, , .ndata, 0x85000, 0x85000, 0x85000, 0x73000, 0x0, 0x0, 0x0, 0x0, 0x0, 0x0, 0xC0000080, , .rsrc, 0x9F8, 0x9F8, 0x9F8, 0xF8000, 0xA00, 0xA200, 0x0, 0x0, 0x0, 0x0, 0x40000040,0
05f7bb617250e73fc70e47eb667206d56b3f9a7ee60a784d417febbec799dfff, 0x10B, 0x6, 0x0, 0x5E00, 0x28400, 0x400, 0x30FA, 0x1000, 0x7000, 0x400000, 0x1000, 0x200, 0x4, 0x0, 0x6, 0x0, 0x4, 0x0, 0x0, 0x3E000, 0x400, 0x0, 0x2, 0x8000, 0x100000, 0x1000, 0x100000, 0x1000, 0x0, 0x10, , .text, 0x5C4C, 0x5C4C, 0x5C4C, 0x1000, 0x5E00, 0x400, 0x0, 0x0, 0x0, 0x0, 0x60000020, , .rdata, 0x129C, 0x129C, 0x129C, 0x7000, 0x1400, 0x6200, 0x0, 0x0, 0x0, 0x0, 0x40000040, , .data, 0x25C58, 0x25C58, 0x25C58, 0x9000, 0x400, 0x7600, 0x0, 0x0, 0x0, 0x0, 0xC0000040, , .ndata, 0xA000, 0xA000, 0xA000, 0x2F000, 0x0, 0x0, 0x0, 0x0, 0x0, 0x0, 0xC0000080, , .rsrc, 0x4788, 0x4788, 0x4788, 0x39000, 0x4800, 0x7A00, 0x0, 0x0, 0x0, 0x0, 0x40000040,0
05f850805ca6a9ca7760c881b2a8e96eaaaadc7d649f17b49a8530e6f3823f2b, 0x10B, 0xA, 0x0, 0x26800, 0x7400, 0x0, 0x18976, 0x1000, 0x28000, 0x400000, 0x1000, 0x200, 0x5, 0x1, 0xA, 0x0, 0x5, 0x1, 0x0, 0x34000, 0x400, 0x2AEEC97, 0x2, 0x8140, 0x100000, 0x2000, 0x100000, 0x1000, 0x0, 0x10, , .text, 0x2670A, 0x2670A, 0x2670A, 0x1000, 0x26800, 0x400, 0x0, 0x0, 0x0, 0x0, 0x60000020, , .data, 0x3700, 0x3700, 0x3700, 0x28000, 0x1400, 0x26C00, 0x0, 0x0, 0x0, 0x0, 0xC0000040, , .idata, 0x122A, 0x122A, 0x122A, 0x2C000, 0x1400, 0x28000, 0x0, 0x0, 0x0, 0x0, 0x40000040, , .boxld01, 0x98, 0x98, 0x98, 0x2E000, 0x200, 0x29400, 0x0, 0x0, 0x0, 0x0, 0x40000040, , .rsrc, 0x1EBC, 0x1EBC, 0x1EBC, 0x2F000, 0x2000, 0x29600, 0x0, 0x0, 0x0, 0x0, 0x40000040,0
05fa7b43e55c7a90d4b6e15199e14a16d38b8d4cf4a2c027aee4576af3e50255, 0x10B, 0x2, 0x19, 0x24200, 0x8200, 0x0, 0x251C0, 0x1000, 0x26000, 0x400000, 0x1000, 0x200, 0x4, 0x0, 0x0, 0x0, 0x4, 0x0, 0x0, 0x33000, 0x400, 0x0, 0x2, 0x0, 0x100000, 0x4000, 0x100000, 0x1000, 0x0, 0x10, , CODE, 0x241E4, 0x241E4, 0x241E4, 0x1000, 0x24200, 0x400, 0x0, 0x0, 0x0, 0x0, 0x60000020, , DATA, 0x1EF4, 0x1EF4, 0x1EF4, 0x26000, 0x2000, 0x24600, 0x0, 0x0, 0x0, 0x0, 0xC0000040, , BSS, 0x909, 0x909, 0x909, 0x28000, 0x0, 0x26600, 0x0, 0x0, 0x0, 0x0, 0xC0000000, , .idata, 0x1138, 0x1138, 0x1138, 0x29000, 0x1200, 0x26600, 0x0, 0x0, 0x0, 0x0, 0xC0000040, , .tls, 0x8, 0x8, 0x8, 0x2B000, 0x0, 0x27800, 0x0, 0x0, 0x0, 0x0, 0xC0000000,0
05faf79731fe4ed2156c5481a3166791ff84908fb144d9841719235ea6776178, 0x10B, 0xE, 0xA, 0x4F000, 0x27000, 0x17A000, 0x1C9D80, 0x17B000, 0x1CA000, 0x400000, 0x1000, 0x200, 0x5, 0x1, 0x0, 0x0, 0x5, 0x1, 0x0, 0x1F1000, 0x1000, 0x96792, 0x2, 0x8140, 0x100000, 0x1000, 0x100000, 0x1000, 0x0, 0x10, , UPX0, 0x17A000, 0x17A000, 0x17A000, 0x1000, 0x0, 0x400, 0x0, 0x0, 0x0, 0x0, 0xE0000080, , UPX1, 0x4F000, 0x4F000, 0x4F000, 0x17B000, 0x4F000, 0x400, 0x0, 0x0, 0x0, 0x0, 0xE0000040, , .rsrc, 0x27000, 0x27000, 0x27000, 0x1CA000, 0x26E00, 0x4F400, 0x0, 0x0, 0x0, 0x0, 0xC0000040, , ,,,,,,,,,,,,,,,,,,,,,,,,,0
0611aa4a8534c1bb8c0e2a9ff04017e8f834ebfd9334c8272e1d2bb7f1b12e4b, 0x10B, 0x2, 0x19, 0x9200, 0x3400, 0x0, 0x9978, 0x1000, 0xB000, 0x400000, 0x1000, 0x200, 0x1, 0x0, 0x6, 0x0, 0x4, 0x0, 0x0, 0x14000, 0x400, 0x25B494, 0x2, 0x8000, 0x100000, 0x4000, 0x100000, 0x1000, 0x0, 0x10, , CODE, 0x9094, 0x9094, 0x9094, 0x1000, 0x9200, 0x400, 0x0, 0x0, 0x0, 0x0, 0x60000020, , DATA, 0x24C, 0x24C, 0x24C, 0xB000, 0x400, 0x9600, 0x0, 0x0, 0x0, 0x0, 0xC0000040, , BSS, 0xE44, 0xE44, 0xE44, 0xC000, 0x0, 0x9A00, 0x0, 0x0, 0x0, 0x0, 0xC0000000, , .idata, 0x94C, 0x94C, 0x94C, 0xD000, 0xA00, 0x9A00, 0x0, 0x0, 0x0, 0x0, 0xC0000040, , .tls, 0x8, 0x8, 0x8, 0xE000, 0x0, 0xA400, 0x0, 0x0, 0x0, 0x0, 0xC0000000,0
0620b1415a76874fba631e585056ca497a23a555698bf6e5c465e640ebf92023, 0x10B, 0x6, 0x0, 0x45000, 0x18000, 0x0, 0xD3B0, 0x1000, 0x46000, 0x400000, 0x1000, 0x1000, 0x4, 0x0, 0x0, 0x0, 0x4, 0x0, 0x0, 0x5E000, 0x1000, 0x0, 0x2, 0x0, 0x100000, 0x1000, 0x100000, 0x1000, 0x0, 0x10, , .text, 0x449AC, 0x449AC, 0x449AC, 0x1000, 0x45000, 0x1000, 0x0, 0x0, 0x0, 0x0, 0xE0000020, , .rdata, 0x7C4A, 0x7C4A, 0x7C4A, 0x46000, 0x8000, 0x46000, 0x0, 0x0, 0x0, 0x0, 0xC0000040, , .data, 0x465C, 0x465C, 0x465C, 0x4E000, 0x3000, 0x4E000, 0x0, 0x0, 0x0, 0x0, 0xC0000040, , .data1, 0xB0, 0xB0, 0xB0, 0x53000, 0x1000, 0x51000, 0x0, 0x0, 0x0, 0x0, 0xC0000040, , .rsrc, 0x96D0, 0x96D0, 0x96D0, 0x54000, 0xA000, 0x52000, 0x0, 0x0, 0x0, 0x0, 0x40000040,0
062a3eb4af4987aa9c90008ac6bae3866ceec9afac69dd6a322149a6a63b8eff, 0x10B, 0xA, 0x0, 0x13B200, 0x1C6E00, 0x0, 0x116C1B, 0x1000, 0x13D000, 0x400000, 0x1000, 0x200, 0x5, 0x1, 0x0, 0x0, 0x5, 0x1, 0x0, 0x30E000, 0x400, 0x0, 0x2, 0x8140, 0x100000, 0x1000, 0x100000, 0x1000, 0x0, 0x10, , .text, 0x13B1CA, 0x13B1CA, 0x13B1CA, 0x1000, 0x13B200, 0x400, 0x0, 0x0, 0x0, 0x0, 0x60000020, , .rdata, 0x49992, 0x49992, 0x49992, 0x13D000, 0x49A00, 0x13B600, 0x0, 0x0, 0x0, 0x0, 0x40000040, , .data, 0xE01C, 0xE01C, 0xE01C, 0x187000, 0x6A00, 0x185000, 0x0, 0x0, 0x0, 0x0, 0xC0000040, , .rsrc, 0x14C2E8, 0x14C2E8, 0x14C2E8, 0x196000, 0x14C400, 0x18BA00, 0x0, 0x0, 0x0, 0x0, 0x40000040, , .reloc, 0x2A592, 0x2A592, 0x2A592, 0x2E3000, 0x2A600, 0x2D7E00, 0x0, 0x0, 0x0, 0x0, 0x42000040,0
06393def0dc2fbe0833217ccf7c8dd226a1a698807dbee765d97f924f43efd00, 0x10B, 0x2, 0x19, 0xFE00, 0xD000, 0x0, 0x113BC, 0x1000, 0x12000, 0x400000, 0x1000, 0x200, 0x5, 0x0, 0x6, 0x0, 0x5, 0x0, 0x0, 0x28000, 0x400, 0x3ED58C, 0x2, 0x8140, 0x100000, 0x4000, 0x100000, 0x1000, 0x0, 0x10, , .text, 0xF134, 0xF134, 0xF134, 0x1000, 0xF200, 0x400, 0x0, 0x0, 0x0, 0x0, 0x60000020, , .itext, 0xB44, 0xB44, 0xB44, 0x11000, 0xC00, 0xF600, 0x0, 0x0, 0x0, 0x0, 0x60000020, , .data, 0xC88, 0xC88, 0xC88, 0x12000, 0xE00, 0x10200, 0x0, 0x0, 0x0, 0x0, 0xC0000040, , .bss, 0x56B8, 0x56B8, 0x56B8, 0x13000, 0x0, 0x11000, 0x0, 0x0, 0x0, 0x0, 0xC0000000, , .idata, 0xDD0, 0xDD0, 0xDD0, 0x19000, 0xE00, 0x11000, 0x0, 0x0, 0x0, 0x0, 0xC0000040,0
0639c7c1b2b21558d4691a9f2b1d908f9f6e986d9183c808ea7458a05edea544, 0x10B, 0xE, 0x0, 0x39000, 0x2C800, 0x0, 0x1A53A, 0x1000, 0x3A000, 0x400000, 0x1000, 0x200, 0x5, 0x1, 0x0, 0x0, 0x5, 0x1, 0x0, 0x6A000, 0x400, 0x71C33, 0x2, 0x8140, 0x100000, 0x1000, 0x100000, 0x1000, 0x0, 0x10, , .text, 0x38FCB, 0x38FCB, 0x38FCB, 0x1000, 0x39000, 0x400, 0x0, 0x0, 0x0, 0x0, 0x60000020, , .rdata, 0x16510, 0x16510, 0x16510, 0x3A000, 0x16600, 0x39400, 0x0, 0x0, 0x0, 0x0, 0x40000040, , .data, 0x2320, 0x2320, 0x2320, 0x51000, 0x1200, 0x4FA00, 0x0, 0x0, 0x0, 0x0, 0xC0000040, , .gfids, 0x1D0, 0x1D0, 0x1D0, 0x54000, 0x200, 0x50C00, 0x0, 0x0, 0x0, 0x0, 0x40000040, , .rsrc, 0x108C0, 0x108C0, 0x108C0, 0x55000, 0x10A00, 0x50E00, 0x0, 0x0, 0x0, 0x0, 0x40000040,0
064f32f43f756317ca1544d46001e3d37998a2c95d4ead6cf4c0c8f7370ef5c1, 0x10B, 0xC, 0x0, 0xA5000, 0xB000, 0xAE000, 0x153A90, 0xAF000, 0x154000, 0x400000, 0x1000, 0x200, 0x5, 0x1, 0x0, 0x0, 0x5, 0x1, 0x0, 0x15F000, 0x1000, 0xBBAF9, 0x2, 0x8140, 0x100000, 0x1000, 0x100000, 0x1000, 0x0, 0x10, , UPX0, 0xAE000, 0xAE000, 0xAE000, 0x1000, 0x0, 0x400, 0x0, 0x0, 0x0, 0x0, 0xE0000080, , UPX1, 0xA5000, 0xA5000, 0xA5000, 0xAF000, 0xA4E00, 0x400, 0x0, 0x0, 0x0, 0x0, 0xE0000040, , .rsrc, 0xB000, 0xB000, 0xB000, 0x154000, 0xA200, 0xA5200, 0x0, 0x0, 0x0, 0x0, 0xC0000040, , ,,,,,,,,,,,,,,,,,,,,,,,,,0
06502a5e19d58acc11ed68b583f89c2115f812181ca6cd36b503f2e0da720265, 0x10B, 0x9, 0x0, 0x15E00, 0x2600, 0x200, 0xACC3, 0x1000, 0x17000, 0x3C0000, 0x1000, 0x200, 0x6, 0x1, 0x6, 0x1, 0x6, 0x1, 0x0, 0x1E000, 0x400, 0x20C7D, 0x2, 0x8140, 0x40000, 0x2000, 0x100000, 0x1000, 0x0, 0x10, , .text, 0x15B08, 0x15B08, 0x15B08, 0x1000, 0x15C00, 0x400, 0x0, 0x0, 0x0, 0x0, 0x60000020, , RT_CODE, 0x99, 0x99, 0x99, 0x17000, 0x200, 0x16000, 0x0, 0x0, 0x0, 0x0, 0x60000020, , RT_BSS, 0x18, 0x18, 0x18, 0x18000, 0x0, 0x0, 0x0, 0x0, 0x0, 0x0, 0xC0000080, , .data, 0x658, 0x658, 0x658, 0x19000, 0x800, 0x16200, 0x0, 0x0, 0x0, 0x0, 0xC0000040, , RT_DATA, 0x20, 0x20, 0x20, 0x1A000, 0x200, 0x16A00, 0x0, 0x0, 0x0, 0x0, 0xC0000040,0
065919394f22fdd63745cefc5e851b3dd0b2ae731ecb1996a61788b156875726, 0x10B, 0x6, 0x0, 0x5E00, 0x28400, 0x400, 0x30FA, 0x1000, 0x7000, 0x400000, 0x1000, 0x200, 0x4, 0x0, 0x6, 0x0, 0x4, 0x0, 0x0, 0x3E000, 0x400, 0x0, 0x2, 0x8000, 0x100000, 0x1000, 0x100000, 0x1000, 0x0, 0x10, , .text, 0x5C4C, 0x5C4C, 0x5C4C, 0x1000, 0x5E00, 0x400, 0x0, 0x0, 0x0, 0x0, 0x60000020, , .rdata, 0x129C, 0x129C, 0x129C, 0x7000, 0x1400, 0x6200, 0x0, 0x0, 0x0, 0x0, 0x40000040, , .data, 0x25C58, 0x25C58, 0x25C58, 0x9000, 0x400, 0x7600, 0x0, 0x0, 0x0, 0x0, 0xC0000040, , .ndata, 0xA000, 0xA000, 0xA000, 0x2F000, 0x0, 0x0, 0x0, 0x0, 0x0, 0x0, 0xC0000080, , .rsrc, 0x4788, 0x4788, 0x4788, 0x39000, 0x4800, 0x7A00, 0x0, 0x0, 0x0, 0x0, 0x40000040,0
065c15500a1258e2d52ba78b156ed350ff2aebe4ec6ccd7fa08896f4f0998dfc, 0x10B, 0x8, 0x0, 0x4800, 0xAC00, 0x0, 0x67AE, 0x2000, 0x8000, 0x400000, 0x2000, 0x200, 0x4, 0x0, 0x0, 0x0, 0x4, 0x0, 0x0, 0x16000, 0x200, 0x0, 0x2, 0x8540, 0x100000, 0x1000, 0x100000, 0x1000, 0x0, 0x10, , .text, 0x47B4, 0x47B4, 0x47B4, 0x2000, 0x4800, 0x200, 0x0, 0x0, 0x0, 0x0, 0x60000020, , .rsrc, 0xA8A0, 0xA8A0, 0xA8A0, 0x8000, 0xAA00, 0x4A00, 0x0, 0x0, 0x0, 0x0, 0x40000040, , .reloc, 0xC, 0xC, 0xC, 0x14000, 0x200, 0xF400, 0x0, 0x0, 0x0, 0x0, 0x42000040, , ,,,,,,,,,,,,,,,,,,,,,,,,,0
067a3cdb525a2e76f9b5006cce97a4abf2cb568b13477c7b8f09e22afe23e74d, 0x10B, 0x9, 0x0, 0x62800, 0x14200, 0x0, 0x1AB07, 0x1000, 0x64000, 0x1000000, 0x1000, 0x200, 0x6, 0x1, 0x6, 0x1, 0x5, 0x0, 0x0, 0x7A000, 0x400, 0x857F6, 0x3, 0x8140, 0x40000, 0x2000, 0x100000, 0x1000, 0x0, 0x10, , .text, 0x62686, 0x62686, 0x62686, 0x1000, 0x62800, 0x400, 0x0, 0x0, 0x0, 0x0, 0x60000020, , .data, 0x32F4, 0x32F4, 0x32F4, 0x64000, 0x800, 0x62C00, 0x0, 0x0, 0x0, 0x0, 0xC0000040, , .rsrc, 0xC460, 0xC460, 0xC460, 0x68000, 0xC600, 0x63400, 0x0, 0x0, 0x0, 0x0, 0x40000040, , .reloc, 0x47D2, 0x47D2, 0x47D2, 0x75000, 0x4800, 0x6FA00, 0x0, 0x0, 0x0, 0x0, 0x42000040, , ,,,,,,,,,,,,0
0689bdcb40753469cbaaf1b96accb5913c171361eb12abf80da9f01fa8cd70bc, 0x10B, 0x8, 0x0, 0x25C00, 0x5E00, 0x0, 0x17775, 0x1000, 0x27000, 0x400000, 0x1000, 0x200, 0x5, 0x0, 0x8, 0x0, 0x5, 0x0, 0x0, 0x2E000, 0x400, 0x2D809, 0x3, 0x8140, 0x100000, 0x2000, 0x100000, 0x1000, 0x0, 0x10, , .text, 0x25A7E, 0x25A7E, 0x25A7E, 0x1000, 0x25C00, 0x400, 0x0, 0x0, 0x0, 0x0, 0x60000020, , .data, 0x2E9C, 0x2E9C, 0x2E9C, 0x27000, 0x1200, 0x26000, 0x0, 0x0, 0x0, 0x0, 0xC0000040, , .rsrc, 0x658, 0x658, 0x658, 0x2A000, 0x800, 0x27200, 0x0, 0x0, 0x0, 0x0, 0x40000040, , .reloc, 0x2556, 0x2556, 0x2556, 0x2B000, 0x2600, 0x27A00, 0x0, 0x0, 0x0, 0x0, 0x42000040, , ,,,,,,,,,,,,0
069446588cdd7c140d87cac8344fa487a932119d3e5ff8d236ca89f980d6e952, 0x10B, 0x9, 0x0, 0xCF000, 0x18D800, 0x0, 0xB5953, 0x1000, 0xD0000, 0x400000, 0x1000, 0x200, 0x5, 0x0, 0x0, 0x0, 0x5, 0x0, 0x0, 0x266000, 0x400, 0x26E01A, 0x2, 0x8140, 0x100000, 0x1000, 0x100000, 0x1000, 0x0, 0x10, , .text, 0xCEEC0, 0xCEEC0, 0xCEEC0, 0x1000, 0xCF000, 0x400, 0x0, 0x0, 0x0, 0x0, 0x60000020, , .rdata, 0x26E8A, 0x26E8A, 0x26E8A, 0xD0000, 0x27000, 0xCF400, 0x0, 0x0, 0x0, 0x0, 0x40000040, , .data, 0xBD20, 0xBD20, 0xBD20, 0xF7000, 0x4000, 0xF6400, 0x0, 0x0, 0x0, 0x0, 0xC0000040, , .rsrc, 0x156BFC, 0x156BFC, 0x156BFC, 0x103000, 0x156C00, 0xFA400, 0x0, 0x0, 0x0, 0x0, 0x40000040, , .reloc, 0xBA3C, 0xBA3C, 0xBA3C, 0x25A000, 0xBC00, 0x251000, 0x0, 0x0, 0x0, 0x0, 0x42000040,0
06b561c1eae596d6416fa19b12256e69a798d2ad434953c4028a8b55602acedd, 0x10B, 0x6, 0x0, 0x1000, 0x21000, 0x0, 0x1D20, 0x1000, 0x2000, 0x400000, 0x1000, 0x1000, 0x4, 0x0, 0x0, 0x0, 0x4, 0x0, 0x0, 0x23000, 0x1000, 0x0, 0x2, 0x0, 0x100000, 0x1000, 0x100000, 0x1000, 0x0, 0x10, , .text, 0xEAC, 0xEAC, 0xEAC, 0x1000, 0x1000, 0x1000, 0x0, 0x0, 0x0, 0x0, 0x60000020, , .rdata, 0x488, 0x488, 0x488, 0x2000, 0x1000, 0x2000, 0x0, 0x0, 0x0, 0x0, 0x40000040, , .data, 0x560, 0x560, 0x560, 0x3000, 0x1000, 0x3000, 0x0, 0x0, 0x0, 0x0, 0xC0000040, , .gentee, 0x155CB, 0x155CB, 0x155CB, 0x4000, 0x16000, 0x4000, 0x0, 0x0, 0x0, 0x0, 0x40000040, , .rsrc, 0x8320, 0x8320, 0x8320, 0x1A000, 0x9000, 0x1A000, 0x0, 0x0, 0x0, 0x0, 0x40000040,0
06b5ce16c2ac96ee40069703d9bf59fcb81fd2e695b90de0d911a94dad0fa8f6, 0x10B, 0x2, 0x16, 0x4000, 0x1E000, 0x8E00, 0x1290, 0x1000, 0x5000, 0x400000, 0x1000, 0x200, 0x4, 0x0, 0x1, 0x0, 0x4, 0x0, 0x0, 0x2E000, 0x400, 0x51FB43, 0x2, 0x540, 0x200000, 0x1000, 0x100000, 0x1000, 0x0, 0x10, , .text, 0x3FA8, 0x3FA8, 0x3FA8, 0x1000, 0x4000, 0x400, 0x0, 0x0, 0x0, 0x0, 0x60300020, , .data, 0xC0, 0xC0, 0xC0, 0x5000, 0x200, 0x4400, 0x0, 0x0, 0x0, 0x0, 0xC0300040, , .rdata, 0x410, 0x410, 0x410, 0x6000, 0x600, 0x4600, 0x0, 0x0, 0x0, 0x0, 0x40300040, , .bss, 0x8CB0, 0x8CB0, 0x8CB0, 0x7000, 0x0, 0x0, 0x0, 0x0, 0x0, 0x0, 0xC0300080, , .idata, 0xA94, 0xA94, 0xA94, 0x10000, 0xC00, 0x4C00, 0x0, 0x0, 0x0, 0x0, 0xC0300040,0
06cda8da3e63b727d754dc4573364e563fb78cef1be879169a77b8bc9a271cff, 0x10B, 0x2, 0x19, 0x4F200, 0xEE00, 0x0, 0x5002C, 0x1000, 0x51000, 0x400000, 0x1000, 0x200, 0x1, 0x0, 0x0, 0x0, 0x4, 0x0, 0x0, 0x65000, 0x400, 0x0, 0x2, 0x0, 0x100000, 0x4000, 0x100000, 0x1000, 0x0, 0x10, , CODE, 0x4F074, 0x4F074, 0x4F074, 0x1000, 0x4F200, 0x400, 0x0, 0x0, 0x0, 0x0, 0x60000020, , DATA, 0x3A14, 0x3A14, 0x3A14, 0x51000, 0x3C00, 0x4F600, 0x0, 0x0, 0x0, 0x0, 0xC0000040, , BSS, 0x875, 0x875, 0x875, 0x55000, 0x0, 0x53200, 0x0, 0x0, 0x0, 0x0, 0xC0000000, , .idata, 0x225E, 0x225E, 0x225E, 0x56000, 0x2400, 0x53200, 0x0, 0x0, 0x0, 0x0, 0xC0000040, , .tls, 0x10, 0x10, 0x10, 0x59000, 0x0, 0x55600, 0x0, 0x0, 0x0, 0x0, 0xC0000000,0
06cdfadc880ef7bb0e32eed968e797cdd73f56b9f5369f47f35680d1bc52be5c, 0x10B, 0x6, 0x0, 0x12000, 0xD000, 0x0, 0x10E92, 0x1000, 0x13000, 0x400000, 0x1000, 0x1000, 0x4, 0x0, 0x0, 0x0, 0x4, 0x0, 0x0, 0x20000, 0x1000, 0x0, 0x2, 0x0, 0x100000, 0x1000, 0x100000, 0x1000, 0x0, 0x10, , .text, 0x1196A, 0x1196A, 0x1196A, 0x1000, 0x12000, 0x1000, 0x0, 0x0, 0x0, 0x0, 0x60000020, , .rdata, 0x455A, 0x455A, 0x455A, 0x13000, 0x5000, 0x13000, 0x0, 0x0, 0x0, 0x0, 0x40000040, , .data, 0xF10, 0xF10, 0xF10, 0x18000, 0x1000, 0x18000, 0x0, 0x0, 0x0, 0x0, 0xC0000040, , .rsrc, 0x69F8, 0x69F8, 0x69F8, 0x19000, 0x7000, 0x19000, 0x0, 0x0, 0x0, 0x0, 0x40000040, , ,,,,,,,,,,,,0
06ce884b17d66be57fd4abba45ab72eb28c58e3909117e93b0165c6b7cb2814d, 0x10B, 0x8, 0x0, 0xAF000, 0xF0000, 0x0, 0x85EA5, 0x1000, 0xB0000, 0x400000, 0x1000, 0x1000, 0x4, 0x0, 0x0, 0x0, 0x4, 0x0, 0x0, 0x1A5000, 0x1000, 0x1A7820, 0x2, 0x0, 0x100000, 0x1000, 0x100000, 0x1000, 0x0, 0x10, , .text, 0xA7885, 0xA7885, 0xA7885, 0x1000, 0xA8000, 0x1000, 0x0, 0x0, 0x0, 0x0, 0x60000020, , EPCL_TEX, 0x3BB3, 0x3BB3, 0x3BB3, 0xA9000, 0x4000, 0xA9000, 0x0, 0x0, 0x0, 0x0, 0x60000020, , EPCL_SET, 0x8C7, 0x8C7, 0x8C7, 0xAD000, 0x1000, 0xAD000, 0x0, 0x0, 0x0, 0x0, 0x60000020, , EPCL_TES, 0x782, 0x782, 0x782, 0xAE000, 0x1000, 0xAE000, 0x0, 0x0, 0x0, 0x0, 0x60000020, , EPCL_INI, 0x113, 0x113, 0x113, 0xAF000, 0x1000, 0xAF000, 0x0, 0x0, 0x0, 0x0, 0x60000020,0
06d9ee772962fc1df9ab9f503e0b6b980cd162963066b828978f51869396b6f0, 0x10B, 0x2, 0x19, 0x14AE00, 0x27C00, 0x0, 0x14C094, 0x1000, 0x14D000, 0x400000, 0x1000, 0x200, 0x5, 0x0, 0x6, 0x0, 0x5, 0x0, 0x0, 0x17F000, 0x400, 0x0, 0x2, 0x8000, 0x100000, 0x4000, 0x100000, 0x1000, 0x0, 0x10, , .text, 0x1499B8, 0x1499B8, 0x1499B8, 0x1000, 0x149A00, 0x400, 0x0, 0x0, 0x0, 0x0, 0x60000020, , .itext, 0x12B0, 0x12B0, 0x12B0, 0x14B000, 0x1400, 0x149E00, 0x0, 0x0, 0x0, 0x0, 0x60000020, , .data, 0x34B0, 0x34B0, 0x34B0, 0x14D000, 0x3600, 0x14B200, 0x0, 0x0, 0x0, 0x0, 0xC0000040, , .bss, 0x61BC, 0x61BC, 0x61BC, 0x151000, 0x0, 0x14E800, 0x0, 0x0, 0x0, 0x0, 0xC0000000, , .idata, 0x3B60, 0x3B60, 0x3B60, 0x158000, 0x3C00, 0x14E800, 0x0, 0x0, 0x0, 0x0, 0xC0000040,0
06dceb617db492b96d88bfb6115940df89b452fea4d0dfc494ddc797ad4c91db, 0x10B, 0x9, 0x0, 0x2600, 0x2400, 0x0, 0x29FD, 0x1000, 0x4000, 0x1000000, 0x1000, 0x200, 0x6, 0x1, 0x6, 0x1, 0x6, 0x1, 0x0, 0x8000, 0x400, 0x3CB4, 0x3, 0x8140, 0x40000, 0x2000, 0x100000, 0x1000, 0x0, 0x10, , .text, 0x250C, 0x250C, 0x250C, 0x1000, 0x2600, 0x400, 0x0, 0x0, 0x0, 0x0, 0x60000020, , .data, 0x1594, 0x1594, 0x1594, 0x4000, 0x400, 0x2A00, 0x0, 0x0, 0x0, 0x0, 0xC0000040, , .rsrc, 0x830, 0x830, 0x830, 0x6000, 0xA00, 0x2E00, 0x0, 0x0, 0x0, 0x0, 0x40000040, , .reloc, 0x2E2, 0x2E2, 0x2E2, 0x7000, 0x400, 0x3800, 0x0, 0x0, 0x0, 0x0, 0x42000040, , ,,,,,,,,,,,,0
06df1d0ec8ece36f2f20143e36aa7d5c8d5c2f916867e8b83c297278eb21767d, 0x10B, 0x2, 0x19, 0x13400, 0x4E00, 0x0, 0x143D0, 0x1000, 0x15000, 0x400000, 0x1000, 0x200, 0x4, 0x0, 0x0, 0x0, 0x4, 0x0, 0x0, 0x1F000, 0x400, 0x21DC1, 0x2, 0x0, 0x100000, 0x4000, 0x100000, 0x1000, 0x0, 0x10, , CODE, 0x13400, 0x13400, 0x13400, 0x1000, 0x13400, 0x400, 0x0, 0x0, 0x0, 0x0, 0x60000020, , DATA, 0x1B14, 0x1B14, 0x1B14, 0x15000, 0x1C00, 0x13800, 0x0, 0x0, 0x0, 0x0, 0xC0000040, , BSS, 0x1011, 0x1011, 0x1011, 0x17000, 0x0, 0x15400, 0x0, 0x0, 0x0, 0x0, 0xC0000000, , .idata, 0x1120, 0x1120, 0x1120, 0x19000, 0x1200, 0x15400, 0x0, 0x0, 0x0, 0x0, 0xC0000040, , .tls, 0x8, 0x8, 0x8, 0x1B000, 0x0, 0x16600, 0x0, 0x0, 0x0, 0x0, 0xC0000000,0
06ee14aa092ed882fea6aab865efec7ed26f37ece046a4d858ebd2266c53c479, 0x10B, 0xC, 0x0, 0xA5000, 0xB000, 0xAE000, 0x153A90, 0xAF000, 0x154000, 0x400000, 0x1000, 0x200, 0x5, 0x1, 0x0, 0x0, 0x5, 0x1, 0x0, 0x15F000, 0x1000, 0xBCB44, 0x2, 0x8140, 0x100000, 0x1000, 0x100000, 0x1000, 0x0, 0x10, , UPX0, 0xAE000, 0xAE000, 0xAE000, 0x1000, 0x0, 0x400, 0x0, 0x0, 0x0, 0x0, 0xE0000080, , UPX1, 0xA5000, 0xA5000, 0xA5000, 0xAF000, 0xA4E00, 0x400, 0x0, 0x0, 0x0, 0x0, 0xE0000040, , .rsrc, 0xB000, 0xB000, 0xB000, 0x154000, 0xA200, 0xA5200, 0x0, 0x0, 0x0, 0x0, 0xC0000040, , ,,,,,,,,,,,,,,,,,,,,,,,,,0
06f16cb109ae74b1d1fdd96463546f24419b5fc60b051ac6b0eff45807087890, 0x10B, 0x9, 0x0, 0x12400, 0x1DA00, 0x0, 0xAC87, 0x1000, 0x14000, 0x400000, 0x1000, 0x200, 0x5, 0x0, 0x0, 0x0, 0x5, 0x0, 0x0, 0x34000, 0x400, 0x0, 0x2, 0x8500, 0x100000, 0x1000, 0x100000, 0x1000, 0x0, 0x10, , .text, 0x1231E, 0x1231E, 0x1231E, 0x1000, 0x12400, 0x400, 0x0, 0x0, 0x0, 0x0, 0x60000020, , .rdata, 0x1D15, 0x1D15, 0x1D15, 0x14000, 0x1E00, 0x12800, 0x0, 0x0, 0x0, 0x0, 0x40000040, , .data, 0x17724, 0x17724, 0x17724, 0x16000, 0x200, 0x14600, 0x0, 0x0, 0x0, 0x0, 0xC0000040, , .CRT, 0x20, 0x20, 0x20, 0x2E000, 0x200, 0x14800, 0x0, 0x0, 0x0, 0x0, 0x40000040, , .rsrc, 0x4110, 0x4110, 0x4110, 0x2F000, 0x4200, 0x14A00, 0x0, 0x0, 0x0, 0x0, 0x40000040,0
06fbec304f35d1ac237f171e4f9058e43d5d9bffa25a93f11d727a7627202dd2, 0x10B, 0x9, 0x0, 0x14200, 0xB200, 0x0, 0x8874, 0x1000, 0x16000, 0x400000, 0x1000, 0x200, 0x5, 0x0, 0x0, 0x0, 0x5, 0x0, 0x0, 0x24000, 0x400, 0x2DE34, 0x2, 0x8140, 0x100000, 0x1000, 0x100000, 0x1000, 0x0, 0x10, , .text, 0x14135, 0x14135, 0x14135, 0x1000, 0x14200, 0x400, 0x0, 0x0, 0x0, 0x0, 0x60000020, , .rdata, 0x4380, 0x4380, 0x4380, 0x16000, 0x4400, 0x14600, 0x0, 0x0, 0x0, 0x0, 0x40000040, , .data, 0x3F4C, 0x3F4C, 0x3F4C, 0x1B000, 0x2400, 0x18A00, 0x0, 0x0, 0x0, 0x0, 0xC0000040, , .rsrc, 0x2B70, 0x2B70, 0x2B70, 0x1F000, 0x2C00, 0x1AE00, 0x0, 0x0, 0x0, 0x0, 0x40000040, , .reloc, 0x1DD4, 0x1DD4, 0x1DD4, 0x22000, 0x1E00, 0x1DA00, 0x0, 0x0, 0x0, 0x0, 0x42000040,0
0705321d5c2510865a597eb79855261d7f053b7702e35b5db99ef8c3c0d36468, 0x10B, 0x2, 0x1B, 0x27200, 0x37C00, 0x3800, 0x14E0, 0x1000, 0x29000, 0x400000, 0x1000, 0x200, 0x4, 0x0, 0x1, 0x0, 0x4, 0x0, 0x0, 0x43000, 0x400, 0x45FCC, 0x3, 0x0, 0x200000, 0x1000, 0x100000, 0x1000, 0x0, 0x10, , .text, 0x271C4, 0x271C4, 0x271C4, 0x1000, 0x27200, 0x400, 0x0, 0x0, 0x0, 0x0, 0x60500060, , .data, 0x984, 0x984, 0x984, 0x29000, 0xA00, 0x27600, 0x0, 0x0, 0x0, 0x0, 0xC0600040, , .rdata, 0x669C, 0x669C, 0x669C, 0x2A000, 0x6800, 0x28000, 0x0, 0x0, 0x0, 0x0, 0x40600040, , /4, 0x5B28, 0x5B28, 0x5B28, 0x31000, 0x5C00, 0x2E800, 0x0, 0x0, 0x0, 0x0, 0x40300040, , .bss, 0x379C, 0x379C, 0x379C, 0x37000, 0x0, 0x0, 0x0, 0x0, 0x0, 0x0, 0xC0600080,0
070aa20477eabacb13a210b7ac0194992d1750a33d36ad131c04b4d24f0b6b24, 0x10B, 0x2, 0x19, 0x9200, 0x4400, 0x0, 0x9A58, 0x1000, 0xB000, 0x400000, 0x1000, 0x200, 0x1, 0x0, 0x6, 0x0, 0x4, 0x0, 0x0, 0x14000, 0x400, 0x0, 0x2, 0x8000, 0x100000, 0x4000, 0x100000, 0x1000, 0x0, 0x10, , CODE, 0x9174, 0x9174, 0x9174, 0x1000, 0x9200, 0x400, 0x0, 0x0, 0x0, 0x0, 0x60000020, , DATA, 0x24C, 0x24C, 0x24C, 0xB000, 0x400, 0x9600, 0x0, 0x0, 0x0, 0x0, 0xC0000040, , BSS, 0xE48, 0xE48, 0xE48, 0xC000, 0x0, 0x9A00, 0x0, 0x0, 0x0, 0x0, 0xC0000000, , .idata, 0x950, 0x950, 0x950, 0xD000, 0xA00, 0x9A00, 0x0, 0x0, 0x0, 0x0, 0xC0000040, , .tls, 0x8, 0x8, 0x8, 0xE000, 0x0, 0xA400, 0x0, 0x0, 0x0, 0x0, 0xC0000000,0
0712154cf2e5346644134b386a778e24a015ada7f9e45cd1ba1ed78f2c923062, 0x10B, 0xA, 0x0, 0x7000, 0x6CE00, 0x4200, 0x39E3, 0x1000, 0x8000, 0x400000, 0x1000, 0x200, 0x5, 0x0, 0x6, 0x0, 0x5, 0x0, 0x0, 0x112000, 0x400, 0x2DF394, 0x2, 0x8540, 0x100000, 0x1000, 0x100000, 0x1000, 0x0, 0x10, , .text, 0x6F10, 0x6F10, 0x6F10, 0x1000, 0x7000, 0x400, 0x0, 0x0, 0x0, 0x0, 0x60000020, , .rdata, 0x2A92, 0x2A92, 0x2A92, 0x8000, 0x2C00, 0x7400, 0x0, 0x0, 0x0, 0x0, 0x40000040, , .data, 0x67EBC, 0x67EBC, 0x67EBC, 0xB000, 0x200, 0xA000, 0x0, 0x0, 0x0, 0x0, 0xC0000040, , .ndata, 0x99000, 0x99000, 0x99000, 0x73000, 0x0, 0x0, 0x0, 0x0, 0x0, 0x0, 0xC0000080, , .rsrc, 0x43F8, 0x43F8, 0x43F8, 0x10C000, 0x4400, 0xA200, 0x0, 0x0, 0x0, 0x0, 0x40000040,0
071d521ac3cfed4817d96fa7e0896bbd32f3c832c723a797d3b4cbedf8f06024, 0x10B, 0xB, 0x0, 0xB1E00, 0x84400, 0x0, 0x763CC, 0x1000, 0xB3000, 0x400000, 0x1000, 0x200, 0x5, 0x1, 0x0, 0x0, 0x5, 0x1, 0x0, 0x13F000, 0x400, 0x0, 0x2, 0x8100, 0x100000, 0x1000, 0x100000, 0x1000, 0x0, 0x10, , .text, 0xB1D05, 0xB1D05, 0xB1D05, 0x1000, 0xB1E00, 0x400, 0x0, 0x0, 0x0, 0x0, 0x60000020, , .rdata, 0x35B3C, 0x35B3C, 0x35B3C, 0xB3000, 0x35C00, 0xB2200, 0x0, 0x0, 0x0, 0x0, 0x40000040, , .data, 0x8C38, 0x8C38, 0x8C38, 0xE9000, 0x2600, 0xE7E00, 0x0, 0x0, 0x0, 0x0, 0xC0000040, , .rsrc, 0x4C18C, 0x4C18C, 0x4C18C, 0xF2000, 0x4C200, 0xEA400, 0x0, 0x0, 0x0, 0x0, 0x40000040, , ,,,,,,,,,,,,0
072c3842a0f91eeb37a078fe00af49becb8b47bfd2bfc7fcd7b9f0ff0da6ddb1, 0x10B, 0x2, 0x19, 0x15000, 0x13E00, 0x0, 0x16478, 0x1000, 0x17000, 0x400000, 0x1000, 0x200, 0x5, 0x0, 0x6, 0x0, 0x5, 0x0, 0x0, 0x33000, 0x400, 0x0, 0x2, 0x8000, 0x100000, 0x4000, 0x100000, 0x1000, 0x0, 0x10, , .text, 0x143F8, 0x143F8, 0x143F8, 0x1000, 0x14400, 0x400, 0x0, 0x0, 0x0, 0x0, 0x60000020, , .itext, 0xBE8, 0xBE8, 0xBE8, 0x16000, 0xC00, 0x14800, 0x0, 0x0, 0x0, 0x0, 0x60000020, , .data, 0xD9C, 0xD9C, 0xD9C, 0x17000, 0xE00, 0x15400, 0x0, 0x0, 0x0, 0x0, 0xC0000040, , .bss, 0x5750, 0x5750, 0x5750, 0x18000, 0x0, 0x16200, 0x0, 0x0, 0x0, 0x0, 0xC0000000, , .idata, 0xF9E, 0xF9E, 0xF9E, 0x1E000, 0x1000, 0x16200, 0x0, 0x0, 0x0, 0x0, 0xC0000040,0
07322e9c25a9bd122592f26388f0e120931fcdf72258cce374e0e84df88342b9, 0x10B, 0x7, 0xA, 0x9A00, 0xFDA00, 0x0, 0x645C, 0x1000, 0xB000, 0x1000000, 0x1000, 0x200, 0x5, 0x1, 0x5, 0x1, 0x4, 0x0, 0x0, 0x10B000, 0x400, 0x115B08, 0x2, 0x8400, 0x40000, 0x1000, 0x100000, 0x1000, 0x0, 0x10, , .text, 0x992C, 0x992C, 0x992C, 0x1000, 0x9A00, 0x400, 0x0, 0x0, 0x0, 0x0, 0x60000020, , .data, 0x1BE4, 0x1BE4, 0x1BE4, 0xB000, 0x400, 0x9E00, 0x0, 0x0, 0x0, 0x0, 0xC0000040, , .rsrc, 0xFE000, 0xFE000, 0xFE000, 0xD000, 0xFD600, 0xA200, 0x0, 0x0, 0x0, 0x0, 0x40000040, , ,,,,,,,,,,,,,,,,,,,,,,,,,0
0736a4753b075725b807fe1dd17b6e54a438f63ed8ef5d233654b37bc9ce96b3, 0x10B, 0xE, 0x0, 0x14A00, 0xFA600, 0x0, 0x4E56, 0x1000, 0x16000, 0x400000, 0x1000, 0x200, 0x5, 0x1, 0x0, 0x0, 0x5, 0x1, 0x0, 0x114000, 0x400, 0x114223, 0x2, 0x8140, 0x100000, 0x1000, 0x100000, 0x1000, 0x0, 0x10, , .text, 0x148A1, 0x148A1, 0x148A1, 0x1000, 0x14A00, 0x400, 0x0, 0x0, 0x0, 0x0, 0x60000020, , .rdata, 0x6C00, 0x6C00, 0x6C00, 0x16000, 0x6C00, 0x14E00, 0x0, 0x0, 0x0, 0x0, 0x40000040, , .data, 0x1298, 0x1298, 0x1298, 0x1D000, 0x800, 0x1BA00, 0x0, 0x0, 0x0, 0x0, 0xC0000040, , .gfids, 0xDC, 0xDC, 0xDC, 0x1F000, 0x200, 0x1C200, 0x0, 0x0, 0x0, 0x0, 0x40000040, , .rsrc, 0xF1C28, 0xF1C28, 0xF1C28, 0x20000, 0xF1E00, 0x1C400, 0x0, 0x0, 0x0, 0x0, 0x40000040,0
07371edcf6af353298f12ec3a251639e1de8dcf0ce78031df2a87d66c9194cc4, 0x10B, 0xC, 0x0, 0xA5000, 0xB000, 0xAE000, 0x153A90, 0xAF000, 0x154000, 0x400000, 0x1000, 0x200, 0x5, 0x1, 0x0, 0x0, 0x5, 0x1, 0x0, 0x15F000, 0x1000, 0xB3D24, 0x2, 0x8140, 0x100000, 0x1000, 0x100000, 0x1000, 0x0, 0x10, , UPX0, 0xAE000, 0xAE000, 0xAE000, 0x1000, 0x0, 0x400, 0x0, 0x0, 0x0, 0x0, 0xE0000080, , UPX1, 0xA5000, 0xA5000, 0xA5000, 0xAF000, 0xA4E00, 0x400, 0x0, 0x0, 0x0, 0x0, 0xE0000040, , .rsrc, 0xB000, 0xB000, 0xB000, 0x154000, 0xA200, 0xA5200, 0x0, 0x0, 0x0, 0x0, 0xC0000040, , ,,,,,,,,,,,,,,,,,,,,,,,,,0
073d734506e7f130d58ef1673931bfefacdcb03be249144ce7ad84f292181d4f, 0x10B, 0x8, 0x0, 0xF000, 0xD000, 0x0, 0x7EB8, 0x1000, 0x10000, 0x400000, 0x1000, 0x1000, 0x4, 0x0, 0x0, 0x0, 0x4, 0x0, 0x0, 0x368000, 0x1000, 0x36F480, 0x2, 0x0, 0x7D00, 0x1000, 0x7D00, 0x1000, 0x0, 0x10, , .text, 0xE6D8, 0xE6D8, 0xE6D8, 0x1000, 0xF000, 0x1000, 0x0, 0x0, 0x0, 0x0, 0x60000020, , .rdata, 0x29F2, 0x29F2, 0x29F2, 0x10000, 0x3000, 0x10000, 0x0, 0x0, 0x0, 0x0, 0x40000040, , .data, 0x62E4, 0x62E4, 0x62E4, 0x13000, 0x2000, 0x13000, 0x0, 0x0, 0x0, 0x0, 0xC0000040, , .rsrc, 0x789C, 0x789C, 0x789C, 0x1A000, 0x8000, 0x15000, 0x0, 0x0, 0x0, 0x0, 0x40000040, , _winzip_, 0x346000, 0x346000, 0x346000, 0x22000, 0x346000, 0x1F000, 0x0, 0x0, 0x0, 0x0, 0x42000040,0
074dfba9c0cb8f157b16fed2ab795e1cb3218c7ab9bb4a7e83fc5c98755de5e3, 0x10B, 0xC, 0x0, 0x24A00, 0xD800, 0x0, 0x1AC4, 0x1000, 0x26000, 0x400000, 0x1000, 0x200, 0x6, 0x0, 0x0, 0x0, 0x6, 0x0, 0x0, 0x35000, 0x400, 0x0, 0x3, 0x8140, 0x100000, 0x1000, 0x100000, 0x1000, 0x0, 0x10, , .text, 0x24965, 0x24965, 0x24965, 0x1000, 0x24A00, 0x400, 0x0, 0x0, 0x0, 0x0, 0x60000020, , .rdata, 0x7728, 0x7728, 0x7728, 0x26000, 0x7800, 0x24E00, 0x0, 0x0, 0x0, 0x0, 0x40000040, , .data, 0x3870, 0x3870, 0x3870, 0x2E000, 0x1800, 0x2C600, 0x0, 0x0, 0x0, 0x0, 0xC0000040, , .idata, 0xA9A, 0xA9A, 0xA9A, 0x32000, 0xC00, 0x2DE00, 0x0, 0x0, 0x0, 0x0, 0x40000040, , .reloc, 0x1822, 0x1822, 0x1822, 0x33000, 0x1A00, 0x2EA00, 0x0, 0x0, 0x0, 0x0, 0x42000040,0
074fab2baf2893acb910b19bbb8c1b2ce203f866a5ad253269eed343da9ebba2, 0x10B, 0x8, 0x0, 0x12800, 0x6600, 0x0, 0x12DDF, 0x1000, 0x14000, 0x400000, 0x1000, 0x200, 0x4, 0x0, 0x0, 0x0, 0x4, 0x0, 0x0, 0x1E000, 0x200, 0x2172E, 0x2, 0x0, 0x100000, 0x1000, 0x100000, 0x1000, 0x0, 0x10, , .text, 0x12690, 0x12690, 0x12690, 0x1000, 0x12800, 0x200, 0x0, 0x0, 0x0, 0x0, 0x60000020, , .rdata, 0x3518, 0x3518, 0x3518, 0x14000, 0x3600, 0x12A00, 0x0, 0x0, 0x0, 0x0, 0x40000040, , .data, 0x298C, 0x298C, 0x298C, 0x18000, 0x800, 0x16000, 0x0, 0x0, 0x0, 0x0, 0xC0000040, , .rsrc, 0x26D6, 0x26D6, 0x26D6, 0x1B000, 0x2800, 0x16800, 0x0, 0x0, 0x0, 0x0, 0x40000040, , ,,,,,,,,,,,,0
0753d063bd859c74ea4b362cc7c3683e4204d2749c5816b8c7633d89c1c82003, 0x10B, 0x8, 0x0, 0xAF000, 0xF0000, 0x0, 0x85EA5, 0x1000, 0xB0000, 0x400000, 0x1000, 0x1000, 0x4, 0x0, 0x0, 0x0, 0x4, 0x0, 0x0, 0x1A5000, 0x1000, 0x1A7820, 0x2, 0x0, 0x100000, 0x1000, 0x100000, 0x1000, 0x0, 0x10, , .text, 0xA7885, 0xA7885, 0xA7885, 0x1000, 0xA8000, 0x1000, 0x0, 0x0, 0x0, 0x0, 0x60000020, , EPCL_TEX, 0x3BB3, 0x3BB3, 0x3BB3, 0xA9000, 0x4000, 0xA9000, 0x0, 0x0, 0x0, 0x0, 0x60000020, , EPCL_SET, 0x8C7, 0x8C7, 0x8C7, 0xAD000, 0x1000, 0xAD000, 0x0, 0x0, 0x0, 0x0, 0x60000020, , EPCL_TES, 0x782, 0x782, 0x782, 0xAE000, 0x1000, 0xAE000, 0x0, 0x0, 0x0, 0x0, 0x60000020, , EPCL_INI, 0x113, 0x113, 0x113, 0xAF000, 0x1000, 0xAF000, 0x0, 0x0, 0x0, 0x0, 0x60000020,0
075473716f03506357136c8e1f127200ea7c53b51806d5ea8850edc7e26e7983, 0x10B, 0x6, 0x0, 0x5E00, 0x28400, 0x400, 0x30FA, 0x1000, 0x7000, 0x400000, 0x1000, 0x200, 0x4, 0x0, 0x6, 0x0, 0x4, 0x0, 0x0, 0xA7000, 0x400, 0x18658D, 0x2, 0x8000, 0x100000, 0x1000, 0x100000, 0x1000, 0x0, 0x10, , .text, 0x5C4C, 0x5C4C, 0x5C4C, 0x1000, 0x5E00, 0x400, 0x0, 0x0, 0x0, 0x0, 0x60000020, , .rdata, 0x129C, 0x129C, 0x129C, 0x7000, 0x1400, 0x6200, 0x0, 0x0, 0x0, 0x0, 0x40000040, , .data, 0x25C58, 0x25C58, 0x25C58, 0x9000, 0x400, 0x7600, 0x0, 0x0, 0x0, 0x0, 0xC0000040, , .ndata, 0x12000, 0x12000, 0x12000, 0x2F000, 0x0, 0x0, 0x0, 0x0, 0x0, 0x0, 0xC0000080, , .rsrc, 0x65568, 0x65568, 0x65568, 0x41000, 0x65600, 0x7A00, 0x0, 0x0, 0x0, 0x0, 0x40000040,0
075c2f11ebe2a07e033629085f2bccc95bed8871fe2f07e5870f78b7c8e0b518, 0x10B, 0x50, 0x0, 0x540000, 0x2E00, 0x0, 0x541F72, 0x2000, 0x542000, 0x400000, 0x2000, 0x200, 0x4, 0x0, 0x0, 0x0, 0x6, 0x0, 0x0, 0x548000, 0x200, 0x0, 0x2, 0x8560, 0x100000, 0x1000, 0x100000, 0x1000, 0x0, 0x10, , .text, 0x53FF78, 0x53FF78, 0x53FF78, 0x2000, 0x540000, 0x200, 0x0, 0x0, 0x0, 0x0, 0x60000020, , .rsrc, 0x2A0C, 0x2A0C, 0x2A0C, 0x542000, 0x2C00, 0x540200, 0x0, 0x0, 0x0, 0x0, 0x40000040, , .reloc, 0xC, 0xC, 0xC, 0x546000, 0x200, 0x542E00, 0x0, 0x0, 0x0, 0x0, 0x42000040, , ,,,,,,,,,,,,,,,,,,,,,,,,,0
075e550cf94840b806e88772a2c05dc12b68b0b55ed4a2a0b5bd69539d67a40e, 0x10B, 0x9, 0x0, 0x3000, 0x1400, 0x0, 0x2CDA, 0x1000, 0x4000, 0x1000000, 0x1000, 0x200, 0x6, 0x1, 0x6, 0x1, 0x6, 0x1, 0x0, 0x7000, 0x400, 0x5508, 0x2, 0x8140, 0x40000, 0x2000, 0x100000, 0x1000, 0x0, 0x10, , .text, 0x2E88, 0x2E88, 0x2E88, 0x1000, 0x3000, 0x400, 0x0, 0x0, 0x0, 0x0, 0x60000020, , .data, 0x4FC, 0x4FC, 0x4FC, 0x4000, 0x200, 0x3400, 0x0, 0x0, 0x0, 0x0, 0xC0000040, , .rsrc, 0x420, 0x420, 0x420, 0x5000, 0x600, 0x3600, 0x0, 0x0, 0x0, 0x0, 0x40000040, , .reloc, 0x7EE, 0x7EE, 0x7EE, 0x6000, 0x800, 0x3C00, 0x0, 0x0, 0x0, 0x0, 0x42000040, , ,,,,,,,,,,,,0
0780d4fce6f15a637b0a4190fea5021d9f537f4d1c25aaf2cf644cad28a1db92, 0x10B, 0x9, 0x0, 0xC800, 0x5E00, 0x400, 0x5010, 0x1000, 0xE000, 0x400000, 0x1000, 0x200, 0x5, 0x0, 0x6, 0x0, 0x5, 0x0, 0x0, 0x231000, 0x400, 0x2D3B59, 0x2, 0x8100, 0x100000, 0x1000, 0x100000, 0x1000, 0x0, 0x10, , .text, 0xC7FC, 0xC7FC, 0xC7FC, 0x1000, 0xC800, 0x400, 0x0, 0x0, 0x0, 0x0, 0x60000020, , .rdata, 0x28FE, 0x28FE, 0x28FE, 0xE000, 0x2A00, 0xCC00, 0x0, 0x0, 0x0, 0x0, 0x40000040, , .data, 0x20A250, 0x20A250, 0x20A250, 0x11000, 0x2000, 0xF600, 0x0, 0x0, 0x0, 0x0, 0xC0000040, , .ndata, 0xB000, 0xB000, 0xB000, 0x21C000, 0x0, 0x0, 0x0, 0x0, 0x0, 0x0, 0xC0000080, , .rsrc, 0x9DA0, 0x9DA0, 0x9DA0, 0x227000, 0x9E00, 0x11600, 0x0, 0x0, 0x0, 0x0, 0x40000040,0
078da1729c4c0529815c8d80c622801ff5ade0db12ec7a01c8c422f07694ee21, 0x10B, 0xE, 0x0, 0x13800, 0x204E00, 0x0, 0x3A6F, 0x1000, 0x15000, 0x400000, 0x1000, 0x200, 0x6, 0x0, 0x0, 0x0, 0x6, 0x0, 0x0, 0x21E000, 0x400, 0x2293D2, 0x2, 0x8140, 0x100000, 0x1000, 0x100000, 0x1000, 0x0, 0x10, , .text, 0x1377B, 0x1377B, 0x1377B, 0x1000, 0x13800, 0x400, 0x0, 0x0, 0x0, 0x0, 0x60000020, , .rdata, 0x6E16, 0x6E16, 0x6E16, 0x15000, 0x7000, 0x13C00, 0x0, 0x0, 0x0, 0x0, 0x40000040, , .data, 0x17E8, 0x17E8, 0x17E8, 0x1C000, 0x800, 0x1AC00, 0x0, 0x0, 0x0, 0x0, 0xC0000040, , .gfids, 0xAC, 0xAC, 0xAC, 0x1E000, 0x200, 0x1B400, 0x0, 0x0, 0x0, 0x0, 0x40000040, , .rsrc, 0x1FC14C, 0x1FC14C, 0x1FC14C, 0x1F000, 0x1FC200, 0x1B600, 0x0, 0x0, 0x0, 0x0, 0x40000040,0
079a2ebd33446d572f1d2f5315e03140dcc0d23dc65fa91e7ce5a3b9af2d80ae, 0x10B, 0x6, 0x0, 0x6000, 0x28400, 0x400, 0x312A, 0x1000, 0x7000, 0x400000, 0x1000, 0x200, 0x4, 0x0, 0x6, 0x0, 0x4, 0x0, 0x0, 0x49000, 0x400, 0x0, 0x2, 0x8000, 0x100000, 0x1000, 0x100000, 0x1000, 0x0, 0x10, , .text, 0x5E66, 0x5E66, 0x5E66, 0x1000, 0x6000, 0x400, 0x0, 0x0, 0x0, 0x0, 0x60000020, , .rdata, 0x12A2, 0x12A2, 0x12A2, 0x7000, 0x1400, 0x6400, 0x0, 0x0, 0x0, 0x0, 0x40000040, , .data, 0x25D18, 0x25D18, 0x25D18, 0x9000, 0x600, 0x7800, 0x0, 0x0, 0x0, 0x0, 0xC0000040, , .ndata, 0x8000, 0x8000, 0x8000, 0x2F000, 0x0, 0x0, 0x0, 0x0, 0x0, 0x0, 0xC0000080, , .rsrc, 0x11888, 0x11888, 0x11888, 0x37000, 0x11A00, 0x7E00, 0x0, 0x0, 0x0, 0x0, 0x40000040,0
07c65538d3a83abbacb9dc140c41e9833b8ed9c510410edb64455a20de8008f1, 0x10B, 0x9, 0x0, 0x12000, 0x1E00, 0x0, 0xC0E0, 0x1000, 0x13000, 0x1000000, 0x1000, 0x200, 0x6, 0x1, 0x6, 0x1, 0x6, 0x1, 0x0, 0x16000, 0x400, 0x148E7, 0x3, 0x8140, 0x100000, 0x2000, 0x100000, 0x1000, 0x0, 0x10, , .text, 0x11E02, 0x11E02, 0x11E02, 0x1000, 0x12000, 0x400, 0x0, 0x0, 0x0, 0x0, 0x60000020, , .data, 0x4BC, 0x4BC, 0x4BC, 0x13000, 0x200, 0x12400, 0x0, 0x0, 0x0, 0x0, 0xC0000040, , .rsrc, 0x838, 0x838, 0x838, 0x14000, 0xA00, 0x12600, 0x0, 0x0, 0x0, 0x0, 0x40000040, , .reloc, 0xC44, 0xC44, 0xC44, 0x15000, 0xE00, 0x13000, 0x0, 0x0, 0x0, 0x0, 0x42000040, , ,,,,,,,,,,,,0
07e086bbf2d8d4d2cd1defe4de974d43f02397fe0f55599dab40c774b2785f91, 0x10B, 0x9, 0x0, 0x6B600, 0x94400, 0x0, 0x4F606, 0x1000, 0x6D000, 0x400000, 0x1000, 0x200, 0x5, 0x0, 0x0, 0x0, 0x5, 0x0, 0x0, 0x105000, 0x400, 0x10D10A, 0x2, 0x8140, 0x100000, 0x1000, 0x100000, 0x1000, 0x0, 0x10, , .text, 0x6B4C2, 0x6B4C2, 0x6B4C2, 0x1000, 0x6B600, 0x400, 0x0, 0x0, 0x0, 0x0, 0x60000020, , .rdata, 0x158C2, 0x158C2, 0x158C2, 0x6D000, 0x15A00, 0x6BA00, 0x0, 0x0, 0x0, 0x0, 0x40000040, , .data, 0x5F7C, 0x5F7C, 0x5F7C, 0x83000, 0x2C00, 0x81400, 0x0, 0x0, 0x0, 0x0, 0xC0000040, , .rsrc, 0x73F4C, 0x73F4C, 0x73F4C, 0x89000, 0x74000, 0x84000, 0x0, 0x0, 0x0, 0x0, 0x40000040, , .reloc, 0x7D5E, 0x7D5E, 0x7D5E, 0xFD000, 0x7E00, 0xF8000, 0x0, 0x0, 0x0, 0x0, 0x42000040,0
07e21694c5103c47f410400a8ecf8754d7058c1fe51ec286d43f0e5a32f2e8c5, 0x10B, 0x9, 0x0, 0x6800, 0x74000, 0x4200, 0x3415, 0x1000, 0x8000, 0x400000, 0x1000, 0x200, 0x5, 0x0, 0x6, 0x0, 0x5, 0x0, 0x0, 0x228000, 0x400, 0x0, 0x2, 0x8400, 0x100000, 0x1000, 0x100000, 0x1000, 0x0, 0x10, , .text, 0x671C, 0x671C, 0x671C, 0x1000, 0x6800, 0x400, 0x0, 0x0, 0x0, 0x0, 0x60000020, , .rdata, 0x19D6, 0x19D6, 0x19D6, 0x8000, 0x1A00, 0x6C00, 0x0, 0x0, 0x0, 0x0, 0x40000040, , .data, 0x7139C, 0x7139C, 0x7139C, 0xA000, 0x200, 0x8600, 0x0, 0x0, 0x0, 0x0, 0xC0000040, , .ndata, 0x1A5000, 0x1A5000, 0x1A5000, 0x7C000, 0x0, 0x0, 0x0, 0x0, 0x0, 0x0, 0xC0000080, , .rsrc, 0x6F70, 0x6F70, 0x6F70, 0x221000, 0x7000, 0x8800, 0x0, 0x0, 0x0, 0x0, 0x40000040,0
07e26f43d9ed63673ce685e70968d91a2a129ab88b7370618c7523da4f08038c, 0x10B, 0x6, 0x0, 0x6200, 0x22A00, 0x800, 0x344A, 0x1000, 0x8000, 0x400000, 0x1000, 0x200, 0x4, 0x0, 0x6, 0x0, 0x4, 0x0, 0x0, 0x70000, 0x400, 0x0, 0x2, 0x8540, 0x100000, 0x1000, 0x100000, 0x1000, 0x0, 0x10, , .text, 0x61F1, 0x61F1, 0x61F1, 0x1000, 0x6200, 0x400, 0x0, 0x0, 0x0, 0x0, 0x60000020, , .rdata, 0x13A4, 0x13A4, 0x13A4, 0x8000, 0x1400, 0x6600, 0x0, 0x0, 0x0, 0x0, 0x40000040, , .data, 0x20338, 0x20338, 0x20338, 0xA000, 0x600, 0x7A00, 0x0, 0x0, 0x0, 0x0, 0xC0000040, , .ndata, 0x2B000, 0x2B000, 0x2B000, 0x2B000, 0x0, 0x0, 0x0, 0x0, 0x0, 0x0, 0xC0000080, , .rsrc, 0x199D0, 0x199D0, 0x199D0, 0x56000, 0x19A00, 0x8000, 0x0, 0x0, 0x0, 0x0, 0x40000040,0
07e8dc301931802a870d5c17cc99e288d60937145bab851f03cbee02a48f2917, 0x10B, 0x6, 0x0, 0x1C2000, 0x3A000, 0x0, 0x7358, 0x1000, 0x1C3000, 0x400000, 0x1000, 0x1000, 0x4, 0x0, 0x1, 0x2, 0x4, 0x0, 0x0, 0x1FD000, 0x1000, 0x1EC1A5, 0x2, 0x0, 0x100000, 0x1000, 0x100000, 0x1000, 0x0, 0x10, , .text, 0x1C1988, 0x1C1988, 0x1C1988, 0x1000, 0x1C2000, 0x1000, 0x0, 0x0, 0x0, 0x0, 0x60000020, , .data, 0x114E8, 0x114E8, 0x114E8, 0x1C3000, 0x1000, 0x1C3000, 0x0, 0x0, 0x0, 0x0, 0xC0000040, , .rsrc, 0x27A7E, 0x27A7E, 0x27A7E, 0x1D5000, 0x28000, 0x1C4000, 0x0, 0x0, 0x0, 0x0, 0x40000040, , ,,,,,,,,,,,,,,,,,,,,,,,,,0
07f7a0766ba1d250b89a00a3a87b87d0aab61dd13e98d9b80870f134f8d42ce0, 0x10B, 0xB, 0x0, 0xB3600, 0xAE800, 0x0, 0x777CC, 0x1000, 0xB5000, 0x400000, 0x1000, 0x200, 0x5, 0x1, 0x0, 0x0, 0x5, 0x1, 0x0, 0x16B000, 0x400, 0x1DD53949, 0x2, 0x8100, 0x100000, 0x1000, 0x100000, 0x1000, 0x0, 0x10, , .text, 0xB3485, 0xB3485, 0xB3485, 0x1000, 0xB3600, 0x400, 0x0, 0x0, 0x0, 0x0, 0x60000020, , .rdata, 0x36208, 0x36208, 0x36208, 0xB5000, 0x36400, 0xB3A00, 0x0, 0x0, 0x0, 0x0, 0x40000040, , .data, 0x8C38, 0x8C38, 0x8C38, 0xEC000, 0x2600, 0xE9E00, 0x0, 0x0, 0x0, 0x0, 0xC0000040, , .rsrc, 0x75D34, 0x75D34, 0x75D34, 0xF5000, 0x75E00, 0xEC400, 0x0, 0x0, 0x0, 0x0, 0x40000040, , ,,,,,,,,,,,,0
0827d1ca960f3be3730f6a4a0698a9c18d643a4654a422deb9cbaa5a823b4565, 0x10B, 0x9, 0x0, 0x1600, 0x1000, 0x0, 0x12DD, 0x1000, 0x3000, 0x1000000, 0x1000, 0x200, 0x6, 0x1, 0x6, 0x1, 0x6, 0x0, 0x0, 0x6000, 0x400, 0x8538, 0x2, 0x8140, 0x40000, 0x2000, 0x100000, 0x1000, 0x0, 0x10, , .text, 0x140D, 0x140D, 0x140D, 0x1000, 0x1600, 0x400, 0x0, 0x0, 0x0, 0x0, 0x60000020, , .data, 0x3B0, 0x3B0, 0x3B0, 0x3000, 0x400, 0x1A00, 0x0, 0x0, 0x0, 0x0, 0xC0000040, , .rsrc, 0x8E0, 0x8E0, 0x8E0, 0x4000, 0xA00, 0x1E00, 0x0, 0x0, 0x0, 0x0, 0x40000040, , .reloc, 0x15C, 0x15C, 0x15C, 0x5000, 0x200, 0x2800, 0x0, 0x0, 0x0, 0x0, 0x42000040, , ,,,,,,,,,,,,0
084ec5cc11d5bc9cb9ba9a88f7ab310b6ede5b91f79172a0405db6cd37d65261, 0x10B, 0x8, 0x0, 0xAF000, 0xF0000, 0x0, 0x85EA5, 0x1000, 0xB0000, 0x400000, 0x1000, 0x1000, 0x4, 0x0, 0x0, 0x0, 0x4, 0x0, 0x0, 0x1A5000, 0x1000, 0x1A7820, 0x2, 0x0, 0x100000, 0x1000, 0x100000, 0x1000, 0x0, 0x10, , .text, 0xA7885, 0xA7885, 0xA7885, 0x1000, 0xA8000, 0x1000, 0x0, 0x0, 0x0, 0x0, 0x60000020, , EPCL_TEX, 0x3BB3, 0x3BB3, 0x3BB3, 0xA9000, 0x4000, 0xA9000, 0x0, 0x0, 0x0, 0x0, 0x60000020, , EPCL_SET, 0x8C7, 0x8C7, 0x8C7, 0xAD000, 0x1000, 0xAD000, 0x0, 0x0, 0x0, 0x0, 0x60000020, , EPCL_TES, 0x782, 0x782, 0x782, 0xAE000, 0x1000, 0xAE000, 0x0, 0x0, 0x0, 0x0, 0x60000020, , EPCL_INI, 0x113, 0x113, 0x113, 0xAF000, 0x1000, 0xAF000, 0x0, 0x0, 0x0, 0x0, 0x60000020,0
08561aabaf626dcd077583d177b37f8cc0ae599628e1b0982f435c0fd2643e6a, 0x10B, 0x2, 0x19, 0xC9800, 0x1EC00, 0x0, 0xCA568, 0x1000, 0xCB000, 0x400000, 0x1000, 0x200, 0x1, 0x0, 0x6, 0x0, 0x4, 0x0, 0x0, 0xFB000, 0x400, 0x0, 0x2, 0x8000, 0x100000, 0x4000, 0x100000, 0x1000, 0x0, 0x10, , CODE, 0xC97D4, 0xC97D4, 0xC97D4, 0x1000, 0xC9800, 0x400, 0x0, 0x0, 0x0, 0x0, 0x60000020, , DATA, 0x1360, 0x1360, 0x1360, 0xCB000, 0x1400, 0xC9C00, 0x0, 0x0, 0x0, 0x0, 0xC0000040, , BSS, 0x14DC, 0x14DC, 0x14DC, 0xCD000, 0x0, 0xCB000, 0x0, 0x0, 0x0, 0x0, 0xC0000000, , .idata, 0x293A, 0x293A, 0x293A, 0xCF000, 0x2A00, 0xCB000, 0x0, 0x0, 0x0, 0x0, 0xC0000040, , .tls, 0x8, 0x8, 0x8, 0xD2000, 0x0, 0xCDA00, 0x0, 0x0, 0x0, 0x0, 0xC0000000,0
08565fe3a18e051f9f557c219a51844dbac4a6dee9076eb8ecfed2a3137a3fe8, 0x10B, 0x6, 0x0, 0x9000, 0x4AE00, 0x0, 0x2723, 0x1000, 0xA000, 0x1000000, 0x1000, 0x200, 0x5, 0x0, 0x5, 0x0, 0x4, 0x0, 0x0, 0x57000, 0x200, 0x5D1F8, 0x2, 0x0, 0x40000, 0x1000, 0x100000, 0x1000, 0x0, 0x10, , .text, 0x8E48, 0x8E48, 0x8E48, 0x1000, 0x9000, 0x1000, 0x0, 0x10820, 0x0, 0x85E, 0x60000020, , .data, 0x1C0C, 0x1C0C, 0x1C0C, 0xA000, 0x400, 0xA000, 0x0, 0x0, 0x0, 0x0, 0xC0000040, , .rsrc, 0x4B000, 0x4B000, 0x4B000, 0xC000, 0x4AA00, 0xA400, 0x0, 0x0, 0x0, 0x0, 0x40000040, , ,,,,,,,,,,,,,,,,,,,,,,,,,0
085bb4a37d1e5ea94d182ca6e3d0436cc42a02c6f1c20f0105725f319bef20f5, 0x10B, 0xC, 0x0, 0xA5000, 0xB000, 0xAE000, 0x153A90, 0xAF000, 0x154000, 0x400000, 0x1000, 0x200, 0x5, 0x1, 0x0, 0x0, 0x5, 0x1, 0x0, 0x15F000, 0x1000, 0xBDED8, 0x2, 0x8140, 0x100000, 0x1000, 0x100000, 0x1000, 0x0, 0x10, , UPX0, 0xAE000, 0xAE000, 0xAE000, 0x1000, 0x0, 0x400, 0x0, 0x0, 0x0, 0x0, 0xE0000080, , UPX1, 0xA5000, 0xA5000, 0xA5000, 0xAF000, 0xA4E00, 0x400, 0x0, 0x0, 0x0, 0x0, 0xE0000040, , .rsrc, 0xB000, 0xB000, 0xB000, 0x154000, 0xA200, 0xA5200, 0x0, 0x0, 0x0, 0x0, 0xC0000040, , ,,,,,,,,,,,,,,,,,,,,,,,,,0
0867aac0220c5183de96336cde41041b30f71f3bcd27e148e6c98dc50aac1032, 0x10B, 0x8, 0x0, 0xAF000, 0xF0000, 0x0, 0x85EA5, 0x1000, 0xB0000, 0x400000, 0x1000, 0x1000, 0x4, 0x0, 0x0, 0x0, 0x4, 0x0, 0x0, 0x1A5000, 0x1000, 0x1A7820, 0x2, 0x0, 0x100000, 0x1000, 0x100000, 0x1000, 0x0, 0x10, , .text, 0xA7885, 0xA7885, 0xA7885, 0x1000, 0xA8000, 0x1000, 0x0, 0x0, 0x0, 0x0, 0x60000020, , EPCL_TEX, 0x3BB3, 0x3BB3, 0x3BB3, 0xA9000, 0x4000, 0xA9000, 0x0, 0x0, 0x0, 0x0, 0x60000020, , EPCL_SET, 0x8C7, 0x8C7, 0x8C7, 0xAD000, 0x1000, 0xAD000, 0x0, 0x0, 0x0, 0x0, 0x60000020, , EPCL_TES, 0x782, 0x782, 0x782, 0xAE000, 0x1000, 0xAE000, 0x0, 0x0, 0x0, 0x0, 0x60000020, , EPCL_INI, 0x113, 0x113, 0x113, 0xAF000, 0x1000, 0xAF000, 0x0, 0x0, 0x0, 0x0, 0x60000020,0
086eadc5576d65897f53441ccc50e5e5bf23422179ae20514450340bfc87c5d0, 0x10B, 0xE, 0x0, 0x14A00, 0xFA600, 0x0, 0x4E56, 0x1000, 0x16000, 0x400000, 0x1000, 0x200, 0x5, 0x1, 0x0, 0x0, 0x5, 0x1, 0x0, 0x114000, 0x400, 0x114223, 0x2, 0x8140, 0x100000, 0x1000, 0x100000, 0x1000, 0x0, 0x10, , .text, 0x148A1, 0x148A1, 0x148A1, 0x1000, 0x14A00, 0x400, 0x0, 0x0, 0x0, 0x0, 0x60000020, , .rdata, 0x6C00, 0x6C00, 0x6C00, 0x16000, 0x6C00, 0x14E00, 0x0, 0x0, 0x0, 0x0, 0x40000040, , .data, 0x1298, 0x1298, 0x1298, 0x1D000, 0x800, 0x1BA00, 0x0, 0x0, 0x0, 0x0, 0xC0000040, , .gfids, 0xDC, 0xDC, 0xDC, 0x1F000, 0x200, 0x1C200, 0x0, 0x0, 0x0, 0x0, 0x40000040, , .rsrc, 0xF1C28, 0xF1C28, 0xF1C28, 0x20000, 0xF1E00, 0x1C400, 0x0, 0x0, 0x0, 0x0, 0x40000040,0
0874ab7b76dbcba94f905cba4ed1e71a57e18048b2cea6dc1caf73867e69ff6a, 0x10B, 0x5, 0xC, 0x1DC00, 0x6C000, 0x0, 0x15660, 0x1000, 0x1F000, 0x400000, 0x1000, 0x200, 0x4, 0x0, 0x0, 0x0, 0x4, 0x0, 0x0, 0x8C000, 0x400, 0x0, 0x2, 0x0, 0x100000, 0x1000, 0x100000, 0x1000, 0x0, 0x10, , .text, 0x1DA46, 0x1DA46, 0x1DA46, 0x1000, 0x1DC00, 0x400, 0x0, 0x0, 0x0, 0x0, 0x60000020, , .rdata, 0x2BFC, 0x2BFC, 0x2BFC, 0x1F000, 0x2C00, 0x1E000, 0x0, 0x0, 0x0, 0x0, 0x40000040, , .data, 0xA204, 0xA204, 0xA204, 0x22000, 0x4E00, 0x20C00, 0x0, 0x0, 0x0, 0x0, 0xC0000040, , .rsrc, 0x5EF48, 0x5EF48, 0x5EF48, 0x2D000, 0x5F000, 0x25A00, 0x0, 0x0, 0x0, 0x0, 0x40000040, , ,,,,,,,,,,,,0
087d20aa5b2a2eb3658c6e8bdd1d3941dcdcd6d426d404b9ecd49a76037df721, 0x10B, 0x9, 0x0, 0x4800, 0x2600, 0x0, 0x2D8F, 0x1000, 0x6000, 0x1000000, 0x1000, 0x200, 0x6, 0x1, 0x6, 0x1, 0x6, 0x1, 0x0, 0xA000, 0x400, 0xC278, 0x2, 0x8140, 0x40000, 0x2000, 0x100000, 0x1000, 0x0, 0x10, , .text, 0x47FE, 0x47FE, 0x47FE, 0x1000, 0x4800, 0x400, 0x0, 0x0, 0x0, 0x0, 0x60000020, , .data, 0x400, 0x400, 0x400, 0x6000, 0x200, 0x4C00, 0x0, 0x0, 0x0, 0x0, 0xC0000040, , .rsrc, 0x530, 0x530, 0x530, 0x7000, 0x600, 0x4E00, 0x0, 0x0, 0x0, 0x0, 0x40000040, , .reloc, 0x1A48, 0x1A48, 0x1A48, 0x8000, 0x1C00, 0x5400, 0x0, 0x0, 0x0, 0x0, 0x42000040, , ,,,,,,,,,,,,0
088012fef42ff6d8bc04c324a98e4fe362ebf01f997cfc304372cbaeb514063c, 0x10B, 0xE, 0x0, 0x41E00, 0x21C00, 0x0, 0x21697, 0x1000, 0x43000, 0x400000, 0x1000, 0x200, 0x5, 0x1, 0x0, 0x0, 0x5, 0x1, 0x0, 0x68000, 0x400, 0x6E146, 0x3, 0x8140, 0x100000, 0x1000, 0x100000, 0x1000, 0x0, 0x10, , .text, 0x41D81, 0x41D81, 0x41D81, 0x1000, 0x41E00, 0x400, 0x0, 0x0, 0x0, 0x0, 0x60000020, , .rdata, 0x15CC0, 0x15CC0, 0x15CC0, 0x43000, 0x15E00, 0x42200, 0x0, 0x0, 0x0, 0x0, 0x40000040, , .data, 0x7334, 0x7334, 0x7334, 0x59000, 0x1800, 0x58000, 0x0, 0x0, 0x0, 0x0, 0xC0000040, , .gfids, 0x780, 0x780, 0x780, 0x61000, 0x800, 0x59800, 0x0, 0x0, 0x0, 0x0, 0x40000040, , .tls, 0x9, 0x9, 0x9, 0x62000, 0x200, 0x5A000, 0x0, 0x0, 0x0, 0x0, 0xC0000040,0
0889b3dc45f2cc84af260aad3c92156dd18e6f1b3213cf74168ab863d1ff3430, 0x10B, 0x2, 0x19, 0xA200, 0x3A00, 0x0, 0xAA98, 0x1000, 0xC000, 0x400000, 0x1000, 0x200, 0x1, 0x0, 0x6, 0x0, 0x4, 0x0, 0x0, 0x15000, 0x400, 0x0, 0x2, 0x8140, 0x100000, 0x4000, 0x100000, 0x1000, 0x0, 0x10, , CODE, 0xA1D0, 0xA1D0, 0xA1D0, 0x1000, 0xA200, 0x400, 0x0, 0x0, 0x0, 0x0, 0x60000020, , DATA, 0x250, 0x250, 0x250, 0xC000, 0x400, 0xA600, 0x0, 0x0, 0x0, 0x0, 0xC0000040, , BSS, 0xE94, 0xE94, 0xE94, 0xD000, 0x0, 0xAA00, 0x0, 0x0, 0x0, 0x0, 0xC0000000, , .idata, 0x97C, 0x97C, 0x97C, 0xE000, 0xA00, 0xAA00, 0x0, 0x0, 0x0, 0x0, 0xC0000040, , .tls, 0x8, 0x8, 0x8, 0xF000, 0x0, 0xB400, 0x0, 0x0, 0x0, 0x0, 0xC0000000,0
08a0e2746c3716e0e819e14632dfef823aacef00d4db5574134fd3db68581608, 0x10B, 0x5, 0x0, 0x718000, 0x3DF000, 0x0, 0x204C, 0x1000, 0x719000, 0x400000, 0x1000, 0x200, 0x4, 0x0, 0x0, 0x0, 0x4, 0x0, 0x0, 0x1066000, 0x600, 0x0, 0x2, 0x0, 0x100000, 0x2000, 0x100000, 0x1000, 0x0, 0x10, , .text, 0x718000, 0x718000, 0x718000, 0x1000, 0x717800, 0x600, 0x0, 0x0, 0x0, 0x0, 0x60000020, , .data, 0x3DF000, 0x3DF000, 0x3DF000, 0x719000, 0x1F7C00, 0x717E00, 0x0, 0x0, 0x0, 0x0, 0xC0000040, , .tls, 0x1000, 0x1000, 0x1000, 0xAF8000, 0x200, 0x90FA00, 0x0, 0x0, 0x0, 0x0, 0xC0000040, , .rdata, 0x1000, 0x1000, 0x1000, 0xAF9000, 0x200, 0x90FC00, 0x0, 0x0, 0x0, 0x0, 0x50000040, , .idata, 0x4000, 0x4000, 0x4000, 0xAFA000, 0x3800, 0x90FE00, 0x0, 0x0, 0x0, 0x0, 0x40000040,0
08b20f61e4cc88220652dc23fe5af908935ee386557bc99ab462a66c078c081a, 0x10B, 0xC, 0x0, 0x11E00, 0xCCA00, 0x0, 0x4CDE, 0x1000, 0x13000, 0x400000, 0x1000, 0x200, 0x5, 0x1, 0x0, 0x0, 0x5, 0x1, 0x0, 0xE4000, 0x400, 0xE71DB, 0x2, 0x8140, 0x100000, 0x1000, 0x100000, 0x1000, 0x0, 0x10, , .text, 0x11D5D, 0x11D5D, 0x11D5D, 0x1000, 0x11E00, 0x400, 0x0, 0x0, 0x0, 0x0, 0x60000020, , .rdata, 0x575C, 0x575C, 0x575C, 0x13000, 0x5800, 0x12200, 0x0, 0x0, 0x0, 0x0, 0x40000040, , .data, 0x3160, 0x3160, 0x3160, 0x19000, 0x1400, 0x17A00, 0x0, 0x0, 0x0, 0x0, 0xC0000040, , .rsrc, 0xC4A38, 0xC4A38, 0xC4A38, 0x1D000, 0xC4C00, 0x18E00, 0x0, 0x0, 0x0, 0x0, 0x40000040, , .reloc, 0x1080, 0x1080, 0x1080, 0xE2000, 0x1200, 0xDDA00, 0x0, 0x0, 0x0, 0x0, 0x42000040,0
08b5a839d292b9372ab3be7bb70e02b548f187566dfe8a7c08ae1f5c41b21709, 0x10B, 0x2, 0x19, 0xA200, 0x38C00, 0x0, 0xAA98, 0x1000, 0xC000, 0x400000, 0x1000, 0x200, 0x1, 0x0, 0x6, 0x0, 0x4, 0x0, 0x0, 0x4A000, 0x400, 0x0, 0x2, 0x8140, 0x100000, 0x4000, 0x100000, 0x1000, 0x0, 0x10, , CODE, 0xA1D0, 0xA1D0, 0xA1D0, 0x1000, 0xA200, 0x400, 0x0, 0x0, 0x0, 0x0, 0x60000020, , DATA, 0x250, 0x250, 0x250, 0xC000, 0x400, 0xA600, 0x0, 0x0, 0x0, 0x0, 0xC0000040, , BSS, 0xE94, 0xE94, 0xE94, 0xD000, 0x0, 0xAA00, 0x0, 0x0, 0x0, 0x0, 0xC0000000, , .idata, 0x97C, 0x97C, 0x97C, 0xE000, 0xA00, 0xAA00, 0x0, 0x0, 0x0, 0x0, 0xC0000040, , .tls, 0x8, 0x8, 0x8, 0xF000, 0x0, 0xB400, 0x0, 0x0, 0x0, 0x0, 0xC0000000,0
08bace187a0225e10677de9aa6738a7118be3e5cad6dc45fb8d3366a61bb343c, 0x10B, 0x9, 0x0, 0x3CA00, 0x1B600, 0x0, 0x80C7, 0x1000, 0x3E000, 0x1000000, 0x1000, 0x200, 0x6, 0x1, 0x6, 0x1, 0x6, 0x1, 0x0, 0x5B000, 0x400, 0x64C7D, 0x2, 0x8140, 0x40000, 0x2000, 0x100000, 0x1000, 0x0, 0x10, , .text, 0x3C970, 0x3C970, 0x3C970, 0x1000, 0x3CA00, 0x400, 0x0, 0x0, 0x0, 0x0, 0x60000020, , .data, 0xCCC, 0xCCC, 0xCCC, 0x3E000, 0xA00, 0x3CE00, 0x0, 0x0, 0x0, 0x0, 0xC0000040, , .rsrc, 0x154C0, 0x154C0, 0x154C0, 0x3F000, 0x15600, 0x3D800, 0x0, 0x0, 0x0, 0x0, 0x40000040, , .reloc, 0x500A, 0x500A, 0x500A, 0x55000, 0x5200, 0x52E00, 0x0, 0x0, 0x0, 0x0, 0x42000040, , ,,,,,,,,,,,,0
08cca543b5d0ddaa2d27c889a6e46790e741a7baad93e0401708afe1a112f377, 0x10B, 0xC, 0x0, 0x4FB600, 0xD51400, 0x0, 0x3BBB4C, 0x1000, 0x4FD000, 0x400000, 0x1000, 0x200, 0x5, 0x1, 0x0, 0x0, 0x5, 0x1, 0x0, 0x1278000, 0x400, 0x57B405, 0x2, 0x8100, 0x200000, 0x1000, 0x200000, 0x1000, 0x0, 0x10, , .text, 0x124E000, 0x124E000, 0x124E000, 0x1000, 0x52BA00, 0x400, 0x32434550, 0x4F5E, 0x0, 0x0, 0xE0000020, , .rsrc, 0x29000, 0x29000, 0x29000, 0x124F000, 0x29000, 0x52BE00, 0x0, 0x0, 0x0, 0x0, 0xE0000020, , ,,,,,,,,,,,,,,,,,,,,,,,,,,,,,,,,,,,,,,0
08dc1557db51f5e35767572f691727e016b7fce592fd6d7510e67255bfdc9a44, 0x10B, 0xC, 0x0, 0x1A200, 0x4B74400, 0x0, 0xA5F9, 0x1000, 0x1C000, 0x400000, 0x1000, 0x200, 0x5, 0x1, 0x0, 0x0, 0x5, 0x1, 0x0, 0x4B94000, 0x400, 0x4B9B5F3, 0x2, 0x8140, 0x100000, 0x1000, 0x100000, 0x1000, 0x0, 0x10, , .text, 0x1A18A, 0x1A18A, 0x1A18A, 0x1000, 0x1A200, 0x400, 0x0, 0x0, 0x0, 0x0, 0x60000020, , .rdata, 0xA4BA, 0xA4BA, 0xA4BA, 0x1C000, 0xA600, 0x1A600, 0x0, 0x0, 0x0, 0x0, 0x40000040, , .data, 0x3648, 0x3648, 0x3648, 0x27000, 0x1600, 0x24C00, 0x0, 0x0, 0x0, 0x0, 0xC0000040, , .rsrc, 0x4B66D60, 0x4B66D60, 0x4B66D60, 0x2B000, 0x4B66E00, 0x26200, 0x0, 0x0, 0x0, 0x0, 0x40000040, , .reloc, 0x19F8, 0x19F8, 0x19F8, 0x4B92000, 0x1A00, 0x4B8D000, 0x0, 0x0, 0x0, 0x0, 0x42000040,0
08f826c940ef6365f7504c8fcdf7f2db0c7fd448feb7088c84456c63f19957d6, 0x10B, 0x2, 0x19, 0x9E00, 0x4600, 0x0, 0xA5F8, 0x1000, 0xB000, 0x400000, 0x1000, 0x200, 0x1, 0x0, 0x6, 0x0, 0x4, 0x0, 0x0, 0x14000, 0x400, 0x0, 0x2, 0x8000, 0x100000, 0x4000, 0x100000, 0x1000, 0x0, 0x10, , CODE, 0x9D30, 0x9D30, 0x9D30, 0x1000, 0x9E00, 0x400, 0x0, 0x0, 0x0, 0x0, 0x60000020, , DATA, 0x250, 0x250, 0x250, 0xB000, 0x400, 0xA200, 0x0, 0x0, 0x0, 0x0, 0xC0000040, , BSS, 0xE90, 0xE90, 0xE90, 0xC000, 0x0, 0xA600, 0x0, 0x0, 0x0, 0x0, 0xC0000000, , .idata, 0x950, 0x950, 0x950, 0xD000, 0xA00, 0xA600, 0x0, 0x0, 0x0, 0x0, 0xC0000040, , .tls, 0x8, 0x8, 0x8, 0xE000, 0x0, 0xB000, 0x0, 0x0, 0x0, 0x0, 0xC0000000,0
08fa5a61f35f8edc93a6962c972dafd5acfde8eddb7da44ae4ceb2d17b790a1c, 0x10B, 0x8, 0x0, 0xAF000, 0xF0000, 0x0, 0x85EA5, 0x1000, 0xB0000, 0x400000, 0x1000, 0x1000, 0x4, 0x0, 0x0, 0x0, 0x4, 0x0, 0x0, 0x1A5000, 0x1000, 0x1A7820, 0x2, 0x0, 0x100000, 0x1000, 0x100000, 0x1000, 0x0, 0x10, , .text, 0xA7885, 0xA7885, 0xA7885, 0x1000, 0xA8000, 0x1000, 0x0, 0x0, 0x0, 0x0, 0x60000020, , EPCL_TEX, 0x3BB3, 0x3BB3, 0x3BB3, 0xA9000, 0x4000, 0xA9000, 0x0, 0x0, 0x0, 0x0, 0x60000020, , EPCL_SET, 0x8C7, 0x8C7, 0x8C7, 0xAD000, 0x1000, 0xAD000, 0x0, 0x0, 0x0, 0x0, 0x60000020, , EPCL_TES, 0x782, 0x782, 0x782, 0xAE000, 0x1000, 0xAE000, 0x0, 0x0, 0x0, 0x0, 0x60000020, , EPCL_INI, 0x113, 0x113, 0x113, 0xAF000, 0x1000, 0xAF000, 0x0, 0x0, 0x0, 0x0, 0x60000020,0
08fdba237a917aaec81383076cb2d93756d429bedafa726aa66467772a672747, 0x10B, 0x8, 0x0, 0xAF000, 0xF0000, 0x0, 0x85EA5, 0x1000, 0xB0000, 0x400000, 0x1000, 0x1000, 0x4, 0x0, 0x0, 0x0, 0x4, 0x0, 0x0, 0x1A5000, 0x1000, 0x1A7820, 0x2, 0x0, 0x100000, 0x1000, 0x100000, 0x1000, 0x0, 0x10, , .text, 0xA7885, 0xA7885, 0xA7885, 0x1000, 0xA8000, 0x1000, 0x0, 0x0, 0x0, 0x0, 0x60000020, , EPCL_TEX, 0x3BB3, 0x3BB3, 0x3BB3, 0xA9000, 0x4000, 0xA9000, 0x0, 0x0, 0x0, 0x0, 0x60000020, , EPCL_SET, 0x8C7, 0x8C7, 0x8C7, 0xAD000, 0x1000, 0xAD000, 0x0, 0x0, 0x0, 0x0, 0x60000020, , EPCL_TES, 0x782, 0x782, 0x782, 0xAE000, 0x1000, 0xAE000, 0x0, 0x0, 0x0, 0x0, 0x60000020, , EPCL_INI, 0x113, 0x113, 0x113, 0xAF000, 0x1000, 0xAF000, 0x0, 0x0, 0x0, 0x0, 0x60000020,0
090c41ec2619bed3af412f907848e904ae37d3a5259fa15d235aebce2aa3f614, 0x10B, 0x2, 0x19, 0xFE00, 0xD000, 0x0, 0x113BC, 0x1000, 0x12000, 0x400000, 0x1000, 0x200, 0x5, 0x0, 0x6, 0x0, 0x5, 0x0, 0x0, 0x28000, 0x400, 0x78CAD92, 0x2, 0x8000, 0x100000, 0x4000, 0x100000, 0x1000, 0x0, 0x10, , .text, 0xF12C, 0xF12C, 0xF12C, 0x1000, 0xF200, 0x400, 0x0, 0x0, 0x0, 0x0, 0x60000020, , .itext, 0xB44, 0xB44, 0xB44, 0x11000, 0xC00, 0xF600, 0x0, 0x0, 0x0, 0x0, 0x60000020, , .data, 0xC88, 0xC88, 0xC88, 0x12000, 0xE00, 0x10200, 0x0, 0x0, 0x0, 0x0, 0xC0000040, , .bss, 0x56B4, 0x56B4, 0x56B4, 0x13000, 0x0, 0x11000, 0x0, 0x0, 0x0, 0x0, 0xC0000000, , .idata, 0xDD0, 0xDD0, 0xDD0, 0x19000, 0xE00, 0x11000, 0x0, 0x0, 0x0, 0x0, 0xC0000040,0
0931e18070c658e26df905f7e0f41823fc86a7ebf669f2c92d0a76c7ed3a54f2, 0x10B, 0xE, 0x0, 0x39000, 0x2C800, 0x0, 0x1A53A, 0x1000, 0x3A000, 0x400000, 0x1000, 0x200, 0x5, 0x1, 0x0, 0x0, 0x5, 0x1, 0x0, 0x6A000, 0x400, 0x6932D, 0x2, 0x8140, 0x100000, 0x1000, 0x100000, 0x1000, 0x0, 0x10, , .text, 0x38FCB, 0x38FCB, 0x38FCB, 0x1000, 0x39000, 0x400, 0x0, 0x0, 0x0, 0x0, 0x60000020, , .rdata, 0x16510, 0x16510, 0x16510, 0x3A000, 0x16600, 0x39400, 0x0, 0x0, 0x0, 0x0, 0x40000040, , .data, 0x2320, 0x2320, 0x2320, 0x51000, 0x1200, 0x4FA00, 0x0, 0x0, 0x0, 0x0, 0xC0000040, , .gfids, 0x1D0, 0x1D0, 0x1D0, 0x54000, 0x200, 0x50C00, 0x0, 0x0, 0x0, 0x0, 0x40000040, , .rsrc, 0x108C0, 0x108C0, 0x108C0, 0x55000, 0x10A00, 0x50E00, 0x0, 0x0, 0x0, 0x0, 0x40000040,0
09329337d3e8af69548d53df623662a271f567300d86f6eb613ec1771b4fc04e, 0x10B, 0xA, 0x0, 0x1A200, 0x8600, 0x0, 0x827A, 0x1000, 0x1C000, 0x400000, 0x1000, 0x200, 0x5, 0x1, 0x0, 0x0, 0x5, 0x1, 0x0, 0x29000, 0x400, 0x2A4ED, 0x2, 0x8100, 0x100000, 0x1000, 0x100000, 0x1000, 0x0, 0x10, , .text, 0x1A112, 0x1A112, 0x1A112, 0x1000, 0x1A200, 0x400, 0x0, 0x0, 0x0, 0x0, 0x60000020, , .rdata, 0x5E44, 0x5E44, 0x5E44, 0x1C000, 0x6000, 0x1A600, 0x0, 0x0, 0x0, 0x0, 0x40000040, , .data, 0x58AC, 0x58AC, 0x58AC, 0x22000, 0x1C00, 0x20600, 0x0, 0x0, 0x0, 0x0, 0xC0000040, , .rsrc, 0x898, 0x898, 0x898, 0x28000, 0xA00, 0x22200, 0x0, 0x0, 0x0, 0x0, 0x40000040, , ,,,,,,,,,,,,0
0946db4e380fc47c1d729b05212eb04861098130e799c69df6d8e72941a0a820, 0x10B, 0x30, 0x0, 0xD800, 0xA00, 0x0, 0xF5FE, 0x2000, 0x10000, 0x400000, 0x2000, 0x200, 0x4, 0x0, 0x0, 0x0, 0x6, 0x0, 0x0, 0x14000, 0x200, 0x0, 0x2, 0x8560, 0x100000, 0x1000, 0x100000, 0x1000, 0x0, 0x10, , .text, 0xD604, 0xD604, 0xD604, 0x2000, 0xD800, 0x200, 0x0, 0x0, 0x0, 0x0, 0x60000020, , .rsrc, 0x650, 0x650, 0x650, 0x10000, 0x800, 0xDA00, 0x0, 0x0, 0x0, 0x0, 0x40000040, , .reloc, 0xC, 0xC, 0xC, 0x12000, 0x200, 0xE200, 0x0, 0x0, 0x0, 0x0, 0x42000040, , ,,,,,,,,,,,,,,,,,,,,,,,,,0
09725f3dc2227a183875c0eea8864d0f849a85a21e9f5117e61e91385f258461, 0x10B, 0xE, 0x0, 0x14A00, 0xFA600, 0x0, 0x4E56, 0x1000, 0x16000, 0x400000, 0x1000, 0x200, 0x5, 0x1, 0x0, 0x0, 0x5, 0x1, 0x0, 0x114000, 0x400, 0x114223, 0x2, 0x8140, 0x100000, 0x1000, 0x100000, 0x1000, 0x0, 0x10, , .text, 0x148A1, 0x148A1, 0x148A1, 0x1000, 0x14A00, 0x400, 0x0, 0x0, 0x0, 0x0, 0x60000020, , .rdata, 0x6C00, 0x6C00, 0x6C00, 0x16000, 0x6C00, 0x14E00, 0x0, 0x0, 0x0, 0x0, 0x40000040, , .data, 0x1298, 0x1298, 0x1298, 0x1D000, 0x800, 0x1BA00, 0x0, 0x0, 0x0, 0x0, 0xC0000040, , .gfids, 0xDC, 0xDC, 0xDC, 0x1F000, 0x200, 0x1C200, 0x0, 0x0, 0x0, 0x0, 0x40000040, , .rsrc, 0xF1C28, 0xF1C28, 0xF1C28, 0x20000, 0xF1E00, 0x1C400, 0x0, 0x0, 0x0, 0x0, 0x40000040,0
097dd4aa202331164e61be072318f9a26c97e809a7adb4db963cb76d709e887d, 0x10B, 0x9, 0x0, 0x12F9600, 0x5B2000, 0x0, 0x241A000, 0x1000, 0x12FB000, 0x400000, 0x1000, 0x200, 0x5, 0x0, 0x0, 0x0, 0x5, 0x0, 0x0, 0x241B000, 0x400, 0xA0CD9F, 0x2, 0x8000, 0x100000, 0x1000, 0x989680, 0x989680, 0x0, 0x10, , Name:, 0x1C82000, 0x1C82000, 0x1C82000, 0x1000, 0x77EC00, 0x1000, 0x0, 0x0, 0x0, 0x0, 0xE0000040, , .rsrc, 0x2E36D0, 0x2E36D0, 0x2E36D0, 0x1C83000, 0x91C00, 0x77FC00, 0x0, 0x0, 0x0, 0x0, 0xC0000040, , .idata, 0x1000, 0x1000, 0x1000, 0x1F67000, 0x200, 0x811800, 0x0, 0x0, 0x0, 0x0, 0xC0000040, , Name:, 0x2BC000, 0x2BC000, 0x2BC000, 0x1F68000, 0x200, 0x811A00, 0x0, 0x0, 0x0, 0x0, 0xE0000040, , rpqwujtv, 0x1F6000, 0x1F6000, 0x1F6000, 0x2224000, 0x1F5E00, 0x811C00, 0x0, 0x0, 0x0, 0x0, 0xE0000040,0
0987144f4c8128c5e35601a43ec477a55135856f19d9b51d3c3765a3e66a1967, 0x10B, 0x6, 0x0, 0x5E00, 0x1D000, 0x400, 0x30D9, 0x1000, 0x7000, 0x400000, 0x1000, 0x200, 0x4, 0x0, 0x6, 0x0, 0x4, 0x0, 0x0, 0x43000, 0x400, 0x28E9B7, 0x2, 0x8540, 0x100000, 0x1000, 0x100000, 0x1000, 0x0, 0x10, , .text, 0x5C5B, 0x5C5B, 0x5C5B, 0x1000, 0x5E00, 0x400, 0x0, 0x0, 0x0, 0x0, 0x60000020, , .rdata, 0x1212, 0x1212, 0x1212, 0x7000, 0x1400, 0x6200, 0x0, 0x0, 0x0, 0x0, 0x40000040, , .data, 0x1A818, 0x1A818, 0x1A818, 0x9000, 0x400, 0x7600, 0x0, 0x0, 0x0, 0x0, 0xC0000040, , .ndata, 0x15000, 0x15000, 0x15000, 0x24000, 0x0, 0x0, 0x0, 0x0, 0x0, 0x0, 0xC0000080, , .rsrc, 0x9AD0, 0x9AD0, 0x9AD0, 0x39000, 0x9C00, 0x7A00, 0x0, 0x0, 0x0, 0x0, 0x40000040,0
098d4bb91eb292ff0f382e6789f708446167260566a312b6136a46ff0d7141e8, 0x10B, 0xE, 0x0, 0x111A00, 0x98A00, 0x0, 0xD0616, 0x1000, 0x113000, 0x400000, 0x1000, 0x200, 0x5, 0x1, 0x0, 0x0, 0x5, 0x1, 0x0, 0x1B2000, 0x400, 0x3BB17E3, 0x2, 0x8140, 0x100000, 0x1000, 0x100000, 0x1000, 0x0, 0x10, , .text, 0x111818, 0x111818, 0x111818, 0x1000, 0x111A00, 0x400, 0x0, 0x0, 0x0, 0x0, 0x60000020, , .rdata, 0x4D308, 0x4D308, 0x4D308, 0x113000, 0x4D400, 0x111E00, 0x0, 0x0, 0x0, 0x0, 0x40000040, , .data, 0x70CC, 0x70CC, 0x70CC, 0x161000, 0x5200, 0x15F200, 0x0, 0x0, 0x0, 0x0, 0xC0000040, , .gfids, 0x3E8, 0x3E8, 0x3E8, 0x169000, 0x400, 0x164400, 0x0, 0x0, 0x0, 0x0, 0x40000040, , .tls, 0x9, 0x9, 0x9, 0x16A000, 0x200, 0x164800, 0x0, 0x0, 0x0, 0x0, 0xC0000040,0
09af7ff040994473cb1069b19fcf7e963b7909f9c6772b4519f713f3acc30887, 0x10B, 0xE, 0xA, 0x2DA00, 0xB000, 0x0, 0x14DA0, 0x1000, 0x2F000, 0x400000, 0x1000, 0x200, 0xA, 0x0, 0xA, 0x0, 0x5, 0x1, 0x0, 0x3C000, 0x400, 0x4467C, 0x2, 0xC140, 0x40000, 0x2000, 0x100000, 0x1000, 0x0, 0x10, , .text, 0x2D910, 0x2D910, 0x2D910, 0x1000, 0x2DA00, 0x400, 0x0, 0x0, 0x0, 0x0, 0x60000020, , .data, 0x1890, 0x1890, 0x1890, 0x2F000, 0xC00, 0x2DE00, 0x0, 0x0, 0x0, 0x0, 0xC0000040, , .idata, 0xD24, 0xD24, 0xD24, 0x31000, 0xE00, 0x2EA00, 0x0, 0x0, 0x0, 0x0, 0x40000040, , .rsrc, 0x7518, 0x7518, 0x7518, 0x32000, 0x7600, 0x2F800, 0x0, 0x0, 0x0, 0x0, 0x40000040, , .reloc, 0x1F88, 0x1F88, 0x1F88, 0x3A000, 0x2000, 0x36E00, 0x0, 0x0, 0x0, 0x0, 0x42000040,0
09c6587ba8ce09715fc81a8162f6410ccfff90db97b95d4bc93594f2bf144dc9, 0x10B, 0x2, 0x19, 0x15000, 0x2EE00, 0x0, 0x16478, 0x1000, 0x17000, 0x400000, 0x1000, 0x200, 0x5, 0x0, 0x6, 0x0, 0x5, 0x0, 0x0, 0x4E000, 0x400, 0x0, 0x2, 0x8000, 0x100000, 0x4000, 0x100000, 0x1000, 0x0, 0x10, , .text, 0x143F8, 0x143F8, 0x143F8, 0x1000, 0x14400, 0x400, 0x0, 0x0, 0x0, 0x0, 0x60000020, , .itext, 0xBE8, 0xBE8, 0xBE8, 0x16000, 0xC00, 0x14800, 0x0, 0x0, 0x0, 0x0, 0x60000020, , .data, 0xD9C, 0xD9C, 0xD9C, 0x17000, 0xE00, 0x15400, 0x0, 0x0, 0x0, 0x0, 0xC0000040, , .bss, 0x574C, 0x574C, 0x574C, 0x18000, 0x0, 0x16200, 0x0, 0x0, 0x0, 0x0, 0xC0000000, , .idata, 0xF9E, 0xF9E, 0xF9E, 0x1E000, 0x1000, 0x16200, 0x0, 0x0, 0x0, 0x0, 0xC0000040,0
09e03a17ac36266378d80bf539d3d79439a315898715b3d7d87c1d4e79b0b308, 0x10B, 0x6, 0x0, 0xE000, 0x1000, 0x1B000, 0x29C00, 0x1C000, 0x2A000, 0x400000, 0x1000, 0x200, 0x4, 0x0, 0x0, 0x0, 0x4, 0x0, 0x0, 0x2B000, 0x1000, 0x0, 0x2, 0x0, 0x100000, 0x1000, 0x100000, 0x1000, 0x0, 0x10, , UPX0, 0x1B000, 0x1B000, 0x1B000, 0x1000, 0x0, 0x400, 0x0, 0x0, 0x0, 0x0, 0xE0000080, , UPX1, 0xE000, 0xE000, 0xE000, 0x1C000, 0xDE00, 0x400, 0x0, 0x0, 0x0, 0x0, 0xE0000040, , .rsrc, 0x1000, 0x1000, 0x1000, 0x2A000, 0xC00, 0xE200, 0x0, 0x0, 0x0, 0x0, 0xC0000040, , ,,,,,,,,,,,,,,,,,,,,,,,,,0
09e597f34f220a999104dbf485c0facf2fe0970f51898196932e3dde91d68daa, 0x10B, 0x2, 0x19, 0x99800, 0x1D600, 0x0, 0x9A490, 0x1000, 0x9B000, 0x400000, 0x1000, 0x200, 0x1, 0x0, 0x6, 0x0, 0x4, 0x0, 0x0, 0xBE000, 0x400, 0x0, 0x2, 0x8140, 0x100000, 0x4000, 0x100000, 0x1000, 0x0, 0x10, , CODE, 0x996D4, 0x996D4, 0x996D4, 0x1000, 0x99800, 0x400, 0x0, 0x0, 0x0, 0x0, 0x60000020, , DATA, 0x1120, 0x1120, 0x1120, 0x9B000, 0x1200, 0x99C00, 0x0, 0x0, 0x0, 0x0, 0xC0000040, , BSS, 0x1590, 0x1590, 0x1590, 0x9D000, 0x0, 0x9AE00, 0x0, 0x0, 0x0, 0x0, 0xC0000000, , .idata, 0x261A, 0x261A, 0x261A, 0x9F000, 0x2800, 0x9AE00, 0x0, 0x0, 0x0, 0x0, 0xC0000040, , .tls, 0x8, 0x8, 0x8, 0xA2000, 0x0, 0x9D600, 0x0, 0x0, 0x0, 0x0, 0xC0000000,0
09ed9aa12ffa44d789a1561f0cb8c09ec1405dfc5053c7e22f5a29391175deca, 0x10B, 0x7, 0xA, 0x8C00, 0x1C00, 0x0, 0x6B23, 0x2000, 0xC000, 0x1000000, 0x2000, 0x200, 0x5, 0x2, 0x5, 0x2, 0x4, 0x0, 0x0, 0x20000, 0x400, 0xB5471, 0x2, 0x8000, 0x40000, 0x2000, 0x100000, 0x1000, 0x0, 0x10, , .text, 0x8B08, 0x8B08, 0x8B08, 0x2000, 0x8C00, 0x400, 0x0, 0x0, 0x0, 0x0, 0x60000020, , .data, 0x11438, 0x11438, 0x11438, 0xC000, 0x200, 0x9000, 0x0, 0x0, 0x0, 0x0, 0xC0000040, , .rsrc, 0x19EC, 0x19EC, 0x19EC, 0x1E000, 0x9B400, 0x9200, 0x0, 0x0, 0x0, 0x0, 0x40000040, , ,,,,,,,,,,,,,,,,,,,,,,,,,0
09ef56ab5f717202c1f335177cdffffb19dabee4fdd770b95ea71404d74058d1, 0x10B, 0x9, 0x0, 0x26600, 0x26600, 0x0, 0x13EB0, 0x1000, 0x28000, 0x400000, 0x1000, 0x200, 0x5, 0x0, 0x0, 0x0, 0x5, 0x0, 0x0, 0x51000, 0x400, 0x0, 0x2, 0x8140, 0x50000, 0x1000, 0x100000, 0x1000, 0x0, 0x10, , .text, 0x2656D, 0x2656D, 0x2656D, 0x1000, 0x26600, 0x400, 0x0, 0x0, 0x0, 0x0, 0x60000020, , .rdata, 0x8078, 0x8078, 0x8078, 0x28000, 0x8200, 0x26A00, 0x0, 0x0, 0x0, 0x0, 0x40000040, , .data, 0x12464, 0x12464, 0x12464, 0x31000, 0x1E00, 0x2EC00, 0x0, 0x0, 0x0, 0x0, 0xC0000040, , .rsrc, 0x9400, 0x9400, 0x9400, 0x44000, 0x9400, 0x30A00, 0x0, 0x0, 0x0, 0x0, 0x40000040, , .reloc, 0x29B4, 0x29B4, 0x29B4, 0x4E000, 0x2A00, 0x39E00, 0x0, 0x0, 0x0, 0x0, 0x42000040,0
09f5b23e0fbdf8018e56c5cee13890fc74880be809409bbee24b200492f78fba, 0x10B, 0x6, 0x0, 0x6200, 0x22A00, 0x800, 0x344A, 0x1000, 0x8000, 0x400000, 0x1000, 0x200, 0x4, 0x0, 0x6, 0x0, 0x4, 0x0, 0x0, 0x79000, 0x400, 0x1934D0, 0x2, 0x8540, 0x100000, 0x1000, 0x100000, 0x1000, 0x0, 0x10, , .text, 0x61F1, 0x61F1, 0x61F1, 0x1000, 0x6200, 0x400, 0x0, 0x0, 0x0, 0x0, 0x60000020, , .rdata, 0x13A4, 0x13A4, 0x13A4, 0x8000, 0x1400, 0x6600, 0x0, 0x0, 0x0, 0x0, 0x40000040, , .data, 0x20338, 0x20338, 0x20338, 0xA000, 0x600, 0x7A00, 0x0, 0x0, 0x0, 0x0, 0xC0000040, , .ndata, 0x31000, 0x31000, 0x31000, 0x2B000, 0x0, 0x0, 0x0, 0x0, 0x0, 0x0, 0xC0000080, , .rsrc, 0x1CB58, 0x1CB58, 0x1CB58, 0x5C000, 0x1CC00, 0x8000, 0x0, 0x0, 0x0, 0x0, 0x40000040,0
09fb694506441a26107311034addd7c2c91b323bff6393a7179e6b0b33e3297a, 0x10B, 0x9, 0x0, 0x3000, 0x15C00, 0x0, 0x2855, 0x1000, 0x4000, 0x1000000, 0x1000, 0x200, 0x6, 0x1, 0x6, 0x1, 0x6, 0x1, 0x0, 0x1B000, 0x400, 0x18FB2, 0x2, 0x8140, 0x40000, 0x2000, 0x100000, 0x1000, 0x0, 0x10, , .text, 0x2EC4, 0x2EC4, 0x2EC4, 0x1000, 0x3000, 0x400, 0x0, 0x0, 0x0, 0x0, 0x60000020, , .data, 0x60C, 0x60C, 0x60C, 0x4000, 0x400, 0x3400, 0x0, 0x0, 0x0, 0x0, 0xC0000040, , .rsrc, 0x14C48, 0x14C48, 0x14C48, 0x5000, 0x14E00, 0x3800, 0x0, 0x0, 0x0, 0x0, 0x40000040, , .reloc, 0x460, 0x460, 0x460, 0x1A000, 0x600, 0x18600, 0x0, 0x0, 0x0, 0x0, 0x42000040, , ,,,,,,,,,,,,0
09fc9bcd18fafc83fc5a42cd32046c7b9cdaffe607b5f772cc16e21de3d6636e, 0x10B, 0x6, 0x0, 0x4FD000, 0x45000, 0x0, 0x145C, 0x1000, 0x4FE000, 0x400000, 0x1000, 0x1000, 0x4, 0x0, 0xD, 0x0, 0x4, 0x0, 0x0, 0x543000, 0x1000, 0x506A0B, 0x2, 0x0, 0x100000, 0x1000, 0x100000, 0x1000, 0x0, 0x10, , .text, 0x4FC6EC, 0x4FC6EC, 0x4FC6EC, 0x1000, 0x4FD000, 0x1000, 0x0, 0x0, 0x0, 0x0, 0x60000020, , .data, 0x43864, 0x43864, 0x43864, 0x4FE000, 0x0, 0x0, 0x0, 0x0, 0x0, 0x0, 0xC0000040, , .rsrc, 0x7E4, 0x7E4, 0x7E4, 0x542000, 0x1000, 0x4FE000, 0x0, 0x0, 0x0, 0x0, 0x40000040, , ,,,,,,,,,,,,,,,,,,,,,,,,,0
0a03518572dc52acf100ce877e32b26f14efca3582779770594232807c0d76b7, 0x10B, 0x8, 0x0, 0xAF000, 0xF0000, 0x0, 0x85EA5, 0x1000, 0xB0000, 0x400000, 0x1000, 0x1000, 0x4, 0x0, 0x0, 0x0, 0x4, 0x0, 0x0, 0x1A5000, 0x1000, 0x1A7820, 0x2, 0x0, 0x100000, 0x1000, 0x100000, 0x1000, 0x0, 0x10, , .text, 0xA7885, 0xA7885, 0xA7885, 0x1000, 0xA8000, 0x1000, 0x0, 0x0, 0x0, 0x0, 0x60000020, , EPCL_TEX, 0x3BB3, 0x3BB3, 0x3BB3, 0xA9000, 0x4000, 0xA9000, 0x0, 0x0, 0x0, 0x0, 0x60000020, , EPCL_SET, 0x8C7, 0x8C7, 0x8C7, 0xAD000, 0x1000, 0xAD000, 0x0, 0x0, 0x0, 0x0, 0x60000020, , EPCL_TES, 0x782, 0x782, 0x782, 0xAE000, 0x1000, 0xAE000, 0x0, 0x0, 0x0, 0x0, 0x60000020, , EPCL_INI, 0x113, 0x113, 0x113, 0xAF000, 0x1000, 0xAF000, 0x0, 0x0, 0x0, 0x0, 0x60000020,0
0a0ee0aa381260d43987e98dd1a6f4bab11164e876f21db6ddb1db7c319c5cf8, 0x10B, 0xE, 0x0, 0x48C00, 0x49A00, 0x0, 0x2A7FD, 0x1000, 0x4A000, 0x400000, 0x1000, 0x200, 0x5, 0x1, 0x0, 0x0, 0x5, 0x1, 0x0, 0x98000, 0x400, 0x20912A, 0x2, 0x8140, 0x100000, 0x1000, 0x100000, 0x1000, 0x0, 0x10, , .text, 0x48A58, 0x48A58, 0x48A58, 0x1000, 0x48C00, 0x400, 0x0, 0x0, 0x0, 0x0, 0x60000020, , .rdata, 0x1E44C, 0x1E44C, 0x1E44C, 0x4A000, 0x1E600, 0x49000, 0x0, 0x0, 0x0, 0x0, 0x40000040, , .data, 0x1660, 0x1660, 0x1660, 0x69000, 0xA00, 0x67600, 0x0, 0x0, 0x0, 0x0, 0xC0000040, , .wixburn, 0x38, 0x38, 0x38, 0x6B000, 0x200, 0x68000, 0x0, 0x0, 0x0, 0x0, 0x40000040, , .tls, 0x9, 0x9, 0x9, 0x6C000, 0x200, 0x68200, 0x0, 0x0, 0x0, 0x0, 0xC0000040,0
0a2861089ae97a6224781c1fe36158b08c167d618a105dec3dc87e609afa5578, 0x10B, 0xE, 0xA, 0x2DA00, 0x1C3A00, 0x0, 0x14DA0, 0x1000, 0x2F000, 0x400000, 0x1000, 0x200, 0xA, 0x0, 0xA, 0x0, 0x5, 0x1, 0x0, 0x1F4000, 0x400, 0x1F8BF4, 0x2, 0xC140, 0x40000, 0x2000, 0x100000, 0x1000, 0x0, 0x10, , .text, 0x2D910, 0x2D910, 0x2D910, 0x1000, 0x2DA00, 0x400, 0x0, 0x0, 0x0, 0x0, 0x60000020, , .data, 0x1890, 0x1890, 0x1890, 0x2F000, 0xC00, 0x2DE00, 0x0, 0x0, 0x0, 0x0, 0xC0000040, , .idata, 0xD24, 0xD24, 0xD24, 0x31000, 0xE00, 0x2EA00, 0x0, 0x0, 0x0, 0x0, 0x40000040, , .rsrc, 0x1BFFC0, 0x1BFFC0, 0x1BFFC0, 0x32000, 0x1C0000, 0x2F800, 0x0, 0x0, 0x0, 0x0, 0x40000040, , .reloc, 0x1F88, 0x1F88, 0x1F88, 0x1F2000, 0x2000, 0x1EF800, 0x0, 0x0, 0x0, 0x0, 0x42000040,0
0012ddb1f3fddce51bcdc265585b261175deca28f7ad5e6188cd7fd36d6c3ef9, 0x10B, 0x7, 0xA, 0x30000, 0x20000, 0x0, 0x17082, 0x1000, 0x31000, 0x400000, 0x1000, 0x1000, 0x4, 0x0, 0x0, 0x0, 0x4, 0x0, 0x0, 0x51000, 0x1000, 0x0, 0x2, 0x0, 0x100000, 0x1000, 0x100000, 0x1000, 0x0, 0x10, , .text, 0x2F96E, 0x2F96E, 0x2F96E, 0x1000, 0x30000, 0x1000, 0x0, 0x0, 0x0, 0x0, 0x60000020, , .rdata, 0xAB62, 0xAB62, 0xAB62, 0x31000, 0xB000, 0x31000, 0x0, 0x0, 0x0, 0x0, 0x40000040, , .data, 0xBD74, 0xBD74, 0xBD74, 0x3C000, 0x2000, 0x3C000, 0x0, 0x0, 0x0, 0x0, 0xC0000040, , .rsrc, 0x8358, 0x8358, 0x8358, 0x48000, 0x9000, 0x3E000, 0x0, 0x0, 0x0, 0x0, 0x40000040, , ,,,,,,,,,,,,
003b19a512c74b263e3d2ec257c98650e62fb721354c99aeb5bd91174aaee6a4, 0x10B, 0x6, 0x0, 0x5E00, 0x28400, 0x400, 0x3150, 0x1000, 0x7000, 0x400000, 0x1000, 0x200, 0x4, 0x0, 0x6, 0x0, 0x4, 0x0, 0x0, 0x3D000, 0x400, 0x0, 0x2, 0x8000, 0x100000, 0x1000, 0x100000, 0x1000, 0x0, 0x10, , .text, 0x5DC4, 0x5DC4, 0x5DC4, 0x1000, 0x5E00, 0x400, 0x0, 0x0, 0x0, 0x0, 0x60000020, , .rdata, 0x129C, 0x129C, 0x129C, 0x7000, 0x1400, 0x6200, 0x0, 0x0, 0x0, 0x0, 0x40000040, , .data, 0x25C58, 0x25C58, 0x25C58, 0x9000, 0x400, 0x7600, 0x0, 0x0, 0x0, 0x0, 0xC0000040, , .ndata, 0x9000, 0x9000, 0x9000, 0x2F000, 0x0, 0x0, 0x0, 0x0, 0x0, 0x0, 0xC0000080, , .rsrc, 0x4B20, 0x4B20, 0x4B20, 0x38000, 0x4C00, 0x7A00, 0x0, 0x0, 0x0, 0x0, 0x40000040,1
00c73f132156d46db3690edce720f955da3f3c354d90173633f22303bb0fbc61, 0x10B, 0x6, 0x0, 0x5E00, 0x28000, 0x400, 0x3150, 0x1000, 0x7000, 0x400000, 0x1000, 0x200, 0x4, 0x0, 0x6, 0x0, 0x4, 0x0, 0x0, 0x38000, 0x400, 0x0, 0x2, 0x8000, 0x100000, 0x1000, 0x100000, 0x1000, 0x0, 0x10, , .text, 0x5DC4, 0x5DC4, 0x5DC4, 0x1000, 0x5E00, 0x400, 0x0, 0x0, 0x0, 0x0, 0x60000020, , .rdata, 0x129C, 0x129C, 0x129C, 0x7000, 0x1400, 0x6200, 0x0, 0x0, 0x0, 0x0, 0x40000040, , .data, 0x25C58, 0x25C58, 0x25C58, 0x9000, 0x400, 0x7600, 0x0, 0x0, 0x0, 0x0, 0xC0000040, , .ndata, 0x8000, 0x8000, 0x8000, 0x2F000, 0x0, 0x0, 0x0, 0x0, 0x0, 0x0, 0xC0000080, , .rsrc, 0x334, 0x334, 0x334, 0x37000, 0x400, 0x7A00, 0x0, 0x0, 0x0, 0x0, 0x40000040,1
00c93e7d748f4695fe4e49d5bdbe7392479875cd687639e271d2214944058f2e, 0x10B, 0x6, 0x0, 0x4000, 0xE000, 0x0, 0x13F4, 0x1000, 0x5000, 0x400000, 0x1000, 0x200, 0x4, 0x0, 0x1, 0x0, 0x4, 0x0, 0x0, 0x14000, 0x200, 0x13D5A, 0x2, 0x0, 0x100000, 0x1000, 0x100000, 0x1000, 0x0, 0x10, , .text, 0x12000, 0x12000, 0x12000, 0x1000, 0xCC00, 0x200, 0x32434550, 0x4F10, 0x0, 0x0, 0xE0000060, , .rsrc, 0x1000, 0x1000, 0x1000, 0x13000, 0xE00, 0xCE00, 0x0, 0x0, 0x0, 0x0, 0xE0000020, , ,,,,,,,,,,,,,,,,,,,,,,,,,,,,,,,,,,,,,,1
00ed9204747ab980535cedd6337476911ca5bddc332cbf8305816e6ad729bb94, 0x10B, 0x2, 0x19, 0x9200, 0x3E00, 0x0, 0x9AA0, 0x1000, 0xB000, 0x400000, 0x1000, 0x200, 0x1, 0x0, 0x6, 0x0, 0x4, 0x0, 0x0, 0x14000, 0x400, 0x0, 0x2, 0x8000, 0x100000, 0x4000, 0x100000, 0x1000, 0x0, 0x10, , CODE, 0x91C0, 0x91C0, 0x91C0, 0x1000, 0x9200, 0x400, 0x0, 0x0, 0x0, 0x0, 0x60000020, , DATA, 0x24C, 0x24C, 0x24C, 0xB000, 0x400, 0x9600, 0x0, 0x0, 0x0, 0x0, 0xC0000040, , BSS, 0xE48, 0xE48, 0xE48, 0xC000, 0x0, 0x9A00, 0x0, 0x0, 0x0, 0x0, 0xC0000000, , .idata, 0x94C, 0x94C, 0x94C, 0xD000, 0xA00, 0x9A00, 0x0, 0x0, 0x0, 0x0, 0xC0000040, , .tls, 0x8, 0x8, 0x8, 0xE000, 0x0, 0xA400, 0x0, 0x0, 0x0, 0x0, 0xC0000000,1
011c559a210ecde07b6968070b438d64c1768c045b8c908a05ba8012cb7595fe, 0x10B, 0x6, 0x0, 0xB000, 0x12000, 0x0, 0xAFAF, 0x1000, 0xC000, 0x400000, 0x1000, 0x1000, 0x4, 0x0, 0x0, 0x0, 0x4, 0x0, 0x0, 0x1E000, 0x1000, 0x0, 0x2, 0x0, 0x100000, 0x1000, 0x100000, 0x1000, 0x0, 0x10, , .text, 0xA1E5, 0xA1E5, 0xA1E5, 0x1000, 0xB000, 0x1000, 0x74786574, 0x0, 0x0, 0x0, 0x60000020, , .rdata, 0xFDA, 0xFDA, 0xFDA, 0xC000, 0x1000, 0xC000, 0x65646F63, 0x0, 0x0, 0x0, 0x40000040, , .data, 0x2F80, 0x2F80, 0x2F80, 0xD000, 0x3000, 0xD000, 0x0, 0x0, 0x0, 0x0, 0xC0000040, , .rsrc, 0xDC38, 0xDC38, 0xDC38, 0x10000, 0xE000, 0x10000, 0x0, 0x0, 0x0, 0x0, 0x40000040, , ,,,,,,,,,,,,1
011cf98dbc065860ff917c2e478642426626e55f6241c82a8c8c4bc697433301, 0x10B, 0x6, 0x0, 0x5E00, 0x28000, 0x400, 0x3150, 0x1000, 0x7000, 0x400000, 0x1000, 0x200, 0x4, 0x0, 0x6, 0x0, 0x4, 0x0, 0x0, 0x38000, 0x400, 0x0, 0x2, 0x8000, 0x100000, 0x1000, 0x100000, 0x1000, 0x0, 0x10, , .text, 0x5DC4, 0x5DC4, 0x5DC4, 0x1000, 0x5E00, 0x400, 0x0, 0x0, 0x0, 0x0, 0x60000020, , .rdata, 0x129C, 0x129C, 0x129C, 0x7000, 0x1400, 0x6200, 0x0, 0x0, 0x0, 0x0, 0x40000040, , .data, 0x25C58, 0x25C58, 0x25C58, 0x9000, 0x400, 0x7600, 0x0, 0x0, 0x0, 0x0, 0xC0000040, , .ndata, 0x8000, 0x8000, 0x8000, 0x2F000, 0x0, 0x0, 0x0, 0x0, 0x0, 0x0, 0xC0000080, , .rsrc, 0x334, 0x334, 0x334, 0x37000, 0x400, 0x7A00, 0x0, 0x0, 0x0, 0x0, 0x40000040,1
016709a5162d439d9dfaa5346d1c25e11ce832484ae3d396b8ede2b2b9641e75, 0x10B, 0x2, 0x19, 0x9200, 0x3E00, 0x0, 0x9AA0, 0x1000, 0xB000, 0x400000, 0x1000, 0x200, 0x1, 0x0, 0x6, 0x0, 0x4, 0x0, 0x0, 0x14000, 0x400, 0x0, 0x2, 0x8000, 0x100000, 0x4000, 0x100000, 0x1000, 0x0, 0x10, , CODE, 0x91C0, 0x91C0, 0x91C0, 0x1000, 0x9200, 0x400, 0x0, 0x0, 0x0, 0x0, 0x60000020, , DATA, 0x24C, 0x24C, 0x24C, 0xB000, 0x400, 0x9600, 0x0, 0x0, 0x0, 0x0, 0xC0000040, , BSS, 0xE48, 0xE48, 0xE48, 0xC000, 0x0, 0x9A00, 0x0, 0x0, 0x0, 0x0, 0xC0000000, , .idata, 0x94C, 0x94C, 0x94C, 0xD000, 0xA00, 0x9A00, 0x0, 0x0, 0x0, 0x0, 0xC0000040, , .tls, 0x8, 0x8, 0x8, 0xE000, 0x0, 0xA400, 0x0, 0x0, 0x0, 0x0, 0xC0000000,1
017ca29ca4b56d47961c23e7f2c7252557651564df7fb6f4cff0ae299df2a028, 0x10B, 0x6, 0x0, 0x7000, 0x4000, 0x0, 0x719D, 0x1000, 0x8000, 0x10000000, 0x1000, 0x1000, 0x4, 0x0, 0x0, 0x0, 0x4, 0x0, 0x0, 0xC000, 0x1000, 0x0, 0x2, 0x0, 0x100000, 0x1000, 0x100000, 0x1000, 0x0, 0x10, , .text, 0x6240, 0x6240, 0x6240, 0x1000, 0x7000, 0x1000, 0x0, 0x0, 0x0, 0x0, 0x60000020, , .rdata, 0xB04, 0xB04, 0xB04, 0x8000, 0x1000, 0x8000, 0x0, 0x0, 0x0, 0x0, 0x40000040, , .data, 0xE84, 0xE84, 0xE84, 0x9000, 0x1000, 0x9000, 0x0, 0x0, 0x0, 0x0, 0xC0000040, , .rsrc, 0x650, 0x650, 0x650, 0xA000, 0x1000, 0xA000, 0x0, 0x0, 0x0, 0x0, 0x40000040, , .reloc, 0x610, 0x610, 0x610, 0xB000, 0x1000, 0xB000, 0x0, 0x0, 0x0, 0x0, 0x42000040,1
01ee96ab3bc3497c381b86c95f5f5f879cb4833362fef277233e867506415ae6, 0x10B, 0x6, 0x0, 0x5E00, 0x28000, 0x400, 0x3150, 0x1000, 0x7000, 0x400000, 0x1000, 0x200, 0x4, 0x0, 0x6, 0x0, 0x4, 0x0, 0x0, 0x38000, 0x400, 0x0, 0x2, 0x8000, 0x100000, 0x1000, 0x100000, 0x1000, 0x0, 0x10, , .text, 0x5DC4, 0x5DC4, 0x5DC4, 0x1000, 0x5E00, 0x400, 0x0, 0x0, 0x0, 0x0, 0x60000020, , .rdata, 0x129C, 0x129C, 0x129C, 0x7000, 0x1400, 0x6200, 0x0, 0x0, 0x0, 0x0, 0x40000040, , .data, 0x25C58, 0x25C58, 0x25C58, 0x9000, 0x400, 0x7600, 0x0, 0x0, 0x0, 0x0, 0xC0000040, , .ndata, 0x8000, 0x8000, 0x8000, 0x2F000, 0x0, 0x0, 0x0, 0x0, 0x0, 0x0, 0xC0000080, , .rsrc, 0x334, 0x334, 0x334, 0x37000, 0x400, 0x7A00, 0x0, 0x0, 0x0, 0x0, 0x40000040,1
021bfd931198af59c600c01ae86aed92fa8c4a0d2ca657b5ac9bb2bb6ca67ebe, 0x10B, 0x6, 0x0, 0x22000, 0x17000, 0x0, 0x9FB6, 0x1000, 0x23000, 0x400000, 0x1000, 0x1000, 0x4, 0x0, 0x0, 0x0, 0x4, 0x0, 0x0, 0x3A000, 0x1000, 0x0, 0x2, 0x0, 0x100000, 0x1000, 0x100000, 0x1000, 0x0, 0x10, , .text, 0x21ECA, 0x21ECA, 0x21ECA, 0x1000, 0x22000, 0x1000, 0x0, 0x0, 0x0, 0x0, 0x60000020, , .rdata, 0x6F38, 0x6F38, 0x6F38, 0x23000, 0x7000, 0x23000, 0x0, 0x0, 0x0, 0x0, 0x40000040, , .data, 0x916C, 0x916C, 0x916C, 0x2A000, 0x6000, 0x2A000, 0x0, 0x0, 0x0, 0x0, 0xC0000040, , .rsrc, 0x5868, 0x5868, 0x5868, 0x34000, 0x6000, 0x30000, 0x0, 0x0, 0x0, 0x0, 0x40000040, , ,,,,,,,,,,,,1
0299617b6dc2aee9413963b42f9f91e6d15b63c23d7ceef1a7acfef0622639ce, 0x10B, 0x6, 0x0, 0x5E00, 0x28000, 0x400, 0x3150, 0x1000, 0x7000, 0x400000, 0x1000, 0x200, 0x4, 0x0, 0x6, 0x0, 0x4, 0x0, 0x0, 0x38000, 0x400, 0x0, 0x2, 0x8000, 0x100000, 0x1000, 0x100000, 0x1000, 0x0, 0x10, , .text, 0x5DC4, 0x5DC4, 0x5DC4, 0x1000, 0x5E00, 0x400, 0x0, 0x0, 0x0, 0x0, 0x60000020, , .rdata, 0x129C, 0x129C, 0x129C, 0x7000, 0x1400, 0x6200, 0x0, 0x0, 0x0, 0x0, 0x40000040, , .data, 0x25C58, 0x25C58, 0x25C58, 0x9000, 0x400, 0x7600, 0x0, 0x0, 0x0, 0x0, 0xC0000040, , .ndata, 0x8000, 0x8000, 0x8000, 0x2F000, 0x0, 0x0, 0x0, 0x0, 0x0, 0x0, 0xC0000080, , .rsrc, 0x334, 0x334, 0x334, 0x37000, 0x400, 0x7A00, 0x0, 0x0, 0x0, 0x0, 0x40000040,1
029c37e235603ca2c8eb6865f0b4d6aa9d00433b31de4904264f47fa9c3af3b1, 0x10B, 0x6, 0x0, 0x5E00, 0x28000, 0x400, 0x3150, 0x1000, 0x7000, 0x400000, 0x1000, 0x200, 0x4, 0x0, 0x6, 0x0, 0x4, 0x0, 0x0, 0x38000, 0x400, 0x0, 0x2, 0x8000, 0x100000, 0x1000, 0x100000, 0x1000, 0x0, 0x10, , .text, 0x5DC4, 0x5DC4, 0x5DC4, 0x1000, 0x5E00, 0x400, 0x0, 0x0, 0x0, 0x0, 0x60000020, , .rdata, 0x129C, 0x129C, 0x129C, 0x7000, 0x1400, 0x6200, 0x0, 0x0, 0x0, 0x0, 0x40000040, , .data, 0x25C58, 0x25C58, 0x25C58, 0x9000, 0x400, 0x7600, 0x0, 0x0, 0x0, 0x0, 0xC0000040, , .ndata, 0x8000, 0x8000, 0x8000, 0x2F000, 0x0, 0x0, 0x0, 0x0, 0x0, 0x0, 0xC0000080, , .rsrc, 0x334, 0x334, 0x334, 0x37000, 0x400, 0x7A00, 0x0, 0x0, 0x0, 0x0, 0x40000040,1
02d9302359c66271bf0c0d221dc9c90d396f3119d547ac22170fcbbf8050f306, 0x10B, 0x2, 0x19, 0x66200, 0x32200, 0x0, 0x66FC4, 0x1000, 0x68000, 0x400000, 0x1000, 0x200, 0x4, 0x0, 0x0, 0x0, 0x4, 0x0, 0x0, 0x9F000, 0x400, 0x0, 0x2, 0x0, 0x100000, 0x4000, 0x100000, 0x1000, 0x0, 0x10, , CODE, 0x6600C, 0x6600C, 0x6600C, 0x1000, 0x66200, 0x400, 0x0, 0x0, 0x0, 0x0, 0x60000020, , DATA, 0x15B8, 0x15B8, 0x15B8, 0x68000, 0x1600, 0x66600, 0x0, 0x0, 0x0, 0x0, 0xC0000040, , BSS, 0xC85, 0xC85, 0xC85, 0x6A000, 0x0, 0x67C00, 0x0, 0x0, 0x0, 0x0, 0xC0000000, , .idata, 0x2574, 0x2574, 0x2574, 0x6B000, 0x2600, 0x67C00, 0x0, 0x0, 0x0, 0x0, 0xC0000040, , .tls, 0x10, 0x10, 0x10, 0x6E000, 0x0, 0x6A200, 0x0, 0x0, 0x0, 0x0, 0xC0000000,1
030d4dbaeac5780acd9681a038f31e21c34f6338e926b068422681db0402ce3e, 0x10B, 0x0, 0x0, 0x1600, 0xB000, 0x0, 0x18000, 0x1000, 0x3000, 0x400000, 0x1000, 0x200, 0x4, 0x0, 0x1, 0x0, 0x4, 0x0, 0x0, 0x19000, 0x400, 0x0, 0x2, 0x400, 0x100000, 0x1000, 0x100000, 0x1000, 0x0, 0x10, , t, 0xE000, 0xE000, 0xE000, 0x1000, 0x0, 0x0, 0x0, 0x0, 0x0, 0x0, 0xC00000E0, , a, 0x9000, 0x9000, 0x9000, 0xF000, 0x8A1C, 0x400, 0x0, 0x0, 0x0, 0x0, 0xC00000E0, , ta, 0x1000, 0x1000, 0x1000, 0x18000, 0x200, 0x200, 0x0, 0x0, 0x0, 0x0, 0xC00000E0, , ,,,,,,,,,,,,,,,,,,,,,,,,,1
03151bb9a3dfebf0e0d2af5f87fed6cb68458bd62597b539bdadf3001add5d6e, 0x10B, 0x6, 0x0, 0x5800, 0x1D400, 0x400, 0x3161, 0x1000, 0x7000, 0x400000, 0x1000, 0x200, 0x4, 0x0, 0x0, 0x0, 0x4, 0x0, 0x0, 0x34000, 0x400, 0x0, 0x2, 0x0, 0x100000, 0x1000, 0x100000, 0x1000, 0x0, 0x10, , .text, 0x57F2, 0x57F2, 0x57F2, 0x1000, 0x5800, 0x400, 0x0, 0x0, 0x0, 0x0, 0x60000020, , .rdata, 0x117A, 0x117A, 0x117A, 0x7000, 0x1200, 0x5C00, 0x0, 0x0, 0x0, 0x0, 0x40000040, , .data, 0x1AFB8, 0x1AFB8, 0x1AFB8, 0x9000, 0x400, 0x6E00, 0x0, 0x0, 0x0, 0x0, 0xC0000040, , .ndata, 0xD000, 0xD000, 0xD000, 0x24000, 0x0, 0x0, 0x0, 0x0, 0x0, 0x0, 0xC0000080, , .rsrc, 0x2F48, 0x2F48, 0x2F48, 0x31000, 0x3000, 0x7200, 0x0, 0x0, 0x0, 0x0, 0x40000040,1
03e66f598b3733ee1000bfdf0c82665f9abf7f4fe12fd3ed6b0c4c49c761cb7b, 0x10B, 0x6, 0x0, 0x5E00, 0x28000, 0x400, 0x3150, 0x1000, 0x7000, 0x400000, 0x1000, 0x200, 0x4, 0x0, 0x6, 0x0, 0x4, 0x0, 0x0, 0x38000, 0x400, 0x0, 0x2, 0x8000, 0x100000, 0x1000, 0x100000, 0x1000, 0x0, 0x10, , .text, 0x5DC4, 0x5DC4, 0x5DC4, 0x1000, 0x5E00, 0x400, 0x0, 0x0, 0x0, 0x0, 0x60000020, , .rdata, 0x129C, 0x129C, 0x129C, 0x7000, 0x1400, 0x6200, 0x0, 0x0, 0x0, 0x0, 0x40000040, , .data, 0x25C58, 0x25C58, 0x25C58, 0x9000, 0x400, 0x7600, 0x0, 0x0, 0x0, 0x0, 0xC0000040, , .ndata, 0x8000, 0x8000, 0x8000, 0x2F000, 0x0, 0x0, 0x0, 0x0, 0x0, 0x0, 0xC0000080, , .rsrc, 0x334, 0x334, 0x334, 0x37000, 0x400, 0x7A00, 0x0, 0x0, 0x0, 0x0, 0x40000040,1
0431004eb6d2dd12e5a8ec0bc192ea6fd8df79a20c415627fd4543744e8ca225, 0x10B, 0x2, 0x19, 0x1AC00, 0x5600, 0x0, 0x1B32C, 0x1000, 0x1D000, 0x400000, 0x1000, 0x200, 0x4, 0x0, 0x0, 0x0, 0x4, 0x0, 0x0, 0x2E000, 0x400, 0x0, 0x2, 0x0, 0x100000, 0x4000, 0x100000, 0x1000, 0x0, 0x10, , .text, 0x29000, 0x29000, 0x29000, 0x1000, 0x29000, 0x1000, 0x32434550, 0x4F10, 0x0, 0x0, 0xE2000060, , .rsrc, 0x4000, 0x4000, 0x4000, 0x2A000, 0x4000, 0x2A000, 0x0, 0x0, 0x0, 0x0, 0xE0000020, , ,,,,,,,,,,,,,,,,,,,,,,,,,,,,,,,,,,,,,,1
0487dffe0859faab9e65da2c4e19e9c8e1353c3257a4c1d755bdaf0f30e3dcd5, 0x10B, 0x6, 0x0, 0x5C00, 0x1D400, 0x400, 0x3291, 0x1000, 0x7000, 0x400000, 0x1000, 0x200, 0x4, 0x0, 0x6, 0x0, 0x4, 0x0, 0x0, 0x30000, 0x400, 0x0, 0x2, 0x8000, 0x100000, 0x1000, 0x100000, 0x1000, 0x0, 0x10, , .text, 0x5BC0, 0x5BC0, 0x5BC0, 0x1000, 0x5C00, 0x400, 0x0, 0x0, 0x0, 0x0, 0x60000020, , .rdata, 0x1190, 0x1190, 0x1190, 0x7000, 0x1200, 0x6000, 0x0, 0x0, 0x0, 0x0, 0x40000040, , .data, 0x1AF78, 0x1AF78, 0x1AF78, 0x9000, 0x400, 0x7200, 0x0, 0x0, 0x0, 0x0, 0xC0000040, , .ndata, 0x8000, 0x8000, 0x8000, 0x24000, 0x0, 0x0, 0x0, 0x0, 0x0, 0x0, 0xC0000080, , .rsrc, 0x3B28, 0x3B28, 0x3B28, 0x2C000, 0x3C00, 0x7600, 0x0, 0x0, 0x0, 0x0, 0x40000040,1
04ad3020ea198f61e0d46e1d42ca1e99ccf42b0852eb6178b9e543532f1445b2, 0x10B, 0x6, 0x0, 0x32000, 0xE000, 0x0, 0x2568, 0x1000, 0x33000, 0x400000, 0x1000, 0x1000, 0x4, 0x0, 0x1, 0x0, 0x4, 0x0, 0x0, 0x41000, 0x1000, 0x4303E, 0x2, 0x0, 0x100000, 0x1000, 0x100000, 0x1000, 0x0, 0x10, , .text, 0x31F50, 0x31F50, 0x31F50, 0x1000, 0x32000, 0x1000, 0x0, 0x0, 0x0, 0x0, 0x60000020, , .data, 0x21A8, 0x21A8, 0x21A8, 0x33000, 0x1000, 0x33000, 0x0, 0x0, 0x0, 0x0, 0xC0000040, , .rsrc, 0xA586, 0xA586, 0xA586, 0x36000, 0xB000, 0x34000, 0x0, 0x0, 0x0, 0x0, 0x40000040, , ,,,,,,,,,,,,,,,,,,,,,,,,,1
0535af47c6a182767469b1585c0579b79f1cf8966cd50b0c9813e4a89ee12f8a, 0x10B, 0x2, 0x19, 0x10000, 0x7000, 0x3C000, 0x4C440, 0x3D000, 0x4D000, 0x400000, 0x1000, 0x200, 0x4, 0x0, 0x0, 0x0, 0x4, 0x0, 0x0, 0x54000, 0x1000, 0x0, 0x2, 0x0, 0x100000, 0x4000, 0x100000, 0x1000, 0x0, 0x10, , UPX0, 0x3C000, 0x3C000, 0x3C000, 0x1000, 0x0, 0x400, 0x0, 0x0, 0x0, 0x0, 0xE0000080, , UPX1, 0x10000, 0x10000, 0x10000, 0x3D000, 0xF800, 0x400, 0x0, 0x0, 0x0, 0x0, 0xE0000040, , .rsrc, 0x7000, 0x7000, 0x7000, 0x4D000, 0x6200, 0xFC00, 0x0, 0x0, 0x0, 0x0, 0xC0000040, , ,,,,,,,,,,,,,,,,,,,,,,,,,1
054d67d7901747dd3c9a5613b472032668aa3423b62c8e1f21f952329b918ea8, 0x10B, 0x6, 0x0, 0x7000, 0x7000, 0x0, 0x2C31, 0x1000, 0x8000, 0x400000, 0x1000, 0x1000, 0x4, 0x0, 0x0, 0x0, 0x4, 0x0, 0x0, 0xF000, 0x1000, 0x0, 0x2, 0x0, 0x100000, 0x1000, 0x100000, 0x1000, 0x0, 0x10, , .text, 0x649A, 0x649A, 0x649A, 0x1000, 0x7000, 0x1000, 0x0, 0x0, 0x0, 0x0, 0x60000020, , .rdata, 0xB00, 0xB00, 0xB00, 0x8000, 0x1000, 0x8000, 0x0, 0x0, 0x0, 0x0, 0x40000040, , .data, 0x585C, 0x585C, 0x585C, 0x9000, 0x4000, 0x9000, 0x0, 0x0, 0x0, 0x0, 0xC0000040, , ,,,,,,,,,,,,,,,,,,,,,,,,,1
05b1945e5c236dbeba258600de0dff647d3eae57d8ef5bd685e71165c399dbba, 0x10B, 0x2, 0x19, 0x44200, 0xD800, 0x0, 0x45154, 0x1000, 0x46000, 0x400000, 0x1000, 0x200, 0x1, 0x0, 0x0, 0x0, 0x4, 0x0, 0x0, 0x58000, 0x1000, 0x0, 0x2, 0x0, 0x100000, 0x4000, 0x100000, 0x1000, 0x0, 0x10, , CODE, 0x441A4, 0x441A4, 0x441A4, 0x1000, 0x44200, 0x400, 0x0, 0x0, 0x0, 0x0, 0x60000020, , DATA, 0xE8C, 0xE8C, 0xE8C, 0x46000, 0x1000, 0x44600, 0x0, 0x0, 0x0, 0x0, 0xC0000040, , BSS, 0x8F1, 0x8F1, 0x8F1, 0x47000, 0x0, 0x45600, 0x0, 0x0, 0x0, 0x0, 0xC0000000, , .idata, 0x22A2, 0x22A2, 0x22A2, 0x48000, 0x2400, 0x45600, 0x0, 0x0, 0x0, 0x0, 0xC0000040, , .tls, 0x10, 0x10, 0x10, 0x4B000, 0x0, 0x47A00, 0x0, 0x0, 0x0, 0x0, 0xC0000000,1
0633f872659262b9e991a83727453b9d73a3cd687a50a257d9f99e42821161da, 0x10B, 0x6, 0x0, 0x5E00, 0x28000, 0x400, 0x3150, 0x1000, 0x7000, 0x400000, 0x1000, 0x200, 0x4, 0x0, 0x6, 0x0, 0x4, 0x0, 0x0, 0x38000, 0x400, 0x0, 0x2, 0x8000, 0x100000, 0x1000, 0x100000, 0x1000, 0x0, 0x10, , .text, 0x5DC4, 0x5DC4, 0x5DC4, 0x1000, 0x5E00, 0x400, 0x0, 0x0, 0x0, 0x0, 0x60000020, , .rdata, 0x129C, 0x129C, 0x129C, 0x7000, 0x1400, 0x6200, 0x0, 0x0, 0x0, 0x0, 0x40000040, , .data, 0x25C58, 0x25C58, 0x25C58, 0x9000, 0x400, 0x7600, 0x0, 0x0, 0x0, 0x0, 0xC0000040, , .ndata, 0x8000, 0x8000, 0x8000, 0x2F000, 0x0, 0x0, 0x0, 0x0, 0x0, 0x0, 0xC0000080, , .rsrc, 0x334, 0x334, 0x334, 0x37000, 0x400, 0x7A00, 0x0, 0x0, 0x0, 0x0, 0x40000040,1
06b170f93da617f37be8d9170d5b6444503e4635a4a5c3f1ae63a5ab296ca1f1, 0x10B, 0x2, 0x19, 0x10C00, 0x8000, 0x0, 0x12208, 0x1000, 0x13000, 0x400000, 0x1000, 0x200, 0x4, 0x0, 0x0, 0x0, 0x4, 0x0, 0x0, 0x27000, 0x400, 0x0, 0x2, 0x0, 0x100000, 0x4000, 0x100000, 0x1000, 0x0, 0x10, , .text, 0x22000, 0x22000, 0x22000, 0x1000, 0x22000, 0x1000, 0x32434550, 0x4F10, 0x0, 0x0, 0xE2000060, , .rsrc, 0x4000, 0x4000, 0x4000, 0x23000, 0x4000, 0x23000, 0x0, 0x0, 0x0, 0x0, 0xE0000020, , ,,,,,,,,,,,,,,,,,,,,,,,,,,,,,,,,,,,,,,1
06c975ab39ce1d74f7c63f6fa0b1bde1756bf0f37619b90e4cad500b7962a62c, 0x10B, 0x6, 0x0, 0x5E00, 0x28000, 0x400, 0x3150, 0x1000, 0x7000, 0x400000, 0x1000, 0x200, 0x4, 0x0, 0x6, 0x0, 0x4, 0x0, 0x0, 0x38000, 0x400, 0x0, 0x2, 0x8000, 0x100000, 0x1000, 0x100000, 0x1000, 0x0, 0x10, , .text, 0x5DC4, 0x5DC4, 0x5DC4, 0x1000, 0x5E00, 0x400, 0x0, 0x0, 0x0, 0x0, 0x60000020, , .rdata, 0x129C, 0x129C, 0x129C, 0x7000, 0x1400, 0x6200, 0x0, 0x0, 0x0, 0x0, 0x40000040, , .data, 0x25C58, 0x25C58, 0x25C58, 0x9000, 0x400, 0x7600, 0x0, 0x0, 0x0, 0x0, 0xC0000040, , .ndata, 0x8000, 0x8000, 0x8000, 0x2F000, 0x0, 0x0, 0x0, 0x0, 0x0, 0x0, 0xC0000080, , .rsrc, 0x334, 0x334, 0x334, 0x37000, 0x400, 0x7A00, 0x0, 0x0, 0x0, 0x0, 0x40000040,1
06d245a942038cdaf8f1d51f78d07bae3a7e706e3104600498a469dd08aa4020, 0x10B, 0x6, 0x0, 0x5E00, 0x28000, 0x400, 0x3150, 0x1000, 0x7000, 0x400000, 0x1000, 0x200, 0x4, 0x0, 0x6, 0x0, 0x4, 0x0, 0x0, 0x38000, 0x400, 0x0, 0x2, 0x8000, 0x100000, 0x1000, 0x100000, 0x1000, 0x0, 0x10, , .text, 0x5DC4, 0x5DC4, 0x5DC4, 0x1000, 0x5E00, 0x400, 0x0, 0x0, 0x0, 0x0, 0x60000020, , .rdata, 0x129C, 0x129C, 0x129C, 0x7000, 0x1400, 0x6200, 0x0, 0x0, 0x0, 0x0, 0x40000040, , .data, 0x25C58, 0x25C58, 0x25C58, 0x9000, 0x400, 0x7600, 0x0, 0x0, 0x0, 0x0, 0xC0000040, , .ndata, 0x8000, 0x8000, 0x8000, 0x2F000, 0x0, 0x0, 0x0, 0x0, 0x0, 0x0, 0xC0000080, , .rsrc, 0x334, 0x334, 0x334, 0x37000, 0x400, 0x7A00, 0x0, 0x0, 0x0, 0x0, 0x40000040,1
070f7a039d1e6b1c63eaede904a934f4f26de3c2ff7150bbb2737050615e2aca, 0x10B, 0x6, 0x0, 0x5E00, 0x28400, 0x400, 0x3150, 0x1000, 0x7000, 0x400000, 0x1000, 0x200, 0x4, 0x0, 0x6, 0x0, 0x4, 0x0, 0x0, 0x3C000, 0x400, 0x0, 0x2, 0x8000, 0x100000, 0x1000, 0x100000, 0x1000, 0x0, 0x10, , .text, 0x5DC4, 0x5DC4, 0x5DC4, 0x1000, 0x5E00, 0x400, 0x0, 0x0, 0x0, 0x0, 0x60000020, , .rdata, 0x129C, 0x129C, 0x129C, 0x7000, 0x1400, 0x6200, 0x0, 0x0, 0x0, 0x0, 0x40000040, , .data, 0x25C58, 0x25C58, 0x25C58, 0x9000, 0x400, 0x7600, 0x0, 0x0, 0x0, 0x0, 0xC0000040, , .ndata, 0x8000, 0x8000, 0x8000, 0x2F000, 0x0, 0x0, 0x0, 0x0, 0x0, 0x0, 0xC0000080, , .rsrc, 0x4B20, 0x4B20, 0x4B20, 0x37000, 0x4C00, 0x7A00, 0x0, 0x0, 0x0, 0x0, 0x40000040,1
0751fb9e56d988be875cdf5b67b411af96f040c67b84ab17c67f66c69a7bb604, 0x10B, 0x6, 0x0, 0x5E00, 0x28000, 0x400, 0x3150, 0x1000, 0x7000, 0x400000, 0x1000, 0x200, 0x4, 0x0, 0x6, 0x0, 0x4, 0x0, 0x0, 0x38000, 0x400, 0x0, 0x2, 0x8000, 0x100000, 0x1000, 0x100000, 0x1000, 0x0, 0x10, , .text, 0x5DC4, 0x5DC4, 0x5DC4, 0x1000, 0x5E00, 0x400, 0x0, 0x0, 0x0, 0x0, 0x60000020, , .rdata, 0x129C, 0x129C, 0x129C, 0x7000, 0x1400, 0x6200, 0x0, 0x0, 0x0, 0x0, 0x40000040, , .data, 0x25C58, 0x25C58, 0x25C58, 0x9000, 0x400, 0x7600, 0x0, 0x0, 0x0, 0x0, 0xC0000040, , .ndata, 0x8000, 0x8000, 0x8000, 0x2F000, 0x0, 0x0, 0x0, 0x0, 0x0, 0x0, 0xC0000080, , .rsrc, 0x334, 0x334, 0x334, 0x37000, 0x400, 0x7A00, 0x0, 0x0, 0x0, 0x0, 0x40000040,1
07627db0ed8ebcb0d1af99ae5348d02db15cd34aa64e6b63d372e65428745a80, 0x10B, 0x2, 0x19, 0x63800, 0x19000, 0x0, 0x645D4, 0x1000, 0x65000, 0x400000, 0x1000, 0x200, 0x4, 0x0, 0x0, 0x0, 0x4, 0x0, 0x0, 0x88000, 0x400, 0x0, 0x2, 0x0, 0x100000, 0x4000, 0x100000, 0x1000, 0x0, 0x10, , CODE, 0x82000, 0x82000, 0x82000, 0x1000, 0x82000, 0x1000, 0x32434550, 0x4F5E, 0x0, 0x0, 0xE0000020, , .rsrc, 0x5000, 0x5000, 0x5000, 0x83000, 0x5000, 0x83000, 0x0, 0x0, 0x0, 0x0, 0xE0000020, , ,,,,,,,,,,,,,,,,,,,,,,,,,,,,,,,,,,,,,,1
07e49784280e8593e84c5c5cbc73fc2fe32de19937941a0943d37475f90c3636, 0x10B, 0x6, 0x0, 0x2C000, 0x22000, 0x84000, 0x2AAA, 0x85000, 0xB1000, 0x400000, 0x1000, 0x200, 0x4, 0x0, 0x0, 0x0, 0x4, 0x0, 0x0, 0xD3000, 0x1000, 0x0, 0x2, 0x0, 0x100000, 0x1000, 0x100000, 0x1000, 0x0, 0x10, , UPX0, 0x84000, 0x84000, 0x84000, 0x1000, 0x84000, 0x400, 0x0, 0x0, 0x0, 0x0, 0xE0000080, , UPX1, 0x2C000, 0x2C000, 0x2C000, 0x85000, 0x2BC00, 0x84400, 0x0, 0x0, 0x0, 0x0, 0xE0000040, , .rsrc, 0x22000, 0x22000, 0x22000, 0xB1000, 0x21C00, 0xB0000, 0x0, 0x0, 0x0, 0x0, 0xC0000040, , ,,,,,,,,,,,,,,,,,,,,,,,,,1
080f97925134ba3a5d9f835189996e6abab6cb660ea8d29bf3b533690c6e7114, 0x10B, 0x6, 0x0, 0x1B000, 0xF000, 0x0, 0x5697, 0x1000, 0x1C000, 0x400000, 0x1000, 0x1000, 0x4, 0x0, 0x0, 0x0, 0x4, 0x0, 0x0, 0x2B000, 0x1000, 0x0, 0x2, 0x0, 0x100000, 0x1000, 0x100000, 0x1000, 0x0, 0x10, , .text, 0x1AC9E, 0x1AC9E, 0x1AC9E, 0x1000, 0x1B000, 0x1000, 0x0, 0x0, 0x0, 0x0, 0x60000020, , .rdata, 0x55FA, 0x55FA, 0x55FA, 0x1C000, 0x6000, 0x1C000, 0x0, 0x0, 0x0, 0x0, 0x40000040, , .data, 0x784C, 0x784C, 0x784C, 0x22000, 0x4000, 0x22000, 0x0, 0x0, 0x0, 0x0, 0xC0000040, , .rsrc, 0xA0, 0xA0, 0xA0, 0x2A000, 0x1000, 0x26000, 0x0, 0x0, 0x0, 0x0, 0x40000040, , ,,,,,,,,,,,,1
08230e5d5ea8f82a5402ae128552fdc6efc3ff3fde1caf16ffd50c2ed96e474a, 0x10B, 0x6, 0x0, 0x5E00, 0x28400, 0x400, 0x3150, 0x1000, 0x7000, 0x400000, 0x1000, 0x200, 0x4, 0x0, 0x6, 0x0, 0x4, 0x0, 0x0, 0x3B000, 0x400, 0x0, 0x2, 0x8000, 0x100000, 0x1000, 0x100000, 0x1000, 0x0, 0x10, , .text, 0x5DC4, 0x5DC4, 0x5DC4, 0x1000, 0x5E00, 0x400, 0x0, 0x0, 0x0, 0x0, 0x60000020, , .rdata, 0x129C, 0x129C, 0x129C, 0x7000, 0x1400, 0x6200, 0x0, 0x0, 0x0, 0x0, 0x40000040, , .data, 0x25C58, 0x25C58, 0x25C58, 0x9000, 0x400, 0x7600, 0x0, 0x0, 0x0, 0x0, 0xC0000040, , .ndata, 0x8000, 0x8000, 0x8000, 0x2F000, 0x0, 0x0, 0x0, 0x0, 0x0, 0x0, 0xC0000080, , .rsrc, 0x3F10, 0x3F10, 0x3F10, 0x37000, 0x4000, 0x7A00, 0x0, 0x0, 0x0, 0x0, 0x40000040,1
082651e4d3dd9c1fd95c1d4582bd50f1e98479406cee358bae89b30c983663a3, 0x10B, 0x6, 0x0, 0x5E00, 0x28000, 0x400, 0x3150, 0x1000, 0x7000, 0x400000, 0x1000, 0x200, 0x4, 0x0, 0x6, 0x0, 0x4, 0x0, 0x0, 0x38000, 0x400, 0x0, 0x2, 0x8000, 0x100000, 0x1000, 0x100000, 0x1000, 0x0, 0x10, , .text, 0x5DC4, 0x5DC4, 0x5DC4, 0x1000, 0x5E00, 0x400, 0x0, 0x0, 0x0, 0x0, 0x60000020, , .rdata, 0x129C, 0x129C, 0x129C, 0x7000, 0x1400, 0x6200, 0x0, 0x0, 0x0, 0x0, 0x40000040, , .data, 0x25C58, 0x25C58, 0x25C58, 0x9000, 0x400, 0x7600, 0x0, 0x0, 0x0, 0x0, 0xC0000040, , .ndata, 0x8000, 0x8000, 0x8000, 0x2F000, 0x0, 0x0, 0x0, 0x0, 0x0, 0x0, 0xC0000080, , .rsrc, 0x334, 0x334, 0x334, 0x37000, 0x400, 0x7A00, 0x0, 0x0, 0x0, 0x0, 0x40000040,1
0862c4c0a28b5505b0aa3464b66053e6e40d2d74620c72b76c4e8b0cb0b0f54f, 0x10B, 0x2, 0x19, 0xC200, 0x3800, 0x0, 0xD0A4, 0x1000, 0xE000, 0x400000, 0x1000, 0x200, 0x1, 0x0, 0x0, 0x0, 0x4, 0x0, 0x0, 0x17000, 0x400, 0x1C375, 0x3, 0x0, 0x100000, 0x4000, 0x100000, 0x1000, 0x0, 0x10, , CODE, 0xC1A8, 0xC1A8, 0xC1A8, 0x1000, 0xC200, 0x400, 0x0, 0x0, 0x0, 0x0, 0x60000020, , DATA, 0x760, 0x760, 0x760, 0xE000, 0x800, 0xC600, 0x0, 0x0, 0x0, 0x0, 0xC0000040, , BSS, 0x655, 0x655, 0x655, 0xF000, 0x0, 0xCE00, 0x0, 0x0, 0x0, 0x0, 0xC0000000, , .idata, 0x970, 0x970, 0x970, 0x10000, 0xA00, 0xCE00, 0x0, 0x0, 0x0, 0x0, 0xC0000040, , .tls, 0xC, 0xC, 0xC, 0x11000, 0x0, 0xD800, 0x0, 0x0, 0x0, 0x0, 0xC0000000,1
088216d8991574c9bb8f263f65c23a8793339d7f10cd7e2949f6d467813a20e3, 0x10B, 0x6, 0x0, 0x5800, 0x1D400, 0x400, 0x3161, 0x1000, 0x7000, 0x400000, 0x1000, 0x200, 0x4, 0x0, 0x0, 0x0, 0x4, 0x0, 0x0, 0x33000, 0x400, 0x0, 0x2, 0x0, 0x100000, 0x1000, 0x100000, 0x1000, 0x0, 0x10, , .text, 0x57F2, 0x57F2, 0x57F2, 0x1000, 0x5800, 0x400, 0x0, 0x0, 0x0, 0x0, 0x60000020, , .rdata, 0x117A, 0x117A, 0x117A, 0x7000, 0x1200, 0x5C00, 0x0, 0x0, 0x0, 0x0, 0x40000040, , .data, 0x1AFB8, 0x1AFB8, 0x1AFB8, 0x9000, 0x400, 0x6E00, 0x0, 0x0, 0x0, 0x0, 0xC0000040, , .ndata, 0xD000, 0xD000, 0xD000, 0x24000, 0x0, 0x0, 0x0, 0x0, 0x0, 0x0, 0xC0000080, , .rsrc, 0x1530, 0x1530, 0x1530, 0x31000, 0x1600, 0x7200, 0x0, 0x0, 0x0, 0x0, 0x40000040,1
08ebf8d33118e800088128ff172f7a3d8d2f20ba45bb8930b6f17840e54514a4, 0x10B, 0x6, 0x0, 0x5E00, 0x28000, 0x400, 0x3150, 0x1000, 0x7000, 0x400000, 0x1000, 0x200, 0x4, 0x0, 0x6, 0x0, 0x4, 0x0, 0x0, 0x38000, 0x400, 0x0, 0x2, 0x8000, 0x100000, 0x1000, 0x100000, 0x1000, 0x0, 0x10, , .text, 0x5DC4, 0x5DC4, 0x5DC4, 0x1000, 0x5E00, 0x400, 0x0, 0x0, 0x0, 0x0, 0x60000020, , .rdata, 0x129C, 0x129C, 0x129C, 0x7000, 0x1400, 0x6200, 0x0, 0x0, 0x0, 0x0, 0x40000040, , .data, 0x25C58, 0x25C58, 0x25C58, 0x9000, 0x400, 0x7600, 0x0, 0x0, 0x0, 0x0, 0xC0000040, , .ndata, 0x8000, 0x8000, 0x8000, 0x2F000, 0x0, 0x0, 0x0, 0x0, 0x0, 0x0, 0xC0000080, , .rsrc, 0x334, 0x334, 0x334, 0x37000, 0x400, 0x7A00, 0x0, 0x0, 0x0, 0x0, 0x40000040,1
09299f479b84500c2aca3aee095e99727e08e71a76f557d968b124d8abced313, 0x10B, 0x6, 0x0, 0x5800, 0x1D400, 0x400, 0x3161, 0x1000, 0x7000, 0x400000, 0x1000, 0x200, 0x4, 0x0, 0x0, 0x0, 0x4, 0x0, 0x0, 0x33000, 0x400, 0x0, 0x2, 0x0, 0x100000, 0x1000, 0x100000, 0x1000, 0x0, 0x10, , .text, 0x57F2, 0x57F2, 0x57F2, 0x1000, 0x5800, 0x400, 0x0, 0x0, 0x0, 0x0, 0x60000020, , .rdata, 0x117A, 0x117A, 0x117A, 0x7000, 0x1200, 0x5C00, 0x0, 0x0, 0x0, 0x0, 0x40000040, , .data, 0x1AFB8, 0x1AFB8, 0x1AFB8, 0x9000, 0x400, 0x6E00, 0x0, 0x0, 0x0, 0x0, 0xC0000040, , .ndata, 0xD000, 0xD000, 0xD000, 0x24000, 0x0, 0x0, 0x0, 0x0, 0x0, 0x0, 0xC0000080, , .rsrc, 0x1248, 0x1248, 0x1248, 0x31000, 0x1400, 0x7200, 0x0, 0x0, 0x0, 0x0, 0x40000040,1
09517ca6c7903a0a2efab916d6818b5701b15ab7b9249af853cf0411428af40c, 0x10B, 0x2, 0x19, 0x3F000, 0x3000, 0x76000, 0x766EC, 0x77000, 0xB6000, 0x400000, 0x1000, 0x200, 0x4, 0x0, 0x0, 0x0, 0x4, 0x0, 0x0, 0xB9000, 0x1000, 0x0, 0x2, 0x0, 0x100000, 0x4000, 0x100000, 0x1000, 0x0, 0x10, , UPX0, 0x76000, 0x76000, 0x76000, 0x1000, 0x76000, 0x400, 0x0, 0x0, 0x0, 0x0, 0xE0000080, , UPX1, 0x3F000, 0x3F000, 0x3F000, 0x77000, 0x3EA00, 0x76400, 0x0, 0x0, 0x0, 0x0, 0xE0000040, , .rsrc, 0x3000, 0x3000, 0x3000, 0xB6000, 0x2800, 0xB4E00, 0x0, 0x0, 0x0, 0x0, 0xC0000040, , ,,,,,,,,,,,,,,,,,,,,,,,,,1
0978bdfcff299a5bfee17040bb91e224f961e6db3bbda36c33285d5ba2bc4ba2, 0x10B, 0x6, 0x0, 0x5E00, 0x28000, 0x400, 0x3150, 0x1000, 0x7000, 0x400000, 0x1000, 0x200, 0x4, 0x0, 0x6, 0x0, 0x4, 0x0, 0x0, 0x38000, 0x400, 0x0, 0x2, 0x8000, 0x100000, 0x1000, 0x100000, 0x1000, 0x0, 0x10, , .text, 0x5DC4, 0x5DC4, 0x5DC4, 0x1000, 0x5E00, 0x400, 0x0, 0x0, 0x0, 0x0, 0x60000020, , .rdata, 0x129C, 0x129C, 0x129C, 0x7000, 0x1400, 0x6200, 0x0, 0x0, 0x0, 0x0, 0x40000040, , .data, 0x25C58, 0x25C58, 0x25C58, 0x9000, 0x400, 0x7600, 0x0, 0x0, 0x0, 0x0, 0xC0000040, , .ndata, 0x8000, 0x8000, 0x8000, 0x2F000, 0x0, 0x0, 0x0, 0x0, 0x0, 0x0, 0xC0000080, , .rsrc, 0x334, 0x334, 0x334, 0x37000, 0x400, 0x7A00, 0x0, 0x0, 0x0, 0x0, 0x40000040,1
098b202893ab713b2887c5eefb5923a1f048bd83542710ec6c603a07b6dd37b1, 0x10B, 0x6, 0x0, 0x5E00, 0x28000, 0x400, 0x3150, 0x1000, 0x7000, 0x400000, 0x1000, 0x200, 0x4, 0x0, 0x6, 0x0, 0x4, 0x0, 0x0, 0x38000, 0x400, 0x0, 0x2, 0x8000, 0x100000, 0x1000, 0x100000, 0x1000, 0x0, 0x10, , .text, 0x5DC4, 0x5DC4, 0x5DC4, 0x1000, 0x5E00, 0x400, 0x0, 0x0, 0x0, 0x0, 0x60000020, , .rdata, 0x129C, 0x129C, 0x129C, 0x7000, 0x1400, 0x6200, 0x0, 0x0, 0x0, 0x0, 0x40000040, , .data, 0x25C58, 0x25C58, 0x25C58, 0x9000, 0x400, 0x7600, 0x0, 0x0, 0x0, 0x0, 0xC0000040, , .ndata, 0x8000, 0x8000, 0x8000, 0x2F000, 0x0, 0x0, 0x0, 0x0, 0x0, 0x0, 0xC0000080, , .rsrc, 0x334, 0x334, 0x334, 0x37000, 0x400, 0x7A00, 0x0, 0x0, 0x0, 0x0, 0x40000040,1
098b8eee11658985118433bb010261194a6e5032b51f391864a9b76acf7a2a79, 0x10B, 0x2, 0x19, 0x9200, 0x3E00, 0x0, 0x9AA0, 0x1000, 0xB000, 0x400000, 0x1000, 0x200, 0x1, 0x0, 0x6, 0x0, 0x4, 0x0, 0x0, 0x14000, 0x400, 0x0, 0x2, 0x8000, 0x100000, 0x4000, 0x100000, 0x1000, 0x0, 0x10, , CODE, 0x91C0, 0x91C0, 0x91C0, 0x1000, 0x9200, 0x400, 0x0, 0x0, 0x0, 0x0, 0x60000020, , DATA, 0x24C, 0x24C, 0x24C, 0xB000, 0x400, 0x9600, 0x0, 0x0, 0x0, 0x0, 0xC0000040, , BSS, 0xE48, 0xE48, 0xE48, 0xC000, 0x0, 0x9A00, 0x0, 0x0, 0x0, 0x0, 0xC0000000, , .idata, 0x94C, 0x94C, 0x94C, 0xD000, 0xA00, 0x9A00, 0x0, 0x0, 0x0, 0x0, 0xC0000040, , .tls, 0x8, 0x8, 0x8, 0xE000, 0x0, 0xA400, 0x0, 0x0, 0x0, 0x0, 0xC0000000,1
09a7f8c40260f917840336138c5ac1072aa92fa9d664b26a9ae2dc6eea678163, 0x10B, 0x6, 0x0, 0x5E00, 0x28000, 0x400, 0x3150, 0x1000, 0x7000, 0x400000, 0x1000, 0x200, 0x4, 0x0, 0x6, 0x0, 0x4, 0x0, 0x0, 0x38000, 0x400, 0x0, 0x2, 0x8000, 0x100000, 0x1000, 0x100000, 0x1000, 0x0, 0x10, , .text, 0x5DC4, 0x5DC4, 0x5DC4, 0x1000, 0x5E00, 0x400, 0x0, 0x0, 0x0, 0x0, 0x60000020, , .rdata, 0x129C, 0x129C, 0x129C, 0x7000, 0x1400, 0x6200, 0x0, 0x0, 0x0, 0x0, 0x40000040, , .data, 0x25C58, 0x25C58, 0x25C58, 0x9000, 0x400, 0x7600, 0x0, 0x0, 0x0, 0x0, 0xC0000040, , .ndata, 0x8000, 0x8000, 0x8000, 0x2F000, 0x0, 0x0, 0x0, 0x0, 0x0, 0x0, 0xC0000080, , .rsrc, 0x334, 0x334, 0x334, 0x37000, 0x400, 0x7A00, 0x0, 0x0, 0x0, 0x0, 0x40000040,1
09b9f666daffd41bb41a933d0348507f4117450a0f5c319d90f58bdbadf26a0c, 0x10B, 0x6, 0x0, 0x5E00, 0x28000, 0x400, 0x3150, 0x1000, 0x7000, 0x400000, 0x1000, 0x200, 0x4, 0x0, 0x6, 0x0, 0x4, 0x0, 0x0, 0x38000, 0x400, 0x0, 0x2, 0x8000, 0x100000, 0x1000, 0x100000, 0x1000, 0x0, 0x10, , .text, 0x5DC4, 0x5DC4, 0x5DC4, 0x1000, 0x5E00, 0x400, 0x0, 0x0, 0x0, 0x0, 0x60000020, , .rdata, 0x129C, 0x129C, 0x129C, 0x7000, 0x1400, 0x6200, 0x0, 0x0, 0x0, 0x0, 0x40000040, , .data, 0x25C58, 0x25C58, 0x25C58, 0x9000, 0x400, 0x7600, 0x0, 0x0, 0x0, 0x0, 0xC0000040, , .ndata, 0x8000, 0x8000, 0x8000, 0x2F000, 0x0, 0x0, 0x0, 0x0, 0x0, 0x0, 0xC0000080, , .rsrc, 0x334, 0x334, 0x334, 0x37000, 0x400, 0x7A00, 0x0, 0x0, 0x0, 0x0, 0x40000040,1
09bbc17c61dfcd16d8c6abe31a78f427856c96a97f1dad741ffaf47d1a4cc7cd, 0x10B, 0x6, 0x0, 0x5E00, 0x28000, 0x400, 0x3150, 0x1000, 0x7000, 0x400000, 0x1000, 0x200, 0x4, 0x0, 0x6, 0x0, 0x4, 0x0, 0x0, 0x38000, 0x400, 0x0, 0x2, 0x8000, 0x100000, 0x1000, 0x100000, 0x1000, 0x0, 0x10, , .text, 0x5DC4, 0x5DC4, 0x5DC4, 0x1000, 0x5E00, 0x400, 0x0, 0x0, 0x0, 0x0, 0x60000020, , .rdata, 0x129C, 0x129C, 0x129C, 0x7000, 0x1400, 0x6200, 0x0, 0x0, 0x0, 0x0, 0x40000040, , .data, 0x25C58, 0x25C58, 0x25C58, 0x9000, 0x400, 0x7600, 0x0, 0x0, 0x0, 0x0, 0xC0000040, , .ndata, 0x8000, 0x8000, 0x8000, 0x2F000, 0x0, 0x0, 0x0, 0x0, 0x0, 0x0, 0xC0000080, , .rsrc, 0x334, 0x334, 0x334, 0x37000, 0x400, 0x7A00, 0x0, 0x0, 0x0, 0x0, 0x40000040,1
0a13ed78effd1eede88b149cc50a65828a9b19dc1c8bfe42fe66b21a63d813fa, 0x10B, 0x2, 0x19, 0x11200, 0x9000, 0x0, 0x1000, 0x1000, 0x13000, 0x400000, 0x1000, 0x200, 0x4, 0x0, 0x0, 0x0, 0x4, 0x0, 0x0, 0x26000, 0x400, 0x14E79, 0x2, 0x0, 0x100000, 0x4000, 0x100000, 0x1000, 0x0, 0x10, , .text, 0x23000, 0x23000, 0x23000, 0x1000, 0xA600, 0x400, 0x32434550, 0x4F10, 0x0, 0x0, 0xE2000060, , .rsrc, 0x2000, 0x2000, 0x2000, 0x24000, 0x1200, 0xAA00, 0x0, 0x0, 0x0, 0x0, 0xE0000020, , ,,,,,,,,,,,,,,,,,,,,,,,,,,,,,,,,,,,,,,1
0a1a645818c217ff8941a4c909398e9ebf480796541688b0937b1be4a752ede1, 0x10B, 0x6, 0x0, 0xC000, 0x2000, 0x14000, 0x20720, 0x15000, 0x21000, 0x400000, 0x1000, 0x200, 0x4, 0x0, 0x0, 0x0, 0x4, 0x0, 0x0, 0x23000, 0x1000, 0x0, 0x2, 0x0, 0x100000, 0x1000, 0x100000, 0x1000, 0x0, 0x10, , UPX0, 0x14000, 0x14000, 0x14000, 0x1000, 0x0, 0x400, 0x0, 0x0, 0x0, 0x0, 0xE0000080, , UPX1, 0xC000, 0xC000, 0xC000, 0x15000, 0xBA00, 0x400, 0x0, 0x0, 0x0, 0x0, 0xE0000040, , .rsrc, 0x2000, 0x2000, 0x2000, 0x21000, 0x1400, 0xBE00, 0x0, 0x0, 0x0, 0x0, 0xC0000040, , ,,,,,,,,,,,,,,,,,,,,,,,,,1
0a20bbf0cfc9e0f3228e7eb7a60bfff9e6fd409c67b488d28728f8a4c21ef230, 0x10B, 0x6, 0x0, 0x5E00, 0x28000, 0x400, 0x3150, 0x1000, 0x7000, 0x400000, 0x1000, 0x200, 0x4, 0x0, 0x6, 0x0, 0x4, 0x0, 0x0, 0x38000, 0x400, 0x0, 0x2, 0x8000, 0x100000, 0x1000, 0x100000, 0x1000, 0x0, 0x10, , .text, 0x5DC4, 0x5DC4, 0x5DC4, 0x1000, 0x5E00, 0x400, 0x0, 0x0, 0x0, 0x0, 0x60000020, , .rdata, 0x129C, 0x129C, 0x129C, 0x7000, 0x1400, 0x6200, 0x0, 0x0, 0x0, 0x0, 0x40000040, , .data, 0x25C58, 0x25C58, 0x25C58, 0x9000, 0x400, 0x7600, 0x0, 0x0, 0x0, 0x0, 0xC0000040, , .ndata, 0x8000, 0x8000, 0x8000, 0x2F000, 0x0, 0x0, 0x0, 0x0, 0x0, 0x0, 0xC0000080, , .rsrc, 0x334, 0x334, 0x334, 0x37000, 0x400, 0x7A00, 0x0, 0x0, 0x0, 0x0, 0x40000040,1
0ab19e877a61c9c01887926b9171e659edc9c4a1661640256ded2a7af1ab581d, 0x10B, 0x6, 0x0, 0x5E00, 0x28000, 0x400, 0x3150, 0x1000, 0x7000, 0x400000, 0x1000, 0x200, 0x4, 0x0, 0x6, 0x0, 0x4, 0x0, 0x0, 0x38000, 0x400, 0x0, 0x2, 0x8000, 0x100000, 0x1000, 0x100000, 0x1000, 0x0, 0x10, , .text, 0x5DC4, 0x5DC4, 0x5DC4, 0x1000, 0x5E00, 0x400, 0x0, 0x0, 0x0, 0x0, 0x60000020, , .rdata, 0x129C, 0x129C, 0x129C, 0x7000, 0x1400, 0x6200, 0x0, 0x0, 0x0, 0x0, 0x40000040, , .data, 0x25C58, 0x25C58, 0x25C58, 0x9000, 0x400, 0x7600, 0x0, 0x0, 0x0, 0x0, 0xC0000040, , .ndata, 0x8000, 0x8000, 0x8000, 0x2F000, 0x0, 0x0, 0x0, 0x0, 0x0, 0x0, 0xC0000080, , .rsrc, 0x334, 0x334, 0x334, 0x37000, 0x400, 0x7A00, 0x0, 0x0, 0x0, 0x0, 0x40000040,1
